Suburb,Pharmacy name,Address,Postcode,Phone,Local Government Area,Service
Abbottsford,Wareemba Pharmacy,278 Great North Road,2046,(02) 9713 8629,City of Canada Bay Council,"Urinary tract infection, Oral contraceptive pill"
Aberglasslyn,TerryWhite Chemmart Aberglasslyn,"Shop1&2, 8 Mckeachie Drive",2320,(02) 4937 6929,Maitland City Council,"Urinary tract infection, Oral contraceptive pill"
Abermain,Abermain Phar​macy,193 Cessnock Road,2326,(02) 4930 4442,Cessnock City Council,"Urinary tract infection, Oral contraceptive pill"
Adamstown,Wilsons Pharmacy Adamstown,256 Brunker Road,2289,(02) 4957 1817,Newcastle City Council,"Urinary tract infection, Oral contraceptive pill"
Ainslie,Terry White Chemmart Compounding Ainslie,1/17 Edgar Street,2602,(02) 6248 7708​,Australian Capital Territory,"Urinary tract infection, Oral contraceptive pill"
Airds,Chemist Warehouse Newbrook Shopping Village Airds,"Shop 3-5, 44 Riverside Drive",2560,(02) 8381 4530,Campbelltown City Council,"Urinary tract infection, Oral contraceptive pill"
Albion Park,Albion Park Pharmacy 777,1/167 Tongarra Road,2527,(02) 4256 4610,Shellharbour City Council,"Urinary tract infection, Oral contraceptive pill"
Albion Park,Albion Park Rail Pharmacy,191 Princes Highway,2527,(02) 4256 1403,Shellharbour City Council,"Urinary tract infection, Oral contraceptive pill"
Albury,Blooms the Chemist Albury West End,14/487 Kiewa Street,2640,(02) 6021 3713,City of Albury,"Urinary tract infection, Oral contraceptive pill"
Albury,Priceline Pharmacy Albury,543 Dean Street,2640,(02) 6021 2714,Albury City Council,"Urinary tract infection, Oral contraceptive pill"
Albury,TerryWhite Chemmart Albury City,Shop 12/525 David Street,2640,(02) 6021 6493,Albury City Council,"Urinary tract infection, Oral contraceptive pill"
Albury,Gardens Compounding Pharmacy,470 Wodonga Place,2640,(02) 6021 3666,Albury City Council,"Urinary tract infection, Oral contraceptive pill"
Albury,Mate Street Pharmacy,1089 Mate Street,2640,(02) 6025 1833,Albury City Council,"Urinary tract infection, Oral contraceptive pill"
Alexandria,Chemist Warehouse Alexandria,135-139 McEvoy Street,2015,(02) 9698 2027,Council of the City of Sydney,"Urinary tract infection, Oral contraceptive pill"
Alexandria,Fountain Street Chemist,"Shop 3, 2-10 Fountain St",2015,(02) 8095 0312,City of Sydney,"Urinary tract infection, Oral contraceptive pill"
Alfords Point,Alfords Point Pharmacy,1/62-64 Coachwood Crescent,2234,(02) 9541 0700,Sutherland Shire Council,"Urinary tract infection, Oral contraceptive pill"
Allambie Heights,Allambie Compounding Pharmacy,10 Grigor Place,2100,(02) 9451 5461,Northern Beaches Council,"Urinary tract infection, Oral contraceptive pill"
Anna Bay,Anna Bay Pharmacy,129 Gan Gan Road,2316,(02) 4982 2490,Port Stephens Council,"Urinary tract infection, Oral contraceptive pill"
Annangrove,Annangrove Pharmacy,3/169 Annangrove Road,2156,(02) 9679 2635,The Hills Shire Council,"Urinary tract infection, Oral contraceptive pill"
Appin,Appin Compounding Pharmacy,Shop 2/75 Appin Road,2560,(02) 4631 1488,Wollondilly Shire Council,"Urinary tract infection, Oral contraceptive pill"
Ardlethan,Ardlethan Pharmacy,32A Ariah Street,2665,(02) 6978 2068,Coolamon Shire Council,"Urinary tract infection, Oral contraceptive pill"
Ariah Park,Ariah Park Pharmacy,71 Coolamon St,2665,(02) 6974 1079,Temora Shire Council,"Urinary tract infection, Oral contraceptive pill"
Armidale,Priceline Pharmacy Armidale,210-212 Beardy Street,2350,(02) 6772 0486,Armidale Regional Council,"Urinary tract infection, Oral contraceptive pill"
Armidale,Mountview Pharmacy,28A Rockvale Road,2350,(02) 6772 7557,Armidale Regional Council,"Urinary tract infection, Oral contraceptive pill"
Armidale,Good Price Pharmacy Warehouse Armidale,Shop 33-34 Armidale Plaza,2350,(02) 6772 3331,Armidale Regional Council,"Urinary tract infection, Oral contraceptive pill"
Armidale,GP Discount Pharmacy Armidale,114 Dangar Street,2350,(02) 6771 1234,Armidale Regional Council,"Urinary tract infection, Oral contraceptive pill"
Armidale,TerryWhite Chemmart Armidale,"Shop 25, Armidale Central, 225 Beardy Street",2350,(02) 6772 7836,Armidale Regional Council,"Urinary tract infection, Oral contraceptive pill"
Armidale,Cincotta Discount Chemist Armidale,90-96 Marsh Street,2350,(02) 6772 2317,Armidale Regional Council,"Urinary tract infection, Oral contraceptive pill"
Arncliffe,Nonee Compounding Chemist,5 Firth Street,2205,(02) 9597 5990,Bayside Council,"Urinary tract infection, Oral contraceptive pill"
Artarmon,Chemist Warehouse Artarmon,80 Hampden Road,2064,(02) 9427 3255,Willoughby City Council,"Urinary tract infection, Oral contraceptive pill"
Artarmon,Nick Logan Pharmacist Advice,96 Hampden Road,2064,(02) 9419 6880,Willoughby City Council,"Urinary tract infection, Oral contraceptive pill"
Ashfield,Chemist Warehouse Ashfield,267-270 Liverpool Road,2131,(02) 9798 6323,Inner West Council,Urinary tract infection
Ashfield,Healthmore Pharmacy,230 Liverpool Road,2131,(02) 9798 5185,Inner West Council,"Urinary tract infection, Oral contraceptive pill"
Ashfield,Pharmacy 4 Less Ashfield,Shop 5 Level 3/260A Liverpool Road,2131,(02) 9716 0066,Inner West Council,Urinary tract infection
Ashfield,Day and Night Chemist Ashfield,1 Hercules Street,2131,(02) 9798 4778,Inner West Council,"Urinary tract infection, Oral contraceptive pill"
Auburn,Auburn Central Pharmacy,Auburn Central Shopping CentreShop Q22/57-59 Queen Street,2144,(02) 9649 2900,Cumberland Council,"Urinary tract infection, Oral contraceptive pill"
Auburn,Cincotta Discount Chemist Auburn,47-51 Auburn Road,2144,(02) 9649 7900,Cumberland Council,"Urinary tract infection, Oral contraceptive pill"
Austral,West Hoxton Pharmacy,Shop 7/400 Corner Fifteenth and Edmondson Avenue,2179,(02) 9606 0150,Liverpool City Council,"Urinary tract infection, Oral contraceptive pill"
Austral,Austral Pharmacist Advice,Corner of Edmondson Avenue and Tenth Avenue,2179,(02) 9606 9091,Liverpool City Council,"Urinary tract infection, Oral contraceptive pill"
Avalon,TerryWhite Chemmart Avalon,58-60 Old Barrenjoey Rd,2107,(02) 9973 1277,Northern Beaches Council,"Urinary tract infection, Oral contraceptive pill"
Balgowlah,Pharmacy Select Balgowlah,73/197-215 Condamine Street,2093,(02) 9949 3266,Northern Beaches Council,"Urinary tract infection, Oral contraceptive pill"
Balgowlah,Cincotta Chemist Balgowlah,352 Sydney Road,2093,(02) 9948 2631,Northern Beaches Council,Urinary tract infection
Balgowlah Heights,Balgowlah Heights Pharmacy,67 New Street West,2093,(02) 9948 2995,Northern Beaches Council,"Urinary tract infection, Oral contraceptive pill"
Ballina,Blooms the Chemist Ballina,Shop 68 Ballina Fair Corner Fox and Kerr Street,2478,(02) 6686 9202,Ballina Shire Council,Urinary tract infection
Ballina,Priceline Pharmacy Ballina Central,"Shop 2, Ballina Central, 44 Bangalow Road",2478,(02) 6681 5733,Ballina Shire Council,"Urinary tract infection, Oral contraceptive pill"
Ballina,TerryWhite Chemmart Ballina,102-110 River Street,2478,(02) 6686 8800,Ballina Shire Council,"Urinary tract infection, Oral contraceptive pill"
Balmain,Wall's Pharmacy,345 Darling Street,2041,(02) 9810 1290,Inner West Council,"Urinary tract infection, Oral contraceptive pill"
Balmain,Balmain Community Pharmacy,273 Darling Street,2041,(02) 9810 2942,Inner West Council,"Urinary tract infection, Oral contraceptive pill"
Balmain,Chemist Warehouse Balmain Darling Street,293 Darling Street,2041,(02) 9810 1370,Inner West Council,"Urinary tract infection, Oral contraceptive pill"
Bangor,Bangor Pharmacy,Shop 2/121 Yala Road,2234,(02) 9543 1160,Sutherland Shire Council,"Urinary tract infection, Oral contraceptive pill"
Bankstown,Chemist Warehouse Bankstown,26-28 Bankstown City Plaza,2200,(02) 9790 1548,Canterbury Bankstown Council,"Urinary tract infection, Oral contraceptive pill"
Bankstown,Pharmacy 4 Less Bankstown Central,1 North Terrace Shop SP247,2200,(02) 9569 3222,Canterbury Bankstown Council,"Urinary tract infection, Oral contraceptive pill"
Bankstown,Bankstown Central Pharmacy,"North Terrace, Shop MM014A",2200,(02) 9709 3080,Canterbury Bankstown Council,Urinary tract infection
Bankstown,Chau's Pharmacy,302 Chapel Road,2200,(02) 9796 2424,Canterbury Bankstown Council,"Urinary tract infection, Oral contraceptive pill"
Bankstown,Priceline Pharmacy Bankstown,1 North Terrace,2200,(02) 9708 5060,Canterbury Bankstown Council,"Urinary tract infection, Oral contraceptive pill"
Bankstown,Priceline Pharmacy Bankstown Exchange,19 Bankstown City Plaza,2200,(02) 9790 2432,Canterbury Bankstown Council,"Urinary tract infection, Oral contraceptive pill"
Banora Point,United Chemists Banora Point,Corner Leisure And Darlington Drive,2486,(07) 5524 9011,Tweed Shire Council,Urinary tract infection
Bargo,Bargo Caremore Pharmacy,4/70 Railside Avenue,2574,(02) 4684 1657,Wollondilly Shire Council,"Urinary tract infection, Oral contraceptive pill"
Basin View,Basin View Pharmacy,2/1 Tallyan Point Road,2540,(02) 4443 5038,Shoalhaven City Council,"Urinary tract infection, Oral contraceptive pill"
Bass Hill,Chemist Discount Centre Bass Hill,"Shop 33, 753 Hume Highway Road",2197,(02) 9728 2829,Canterbury Bankstown Council,"Urinary tract infection, Oral contraceptive pill"
Bateau Bay,Bateau Bay Wholelife Pharmacy and Healthfoods,Shop 11-15 Bateau Bay Square Bay Village Road,2261,(02) 4332 9439,Central Coast Council,"Urinary tract infection, Oral contraceptive pill"
Bateau Bay,TerryWhite Chemmart Bateau Bay,"Shop 75 Bateau Bay Square, Bay Village Road",2261,(02) 4332 5166,Central Coast Council,"Urinary tract infection, Oral contraceptive pill"
Batemans Bay,Capital Chemist Batemans Bay,"Shop G41 Village Centre, 1 Perry Street",2536,(02) 4472 9720,Eurobodalla Shire Council,"Urinary tract infection, Oral contraceptive pill"
Bathurst,TerryWhite Chemmart Bathurst,264 Stewart Street,2795,(02) 6332 6008,Bathurst Regional Council,"Urinary tract infection, Oral contraceptive pill"
Bathurst,Capital Chemist Bathurst,117 George Street,2795,(02) 6331 4033,Bathurst Region,"Urinary tract infection, Oral contraceptive pill"
Bathurst,Pharmacy 4 Less Bathurst,3/210 Howick Street,2795,(02) 6332 5316,Bathurst Regional Council,"Urinary tract infection, Oral contraceptive pill"
Bathurst,Moodie's Pharmacy,165-167 Howick Street,2795,(02) 6331 2955,Bathurst Regional Council,"Urinary tract infection, Oral contraceptive pill"
Bathurst,Blooms the Chemist Bathurst Stockland,"Shop 18A, 121 Howick Street",2795,(02) 6331 9033,Bathurst Regional Council,"Urinary tract infection, Oral contraceptive pill"
Bathurst,Forbutt's Keppel Street Pharmacy,65-67 Keppel Street,2795,(02) 6331 2899,Bathurst Regional Council,"Urinary tract infection, Oral contraceptive pill"
Batlow,The Bush Chemist Batlow,39 Pioneer Street,2730,(02) 6949 1153,Snowy Valleys Council,"Urinary tract infection, Oral contraceptive pill"
Baulkham Hills,Crestwood Centre Pharmacy,Shop 2/1a Glanmire Road,2153,(02) 9624 1434,The Hills Shire Council,"Urinary tract infection, Oral contraceptive pill"
Baulkham Hills,Chemist Outlet Baulkham Hills,323 Windsor Road,2153,(02) 9639 1500,The Hills Shire Council,"Urinary tract infection, Oral contraceptive pill"
Baulkham Hills,Priceline Pharmacy Baulkham Hills,"Shop 99, Stockland Mall, 375-383 Windsor Road, Baulkham Hills",2153,(02) 9639 5100,The Hills Shire Council,"Urinary tract infection, Oral contraceptive pill"
Baulkham Hills,The Hills Chemist,"Level 2, Building C, 3 Columbia Circuit",2153,(02) 9894 5141,The Hills Shire Council,"Urinary tract infection, Oral contraceptive pill"
Bawley Point,Bawley Point Pharmacy,8/2 Voyager Crescent,2539,(02) 4457 2990,Shoalhaven City Council,Urinary tract infection
Beaconsfield,Good Price Pharmacy Warehouse Rosebery,2/530 Botany Road,2015,(02) 9699 1333,Council of the City of Sydney,"Urinary tract infection, Oral contraceptive pill"
Beaumont Hills,Chemist Warehouse Beaumont Hills,Shop 11-12 Beaumont Shopping Centre 70 The Parkway,2155,(02) 9672 6555,The Hills Shire Council,"Urinary tract infection, Oral contraceptive pill"
Beecroft,Priceline Pharmacy Beecroft,Shop TG14 18 Hannah Street,2119,(02) 9484 1000,The Council of the Shire of Hornsby,"Urinary tract infection, Oral contraceptive pill"
Bega,Plevey's Pharmacy,154 Carp Street,2550,(02) 6492 1015,Bega Valley Shire Council,"Urinary tract infection, Oral contraceptive pill"
Bega,Direct Chemist Outlet Sapphire Marketplace,"Shop MM 01, 106 Auckland Street",2550,(02) 6492 0500,Bega Valley Shire Council,"Urinary tract infection, Oral contraceptive pill"
Belconnen,Priceline Pharmacy Belconnen,"Suite 5B/1-5 Chandler Street, Westfield Belconnen",2617,(02) 6256 8900,Australian Capital Territory,"Urinary tract infection, Oral contraceptive pill"
Belfield,Bridge Of Belfield Pharmacy,7 Burwood Road,2191,(02) 9642 2356,Canterbury Bankstown Council,"Urinary tract infection, Oral contraceptive pill"
Bellambi,Bellambi Drive Thru Pharmacy,5/53-55 Pioneer Road,2518,(02) 4284 3985,Wollongong City Council,"Urinary tract infection, Oral contraceptive pill"
Bellingen,Bellingen Pharmacy,70 Hyde Street,2454,(02) 6655 1124,Bellingen Shire Council,"Urinary tract infection, Oral contraceptive pill"
Belmont,Blooms the Chemist Belmont Central,"Shop T 7/8, Belmont Central Shopping Centre, 1 Singleton Street",2280,(02) 4945 4927,Lake Macquarie City Council,"Urinary tract infection, Oral contraceptive pill"
Belmont,Chemist Outlet Belmont,389 Pacific Highway,2280,(02) 4945 2580,Lake Macquarie City Council,"Urinary tract infection, Oral contraceptive pill"
Belmont,Blooms the Chemist Belmont Citi,"Shop 25, Belmont Citi Centre, 41 Macquarie Street",2280,(02) 4945 8878,Lake Macquarie City Council,"Urinary tract infection, Oral contraceptive pill"
Belmore,Belmore Pharmacy,393 Burwood Road,2192,(02) 9759 2624,Canterbury Bankstown Council,"Urinary tract infection, Oral contraceptive pill"
Belmore,Belmore Compounding Chemist,417 Burwood Road,2192,(02) 9759 1526,Canterbury Bankstown Council,"Urinary tract infection, Oral contraceptive pill"
Belrose,Cincotta Discount Chemist Belrose,"Shop G05, 4-6 Niangala Close",2085,(02) 9986 3331,Northern Beaches Council,"Urinary tract infection, Oral contraceptive pill"
Belrose,Belrose Chemist,"Shop 5, 56/58 Glen Street",2085,(02) 9452 5989,Northern Beaches Council,"Urinary tract infection, Oral contraceptive pill"
Berala,Health Save Berala Pharmacy,174 Woodburn Road,2141,(02) 9649 7762,Cumberland Council,"Urinary tract infection, Oral contraceptive pill"
Berala,Manning’s Pharmacy,"Shop 1, 150 Woodburn Road",2141,(02) 9649 4962,Cumberland Council,"Urinary tract infection, Oral contraceptive pill"
Beresfield,Star Discount Chemist Beresfield,"Shop 14, The Avenue Plaza, 16 Lawson Avenue",2322,(02) 4003 7797,Newcastle City Council,"Urinary tract infection, Oral contraceptive pill"
Berkeley,Berkeley Pharmacy,Corner Of Winnima Way And Park Way Avenue,2506,(02) 4271 1258,Wollongong City Council,Urinary tract infection
Berkeley Vale,Berkeley Vale Pharmacy,3/252 Lakedge Avenue,2261,(02) 4388 2323,Central Coast Council,"Urinary tract infection, Oral contraceptive pill"
Bermagui,Bermagui Pharmacy,22 Lamont Street,2546,(02) 6493 4353,Bega Valley Shire Council,"Urinary tract infection, Oral contraceptive pill"
Berridale,Berridale Pharmacy,Shop 6B/74 Jindabyne Road,2628,(02) 6456 3022,Snowy Monaro Regional Council,"Urinary tract infection, Oral contraceptive pill"
Berrigan,Berrigan Pharmacy,67/69 Chanter Street,2712,(03) 5885 2400,Berrigan Shire Council,"Urinary tract infection, Oral contraceptive pill"
Berry,The Berry Pharmacy,106 Queen Street,2535,(02) 4464 1091,Shoalhaven City Council,"Urinary tract infection, Oral contraceptive pill"
Beverly Hills,Boian Night Chemist,486 King Georges Rd,2209,(02) 9580 5182,Georges River Council,"Urinary tract infection, Oral contraceptive pill"
Bexley,Gilchrist's Pharmacy,465 Forest Road,2207,(02) 9567 2678,Bayside Council,"Urinary tract infection, Oral contraceptive pill"
Bexley North,TerryWhite Chemmart Bexley North,"Shop 5&6, 8-20 Sarsfield Circuit",2216,(02) 9150 5541,Bayside Council,"Urinary tract infection, Oral contraceptive pill"
Bexley North,McFarland's Pharmacy,19 Shaw Street,2207,(02) 9150 5560,Bayside Council,"Urinary tract infection, Oral contraceptive pill"
Bingara,Bingara Pharmacy,42 Maitland Street,2404,(02) 6724 1400,Gwydir Shire Council,"Urinary tract infection, Oral contraceptive pill"
Binnaway,Binnaway Pharmacy,16 Renshaw Street,2395,(02) 6844 1378,Warrumbungle Shire,"Urinary tract infection, Oral contraceptive pill"
Blacktown,TerryWhite Chemmart Blacktown,7/6 St Martins Crescent,2148,(02) 8834 7137,Blacktown City,"Urinary tract infection, Oral contraceptive pill"
Blacktown,Priceline Pharmacy Blacktown,"Shop 1007, 17 Patrick Street",2148,(02) 9621 3290,Blacktown City Council,"Urinary tract infection, Oral contraceptive pill"
Blacktown,Cincotta Discount Chemist Blacktown,67 Main Street,2148,(02) 9622 1937,Blacktown City,"Urinary tract infection, Oral contraceptive pill"
Blacktown,Walters Road Pharmacy,74D Walters Road,2148,(02) 9622 3379,Blacktown City Council,"Urinary tract infection, Oral contraceptive pill"
Blaxland,Blaxland Day and Night Pharmacy,138 Great Western Highway,2774,(02) 4739 1611,Blue Mountains City Council,"Urinary tract infection, Oral contraceptive pill"
Blaxland,East Blaxland Community Pharmacy and Post,"Shop 1, 2 Normic Avenue",2774,(02) 4739 1513,Blue Mountains City Council,"Urinary tract infection, Oral contraceptive pill"
Bligh Park,Bligh Park Pharmacy,"Shop 4, Bligh Park Shopping Centre, 6 Colonial Drive",2756,(02) 4572 6444,Hawkesbury City Council,"Urinary tract infection, Oral contraceptive pill"
Blueys Beach,Pacific Palms Pharmacy,1/188 Boomerang Drive,2428,(02) 6554 0319,Mid-Coast Council,"Urinary tract infection, Oral contraceptive pill"
Boambee East,Boambee Discount Drug Store,2/140 Linden Avenue,2452,(02) 6658 4008,Coffs Harbour City Council,"Urinary tract infection, Oral contraceptive pill"
Boggabri,Boggabri Pharmacy,"Shop 2, 132 Merton Street",2382,(02) 6743 4344,Narrabri Shire Council,"Urinary tract infection, Oral contraceptive pill"
Bomaderry,Bomaderry Pharmacy,37B Meroo Street,2541,(02) 4421 2736,Shoalhaven City Council,"Urinary tract infection, Oral contraceptive pill"
Bomaderry,Choice Pharmacy Bomaderry,Shop 1/320 Princes Highway,2541,(02) 4421 0524,Shoalhaven City Council,"Urinary tract infection, Oral contraceptive pill"
Bondi,Arkle MediAdvice Pharmacy,81 Bondi Road,2026,(02) 9389 3118,Waverley Council,"Urinary tract infection, Oral contraceptive pill"
Bondi,Ramsay Pharmacy Bondi,165 Bondi Road,2026,(02) 9389 3668,Waverley Council,"Urinary tract infection, Oral contraceptive pill"
Bondi Beach,Bondi Pharmacy,81 Hall Street,2026,(02) 9130 4680,Waverley Council,"Urinary tract infection, Oral contraceptive pill"
Bondi Beach,Hall Street Discount Pharmacy,"Shop 1, 62 Hall Street",2026,(02) 9130 2644,Waverley Council,"Urinary tract infection, Oral contraceptive pill"
Bondi Junction,Fresh Therapeutics Bondi,Shop 6015/500 Oxford St,2022,(02) 9389 3168,Waverley Council,"Urinary tract infection, Oral contraceptive pill"
Bondi Junction,TerryWhite Chemmart Bondi Junction,"Shop 3071, 500 Oxford Street",2022,(02) 9389 6560,Waverley Council,"Urinary tract infection, Oral contraceptive pill"
Bondi Junction,Bondi Junction Pharmacy,3A Bronte Road,2022,(02) 8305 7792,Waverley Council,"Urinary tract infection, Oral contraceptive pill"
Bondi Junction,Advantage Pharmacy Bondi Junction,"Shop 1037 - 1038, 500 Oxford Street",2022,(02) 9369 1350,Waverley Council,"Urinary tract infection, Oral contraceptive pill"
Bondi Junction,Chemist Warehouse Bondi Junction,Shop 1 133-135 Oxford Street,2022,(02) 9387 3022,Waverley Council,Urinary tract infection
Bondi Junction,Your Local Bondi Junction Pharmacy,"Shop 1, 183-193 Oxford Street",2022,(02) 9387 7663,Waverley Council,"Urinary tract infection, Oral contraceptive pill"
Bondi Junction,Blooms the Chemist Bondi Junction,"Shops 5-9, 71/91 Spring Street",2022,(02) 9300 1000,Waverley Council,Urinary tract infection
Bonnells Bay,Bonnells Bay Pharmacy,7/330 Fishery Point Road,2264,(02) 4973 3744,Lake Macquarie City Council,"Urinary tract infection, Oral contraceptive pill"
Bonny Hills,Bonny Hills Pharmacy,"Shop 1, 10 Jungarra Crescent",2445,(02) 5504 5959,Port Macquarie-Hastings Council,"Urinary tract infection, Oral contraceptive pill"
Bonnyrigg,Priceline Pharmacy Bonnyrigg,"Shop 20, 100 Bonnyrigg Avenue",2177,(02) 9610 5255,Fairfield City Council,"Urinary tract infection, Oral contraceptive pill"
Bonnyrigg,Bonnyrigg Pharmacy,Shop 2/1 Rigg Place,2177,(02) 9823 3204,Fairfield City Council,"Urinary tract infection, Oral contraceptive pill"
Boolaroo,Chemistworks Boolaroo,31 Main Road,2284,(02) 4958 1063,Lake Macquarie City Council,"Urinary tract infection, Oral contraceptive pill"
Boorooma,Chemist Warehouse Boorooma,"Shop 1, 2 Phar Lap Place",2650,(02) 6933 1596,Wagga Wagga City Council,"Urinary tract infection, Oral contraceptive pill"
Boorowa,Boorowa Pharmacy,11 Marsden Street,2586,(02) 6385 3211,Hilltops Council,"Urinary tract infection, Oral contraceptive pill"
Bourke,Bourke Pharmacy,32-36 Oxley Street,2840,(02) 6872 2004,Bourke Shire Council,"Urinary tract infection, Oral contraceptive pill"
Bowral,Bowral Amcal Pharmacy,1/306 Bong Bong Street,2576,(02) 4861 1875,Wingecarribee Shire Council,"Urinary tract infection, Oral contraceptive pill"
Bowral,Capital Chemist Bowral,300 Bong Bong Street,2576,(02) 4861 2212,Wingecarribee Shire,"Urinary tract infection, Oral contraceptive pill"
Bowral,Claytons Pharmacy,270 Bong Bong Steet,2576,(02) 4861 1075,Wingecarribee Shire Council,"Urinary tract infection, Oral contraceptive pill"
Bowral,Priceline Pharmacy Bowral,10-15/310-312 Bong Bong Street,2576,(02) 4861 5255,Wingecarribee Shire Council,"Urinary tract infection, Oral contraceptive pill"
Box Hill,Choice Pharmacy Box Hill,Shop 01/745 Windsor Road,2765,(02) 8608 2271,The Hills Shire Council,"Urinary tract infection, Oral contraceptive pill"
Bradbury,Bradbury Village Pharmacy,Shop 12B 100 the Pkwy,2560,(02) 4625 2901,Campbelltown City Council,"Urinary tract infection, Oral contraceptive pill"
Braidwood,Capital Chemist Braidwood​​,"Shop 2, 46 Monkittee Street",2622,(02) 4842 2528,Queanbeyan-Palerang Regional Council,"Urinary tract infection, Oral contraceptive pill"
Branxton,Piggots Pharmacy Branxton,56 Maitland Street,2335,(02) 4938 1156,Cessnock City Council,"Urinary tract infection, Oral contraceptive pill"
Branxton,Piggotts Pharmacy Huntlee,"Shop 1, 22 Empire Street",2335,(02) 4067 7866,Cessnock City Council,"Urinary tract infection, Oral contraceptive pill"
Broadmeadow,Pharmacy 4 Less Broadmeadow,2/7A Griffiths Road,2292,(02) 4962 1153,Newcastle City Council,"Urinary tract infection, Oral contraceptive pill"
Broadway,Chemistworks Broadway,"Shop LG4/LG5, 1 Bay Street",2007,(02) 9212 4377,City of Sydney,"Urinary tract infection, Oral contraceptive pill"
Broken Hill,Netting Chemist,274 McCulloch Street,2880,(08) 8087 4283,Broken Hill City Council,"Urinary tract infection, Oral contraceptive pill"
Broken Hill,Amcal Westside Plaza Pharmacy Broken Hill,"Shop 28, 5 Galena Street",2880,(08) 8088 4800,Broken Hill City Council,"Urinary tract infection, Oral contraceptive pill"
Broken Hill,CP Peoples Chemist,323 Argent Street,2880,(08) 8087 3326,Broken Hill City Council,"Urinary tract infection, Oral contraceptive pill"
Broken Hill,Tembys Day and Night Pharmacy,235 Thomas Street,2880,(08) 8087 3452,Broken Hill City Council,"Urinary tract infection, Oral contraceptive pill"
Bronte,TerryWhite Chemmart Bronte Pharmacy,134 Macpherson Street,2024,(02) 9387 1791,Waverley Council,"Urinary tract infection, Oral contraceptive pill"
Bronte,Waverley Pharmacy,38A Macpherson Street,2024,(02) 9389 4216,Waverley Council,"Urinary tract infection, Oral contraceptive pill"
Brookvale,Chemist Warehouse Brookvale,"Shop 1, 2-4 Roger Street",2100,(02) 9905 5593,Northern Beaches Council,"Urinary tract infection, Oral contraceptive pill"
Brookvale,Priceline Pharmacy Warringah Mall,"Shop 427, Corner Old Pitt Water Road and Condamine Street",2100,(02) 9905 6981,Northern Beaches Council,"Urinary tract infection, Oral contraceptive pill"
Brookvale,Warringah Mall Pharmacy,"Shop 1239 Warringah Mall, Old Pittwater Road And Condamine Street",2100,(02) 9939 5525,Northern Beaches Council,"Urinary tract infection, Oral contraceptive pill"
Broulee,Broulee Pharmacy Beach,1/77 Coronation Drive,2537,(02) 4471 6001,Eurobodalla Shire Council,"Urinary tract infection, Oral contraceptive pill"
Brunswick Heads,Brunswick Heads Pharmacy,14-16 Mullumbimbi Street,2483,(02) 6685 1219,Mosman Municipal Council,"Urinary tract infection, Oral contraceptive pill"
Budgewoi,Budgewoi Discount Drug Store,79 Scenic Drive,2262,(02) 4390 9182,Central Coast Council,"Urinary tract infection, Oral contraceptive pill"
Bulahdelah,Bulahdelah Pharmacy,69 Stroud Street,2423,(02) 4997 4275,Mid-Coast Council,Urinary tract infection
Bulli,Bulli Pharmacy,Shop 4 Bulli Shopping Centre 273 Princess Highway,2516,(02) 4284 3101,Wollongong City Council,"Urinary tract infection, Oral contraceptive pill"
Bundanoon,TerryWhite Chemmart Bundanoon,Shop 2/5-9 Church Street,2578,(02) 4883 6220,Wingecarribee Shire Council,"Urinary tract infection, Oral contraceptive pill"
Burwood,Blooms the Chemist Burwood,"Shop 46-47 Burwood Plaza, 46 Railway Parade",2134,(02) 9744 9508,Burwood Council,"Urinary tract infection, Oral contraceptive pill"
Burwood,Cincotta Compounding Chemist Burwood,"Shop 1, Ground Floor, 25 Belmore Street",2134,(02) 9747 6039,Burwood Council,"Urinary tract infection, Oral contraceptive pill"
Burwood,Pharmacy 4 Less Burwood,"Shop 147-149, 100 Burwood Road",2134,(02) 9747 2189,Burwood Council,"Urinary tract infection, Oral contraceptive pill"
Burwood,Priceline Pharmacy Burwood,"Shop 301, 100 Burwood Road",2134,(02) 9744 6596,Burwood Council,"Urinary tract infection, Oral contraceptive pill"
Byron Bay,Chemist Outlet Byron Bay,51 Jonson Street,2481,(02) 6685 6475,Byron Shire Council,"Urinary tract infection, Oral contraceptive pill"
Byron Bay,Priceline Pharmacy Mercato On Byron,"T2 Mercato On Byron, 108-114 Jonson Street",2481,(02) 6685 7401,Byron Shire,Urinary tract infection
Cabarita Beach,Cabarita Beach 7-Day Chempro Chemist,"Shops 11-12, 39-45 Tweed Coast Road",2488,(02) 6676 1571,Tweed Shire Council,Urinary tract infection
Cabramatta,Cincotta Discount Chemist Cabramatta,Shop 5-7 180 Railway Parade,2166,(02) 9726 6161,Fairfield City Council,"Urinary tract infection, Oral contraceptive pill"
Cabramatta,Pham's Pharmacy,197 Railway Parade,2166,(02) 9724 2507,Fairfield City Council,"Urinary tract infection, Oral contraceptive pill"
Cabramatta,Theng's Pharmacy,2/111 John Street,2166,(02) 9724 4293,Fairfield City Council,"Urinary tract infection, Oral contraceptive pill"
Cabramatta,Park Road Compounding Pharmacy,5/54 Park Road,2166,(02) 9726 2099,Fairfield City Council,"Urinary tract infection, Oral contraceptive pill"
Cabramatta,O'Grady's Pharmacy,473 Cabramatta Road,2166,(02) 9823 6551,Fairfield City Council,"Urinary tract infection, Oral contraceptive pill"
Cabramatta,On's Pharmacy,Shop 2/76-80 John St,2166,(02) 9724 1748,Fairfield City Council,"Urinary tract infection, Oral contraceptive pill"
Cabramatta,Cabramatta East D&N Pharmacy,139 Cabramatta Road,2166,(02) 9725 6388,Fairfield City Council,"Urinary tract infection, Oral contraceptive pill"
Cabramatta,Priceline Pharmacy Cabramatta,67 John Street,2166,(02) 9727 6008,Fairfield City Council,"Urinary tract infection, Oral contraceptive pill"
Caddens,TerryWhite Chemmart Caddens Corner,"Shop 19, Caddens Corner, 68 O'Connell Street",2747,(02) 9623 0534,Penrith City Council,"Urinary tract infection, Oral contraceptive pill"
Calala,TerryWhite Chemmart Calala,Shop 4/10 Campbell Road,2340,(02) 6762 8788,Tamworth Regional Council,Urinary tract infection
Callaghan,Callaghan Campus Pharmacy,"Shop 110B Shortland Building, Union Lane, University Of Newcastle",2308,(02) 4968 8070,Newcastle City Council,"Urinary tract infection, Oral contraceptive pill"
Callala Bay,Callala Bay Pharmacy,Shop 2/55 Emmett Street,2540,(02) 4446 4251,Shoalhaven City Council,"Urinary tract infection, Oral contraceptive pill"
Calwell​​,Capital Chemist Calwell​​,"Calwell Shopping Centre, Shop 14, Calwell Shopping Centre, Webber Cres, Calwell",2905,(02) 6292 8200,Australian Capital Territory,"​Urinary tract infection, Oral contraceptive pill"
Camden,Camden Day and Night Pharmacy,146 Argyle Street,2570,(02) 4655 9370,Camden Council,"Urinary tract infection, Oral contraceptive pill"
Camden,Camden Pharmacy Focus,91 Argyle Street,2570,(02) 4655 8875,Camden Council,"Urinary tract infection, Oral contraceptive pill"
Cameron Park,Choice Pharmacy Cameron Park,"Shop T02A, 309 George Booth Drive",2285,(02) 4953 2401,Lake Macquarie City Council,"Urinary tract infection, Oral contraceptive pill"
Cammeray,Cammeray Pharmacy,"Shop 9, 450-476 Miller Street",2062,(02) 9955 3761,North Sydney Council,"Urinary tract infection, Oral contraceptive pill"
Campbelltown,Ralph's Day and Night Pharmacy,242 Queen Street,2560,(02) 4625 4269,Campbelltown City Council,Urinary tract infection
Campbelltown,Chemist Warehouse Campbelltown,"Shop 12, Corner of Kellicar And Narellan Roads",2560,(02) 4625 3411,Campbelltown City Council,"Urinary tract infection, Oral contraceptive pill"
Campbelltown,Chemist Warehouse Macarthur Square Campbelltown,"Shops C26 - C29, Level 1, 200 Gilchrist Drive",2560,(02) 4626 1655,Campbelltown City Council,"Urinary tract infection, Oral contraceptive pill"
Campbelltown,Priceline Pharmacy Campbelltown Mall,"Shop 5-6, 271 Queen Street",2560,(02) 4627 2555,Campbelltown City Council,"Urinary tract infection, Oral contraceptive pill"
Campbelltown,Amcal Campbelltown Pharmacy,241 Queen Street,2560,(02) 4640 8000,Campbelltown City Council,"Urinary tract infection, Oral contraceptive pill"
Campbelltown,Seftons Pharmacy,6/66 Chamberlain Street,2560,(07) 1431 4147,Campbelltown City Council,"Urinary tract infection, Oral contraceptive pill"
Campsie,Cincotta Chemist Campsie,157-159 Beamish Street,2194,(02) 9789 9000,Canterbury Bankstown Council,"Urinary tract infection, Oral contraceptive pill"
Campsie,Chemist Warehouse Campsie,265 Beamish Street,2194,(02) 9787 5077,Canterbury Bankstown Council,"Urinary tract infection, Oral contraceptive pill"
Campsie,Campsie Pharmacy,"Shop 1, 220-222 Beamish Street",2194,(02) 9718 3205,Canterbury Bankstown Council,Urinary tract infection
Campsie,Campsie Discount Drug Store,259 Beamish Street,2194,(02) 9789 5441,Canterbury Bankstown Council,"Urinary tract infection, Oral contraceptive pill"
Canley Heights,Canley Heights Pharmacy,227a Canley Vale Road,2166,(02) 9724 2902,Fairfield City Council,"Urinary tract infection, Oral contraceptive pill"
Canterbury,Priceline Pharmacy Canterbury,Suite 11/2E Charles Street,2193,(02) 9718 0192,Canterbury Bankstown Council,"Urinary tract infection, Oral contraceptive pill"
Cardiff,Pharmacy Express Cardiff,6/300 Main Road,2285,(02) 4954 0011,Newcastle City Council,"Urinary tract infection, Oral contraceptive pill"
Cardiff,TerryWhite Chemmart Cardiff,"Shop 2, 50 Harrison Street",2285,(02) 4954 5355,Lake Macquarie City Council,"Urinary tract infection, Oral contraceptive pill"
Caringbah,Ramsay Pharmacy Caringbah,Shop 16/18 347 Kingsway,2229,(02) 9524 9165,Sutherland Shire,"Urinary tract infection, Oral contraceptive pill"
Caringbah,Pharmacy 4 Less Caringbah,368 Port Hacking Road,2229,(02) 9525 1258,Sutherland Shire Council,"Urinary tract infection, Oral contraceptive pill"
Caringbah,Shire Pharmacy,10-11/416 Kingsway,2229,(02) 9066 8792,Sutherland Shire Council,"Urinary tract infection, Oral contraceptive pill"
Caringbah,TerryWhite Chemmart Caringbah,483 Port Hacking Road,2229,(02) 9524 6237,Sutherland Shire Council,"Urinary tract infection, Oral contraceptive pill"
Caringbah,Cincotta Discount Chemist Caringbah,"Shop 1, 331 Kingsway",2229,(02) 9525 0309,Sutherland Shire Council,"Urinary tract infection, Oral contraceptive pill"
Caringbah,Caringbah Discount Drug Store,368 Port Hacking Road,2229,(02) 9524 6795,Sutherland Shire Council,"Urinary tract infection, Oral contraceptive pill"
Caringbah,Chemist Warehouse Caringbah,Tenancy 3-4/29-35 President Avenue,2229,(02) 9524 7121,Sutherland Shire Council,"Urinary tract infection, Oral contraceptive pill"
Carlingford,Priceline Pharmacy Carlingford Court,Shop 134,2118,(02) 9871 7533,Council of the City of Parramatta,"Urinary tract infection, Oral contraceptive pill"
Carlingford,Carmen Drive Community Pharmacy,4 Carmen Drive,2118,(02) 9871 3848,Council of the City of Parramatta,"Urinary tract infection, Oral contraceptive pill"
Carlingford,Kingsdene Pharmacy,144B Felton Road,2118,(02) 9683 3079,Council of the City of Parramatta,"Urinary tract infection, Oral contraceptive pill"
Casino,McDonalds Pharmacy - Casino,83 Walker Street,2470,(02) 6662 1036,Richmond Valley Council,"Urinary tract infection, Oral contraceptive pill"
Casino,Scrivener and Webb (Soul Pattinson Pharmacy),89 Walker Street,2470,(02) 6662 1202,Richmond Valley Council,"Urinary tract infection, Oral contraceptive pill"
Castle Hill,Carefirst Pharmacy,291A Old Northern Road,2154,(02) 9680 4763,The Hills Shire Council,"Urinary tract infection, Oral contraceptive pill"
Castle Hill,Chemist Warehouse Castle Hill Hills Super Centre,"Shop 9, 16-18 Victoria Avenue",2154,(02) 9899 9177,The Hills Shire Council,Urinary tract infection
Castle Hill,Chemist Warehouse Castle Hill,336/338 Old Northern Road,2153,(02) 8850 0698,The Hills Shire Council,Urinary tract infection
Castle Hill,Barwell Medical Centre Pharmacy,18/7-9 Barwell Avenue,2154,(02) 8677 4524,The Hills Shire Council,"Urinary tract infection, Oral contraceptive pill"
Castle Hill,TerryWhite Chemmart Knightsbridge,"Shop 4, 159 Ridgecrop Drive",2154,(02) 9680 3252,The Hills Shire Council,"Urinary tract infection, Oral contraceptive pill"
Casula,Priceline Pharmacy Casula,"Shop 38,Casula Mall, Kurrajong Road",2170,(02) 9821 1323,Liverpool City Council,"Urinary tract infection, Oral contraceptive pill"
Caves Beach,Caves Beach Pharmacy,"Shop 4, 64 Caves Beach Road",2281,(02) 4972 0795,Lake Macquarie City Council,"Urinary tract infection, Oral contraceptive pill"
Cecil Hills,Pennas Pharmacy Cecil Hills,"Shop 10, Corner Feodore Drive and Lancaster Avenue",2171,(02) 9823 6999,Liverpool City Council,"Urinary tract infection, Oral contraceptive pill"
Cessnock,Cessnock Day Night Pharmacy,202 Wollombi Road,2325,(02) 4990 3485,Cessnock City Council,"Urinary tract infection, Oral contraceptive pill"
Cessnock,Alliance Cessnock Chemist,Suite 2/275 Vincent Street,2325,(02) 4009 4054,Cessnock City Council,"Urinary tract infection, Oral contraceptive pill"
Cessnock,Priceline Pharmacy Cessnock,"Shop 8, Corner North Avenue & Darwin Street",2325,(02) 4991 8000,Cessnock City Council,"Urinary tract infection, Oral contraceptive pill"
Cessnock,Cessnock Plaza Pharmacy,"Shop 5 Cessnock Plaza, 1 Keene Street",2325,(02) 4990 6636,Cessnock City Council,"Urinary tract infection, Oral contraceptive pill"
Charlestown,Healthsave Chemist Charlestown,"Shop 1028, Level 1",2280,(02) 4942 5669,Lake Macquarie City Council,"Urinary tract infection, Oral contraceptive pill"
Charlestown,Priceline Pharmacy Charlestown Square,"Shop 1075, Pearson Street",2290,(02) 4943 2578,Lake Macquarie City Council,"Urinary tract infection, Oral contraceptive pill"
Charlestown,Chemist Warehouse Charlestown,196 Pacific Highway,2290,(02) 4943 5409,Lake Macquarie City Council,"Urinary tract infection, Oral contraceptive pill"
Charlestown,TerryWhite Chemmart Charlestown,Shop G8019/30 Pearson Street,2290,(02) 4943 6466,Lake Macquarie City Council,"Urinary tract infection, Oral contraceptive pill"
Charnwood,Capital Chemist Charnwood,"Shops 7 & 8, Charnwood Shopping Centre Lhotsky Street",2615,(02) 6258 4949,Australian Capital Territory,"Urinary tract infection, Oral contraceptive pill"
Chatswood,Chemist Warehouse Chatswood,1/387 Victoria Avenue,2067,(02) 9412 2400,Willoughby City Council,"Urinary tract infection, Oral contraceptive pill"
Chatswood,Priceline Pharmacy Chatswood - Lower,"Shop 252, 2 Spring Street",2067,(02) 9413 9481,Willoughby City Council,"Urinary tract infection, Oral contraceptive pill"
Chatswood,Chatswood Priceline Pharmacy - Upper,"Shop 438-441 Westfield Chatswood, 1 Andeson Street",2067,(02) 9412 3304,Willoughby City Council,"Urinary tract infection, Oral contraceptive pill"
Chatswood,Priceline Pharmacy Chatswood Chase,"Shop LG4, 91 Archer Street",2067,(02) 9410 3800,Willoughby City Council,"Urinary tract infection, Oral contraceptive pill"
Chatswood,TerryWhite Chemmart Chatswood Chase,"Shop B-046, 345 Victoria Avenue",2067,(02) 9419 2800,Willoughby City Council,"Urinary tract infection, Oral contraceptive pill"
Chatswood,Amcal Custom Made Medicine,"Shop 5, 260 Victoria Avenue",2067,(02) 9417 2573,Willoughby City Council,"Urinary tract infection, Oral contraceptive pill"
Chatswood,TerryWhite Chatswood Compounding,428 Victoria Avenue,2067,(02) 9419 4626,Willoughby City Council,"Urinary tract infection, Oral contraceptive pill"
Chatswood,Chemist Warehouse Chatswood Central,451 Victoria Avenue,2067,(02) 9411 3363,Willoughby City Council,"Urinary tract infection, Oral contraceptive pill"
Chester Hill,Chemist Discount Centre Chester Hill,116 Waldron Road,2162,(02) 9644 4884,Canterbury Bankstown Council,"Urinary tract infection, Oral contraceptive pill"
Chester Hill,Pharmacy 4 Less Chester Hill,154 Waldron Road,2162,(02) 9644 8727,Canterbury Bankstown Council,"Urinary tract infection, Oral contraceptive pill"
Chippendale,Priceline Pharmacy Central Park,"Shop RB03, 1 Central Park",2008,(02) 8244 1128,Council of the City of Sydney,"Urinary tract infection, Oral contraceptive pill"
Chittaway Bay,TerryWhite Chemmart Chittaway,"Shop 4, 100 Chittaway Road",2261,(02) 4388 4722,Central Coast Council,"Urinary tract infection, Oral contraceptive pill"
Clarence Town,Clarence Town Pharmacy,2/116 Prince Street,2321,(02) 4996 3300,Dungog Shire Council,"Urinary tract infection, Oral contraceptive pill"
Clemton Park,Priceline Pharmacy Clemton Park,T13/60 Charlotte Street,2206,(02) 8580 2545,Canterbury Bankstown Council,"Urinary tract infection, Oral contraceptive pill"
Cobar,John Mitchell Pharmacy,22 Marshall Street,2835,(02) 6836 2040,Cobar Shire Council,"Urinary tract infection, Oral contraceptive pill"
Coffs Harbour,TerryWhite Chemmart Coffs Harbour,Shop 51 Park Beach Road,2450,(02) 6652 4188,Bayside Council,"Urinary tract infection, Oral contraceptive pill"
Coffs Harbour,Ramsay Pharmacy Coffs Central,Shop 3 Harbour Drive,2450,(02) 6652 3950,Coffs Harbour City Council,"Urinary tract infection, Oral contraceptive pill"
Coffs Harbour,Jetty Village Pharmacy,24/361 Harbour Drive,2450,(02) 6652 3087,Coffs Harbour City Council,"Urinary tract infection, Oral contraceptive pill"
Concord,Friendly Pharmacy Concord,63 Majors Bay Road,2137,(02) 9743 2060,City of Canada Bay Council,"Urinary tract infection, Oral contraceptive pill"
Concord West,Concord West Pharmacy,25 Victoria Avenue,2138,(02) 9743 1116,City of Canada Bay Council,"Urinary tract infection, Oral contraceptive pill"
Condell Park,Condell Park Pharmacy,48A Simmat Avenue,2200,(02) 9790 3136,Canterbury Bankstown Council,"Urinary tract infection, Oral contraceptive pill"
Condobolin,Shortis & Timmins Pharmacy,75-81 Bathurst Street,2877,(02) 6895 2477,Lachlan Shire Council,"Urinary tract infection, Oral contraceptive pill"
Coogee,Blooms the Chemist Coogee,202-204 Coogee Bay Road,2034,(02) 9665 5158,City of Randwick,"Urinary tract infection, Oral contraceptive pill"
Coogee,Priceline Pharmacy Coogee,"Shop 1-3, 223-225 Coogee Bay Road",2034,(02) 9665 5841,City of Randwick,"Urinary tract infection, Oral contraceptive pill"
Cooks Hill,Darby Street Pharmacy,145 Darby Street,2300,(02) 4929 2509,Newcastle City Council,"Urinary tract infection, Oral contraceptive pill"
Coolah,Coolah Pharmacy,55 Binnia Street,2843,(02) 6377 1199,Warrumbungle Shire Council,"Urinary tract infection, Oral contraceptive pill"
Coolamon,Coolamon Pharmacy,103 Cowabbie Street,2701,(02) 6927 3204,Coolamon Shire Council,"Urinary tract infection, Oral contraceptive pill"
Cooma,Hooks Pharmacy,140-148 Sharp Street,2630,(02) 6452 1744,Snowy Monaro Regional Council,"Urinary tract infection, Oral contraceptive pill"
Cooma,Monaro Chemist,82 Vale Street,2630,(02) 6452 1599,Snowy Monaro Regional Council,"Urinary tract infection, Oral contraceptive pill"
Coonabarabran,Coonabarabran Compounding Pharmacy,77 John Street,2357,(02) 6842 1118,Warrumbungle Shire Council,"Urinary tract infection, Oral contraceptive pill"
Coonabarabran,Coonabarabran Chemist,41 John Street,2357,(02) 6842 1815,Warrumbungle Shire Council,"Urinary tract infection, Oral contraceptive pill"
Cooranbong,Cooranbong Pharmacy,Shop 2/563 Freemans Drive,2265,(02) 4977 1757,Lake Macquarie City Council,"Urinary tract infection, Oral contraceptive pill"
Cootamundra,Braybrooks Pharmacy,200 Parker Street,2590,(02) 6942 1060,Cootamundra-Gundagai Regional Council,"Urinary tract infection, Oral contraceptive pill"
Cootamundra,The Bush Chemist Cootamundra,264 Parker Street,2590,(02) 6942 1770,Cootamundra-Gundagai Regional Council,"Urinary tract infection, Oral contraceptive pill"
Cootamundra,Phil Davies Pharmacy,218 Parker Street,2590,(02) 6942 2850,Cootamundra-Gundagai Regional Council,"Urinary tract infection, Oral contraceptive pill"
Copacabana,Lucas Chemist @ Copa,"Shop 1, 208 Del Monte Place",2251,(02) 4308 6600,Central Coast Council,Urinary tract infection
Coraki,Coraki Pharmacy,55 Queen Elizabeth Drive,2471,(02) 6683 2037,Richmond Valley Council,"Urinary tract infection, Oral contraceptive pill"
Corowa,TerryWhite Chemmart Corowa,140 Sanger Street,2646,(02) 6033 1066,Federation Council,"Urinary tract infection, Oral contraceptive pill"
Corowa,Miegels Pharmacy Corowa,54 Sanger Street,2646,(02) 6033 1011,Federation Council,"Urinary tract infection, Oral contraceptive pill"
Corrimal,Corrimal Court Pharmacy,"Shop 21, 270 Princes Highway",2518,(02) 4283 1198,Wollongong City Council,"Urinary tract infection, Oral contraceptive pill"
Corrimal,Priceline Pharmacy Corrimal,203-215 Princes Highway,2518,(02) 4283 5622,Wollongong City Council,"Urinary tract infection, Oral contraceptive pill"
Corrimal,Andrews Pharmacy,437 Princes Highway,2518,(02) 4284 4445,Wollongong City Council,"Urinary tract infection, Oral contraceptive pill"
Cowra,Optimal Pharmacy Plus Health Hub Cowra,6-8 Railway Lane,2794,(02) 6342 2285,Cowra Shire Council,"Urinary tract infection, Oral contraceptive pill"
Cowra,Optimal Pharmacy Plus Cowra,75-77 Kendal Street,2794,(02) 6342 3452,Cowra Shire Council,"Urinary tract infection, Oral contraceptive pill"
Cranebrook,TerryWhite Chemmart Cranebrook,Shop 12 80-98 Borrowdale Way,2748,(02) 4729 0389,Penrith City Council,"Urinary tract infection, Oral contraceptive pill"
Cremorne,Cremorne Town Centre Pharmacy,4/287-305 Military Road,2090,(02) 9908 1155,North Sydney Council,"Urinary tract infection, Oral contraceptive pill"
Cringila,Cringila Village Pharmacy,19 Lake Avenue,2502,(02) 4274 1977,Wollongong City Council,"Urinary tract infection, Oral contraceptive pill"
Cronulla,Blooms the Chemist Cronulla South,2/26 Ewos Parade,2230,(02) 9527 1777,Sutherland Shire Council,"Urinary tract infection, Oral contraceptive pill"
Cronulla,Priceline Pharmacy Cronulla,46 Cronulla Street,2230,(02) 9523 1678,Sutherland Shire Council,"Urinary tract infection, Oral contraceptive pill"
Cronulla,Blooms the Chemist Cronulla,37 Cronulla Street,2230,(02) 9523 6877,Sutherland Shire Council,"Urinary tract infection, Oral contraceptive pill"
Crookwell,Crookwell Soul Pattinson Chemist,61 Goulburn Street,2583,(02) 4832 1177,Upper Lachlan Shire Council,"Urinary tract infection, Oral contraceptive pill"
Crows Nest,Blooms the Chemist Crows Nest,99 Willoughby Road,2065,(02) 9439 1504,North Sydney Council,"Urinary tract infection, Oral contraceptive pill"
Crows Nest,Chemist Warehouse Crows Nest,46 Willoughby Road,2065,(02) 9439 9980,North Sydney Council,"Urinary tract infection, Oral contraceptive pill"
Crows Nest,TerryWhite Chemmart Crows Nest,108 Willoughby Road,2065,(02) 9439 7333,North Sydney Council,Urinary tract infection
Croydon Park,Discount Drug Stores Croydon Park,121 Georges River Road,2133,(02) 9798 5159,Burwood Council,"Urinary tract infection, Oral contraceptive pill"
Croydon Park,Coronation Day and Night Pharmacy,136 Coronation Parade,2133,(02) 9747 3105,Burwood Council,"Urinary tract infection, Oral contraceptive pill"
Croydon Park,Croydon Village Pharmacy,18 The Strand,2132,(02) 9745 2048,Burwood Council,"Urinary tract infection, Oral contraceptive pill"
Dapto,Priceline Pharmacy Dapto,33-35 Prince Highway,2530,(02) 4261 7043,Wollongong City Council,"Urinary tract infection, Oral contraceptive pill"
Dapto,Capital Chemist Dapto,21 Bong Bong Road,2538,(02) 4261 1377,Wollongong City Council,"Urinary tract infection, Oral contraceptive pill"
Dapto,Blooms the Chemist Dapto,"Shop 120-121, 75 Princes Highway",2530,(02) 4262 2122,Wollongong City Council,"Urinary tract infection, Oral contraceptive pill"
Darlinghurst,Bill Warner Chemist,334 Victoria Street,2010,(02) 9331 4766,City of Sydney,"Urinary tract infection, Oral contraceptive pill"
Darlinghurst,Darlinghurst Chemist,213-219 Darlinghurst Road,2010,(02) 9357 6950,Council of the City of Sydney,"Urinary tract infection, Oral contraceptive pill"
DeNoneiquin,Soul Pattinson Chemist DeNoneiquin,293-295 Cressy Street,2710,(03) 5881 2233,Edward River Council,"Urinary tract infection, Oral contraceptive pill"
DeNoneiquin,Infinity Pharmacy DeNoneiquin,14 - 18 Napier Street,2710,(03) 5881 2081,Edward River Council,"Urinary tract infection, Oral contraceptive pill"
Dee Why,Lawler's Wholelife Pharmacy And Healthfoods,"Shop 9B, 27-33 Oaks Ave",2099,(02) 9982 3955,Northern Beaches Council,"Urinary tract infection, Oral contraceptive pill"
Dee Why,Priceline Pharmacy Dee Why,"Shop 5&6, 834 Pittwater Road",2099,(02) 9981 3555,Northern Beaches Council,"Urinary tract infection, Oral contraceptive pill"
Dee Why,Dee Why Health Care Pharmacy,852A Pittwater Road,2099,(02) 9971 5353,Northern Beaches Council,"Urinary tract infection, Oral contraceptive pill"
Dee Why,Chemist Warehouse Dee Why,Shop 20 21/22 Dee Why Parade,2099,(02) 9971 2811,Northern Beaches Council,"Urinary tract infection, Oral contraceptive pill"
Dee Why,Dee Why Pharmacy,4/729-731 Pittwater Road,2099,(02) 9982 6383,Northern Beaches Council,"Urinary tract infection, Oral contraceptive pill"
Dee Why,TerryWhite Chemmart Dee Why,1A/1-5 Dee Why Parade,2099,(02) 9122 0853,North Sydney Council,"Urinary tract infection, Oral contraceptive pill"
Dee Why,Dee Why Grand Pharmacy,Level 3 834 Pittwater Road,2099,(02) 9982 2060,Northern Beaches Council,"Urinary tract infection, Oral contraceptive pill"
Denham Court,TerryWhite Chemmart Willowdale Compounding,"Shop 8, 5 Willowdale Drive",2565,(02) 9606 7555,Campbelltown City Council,"Urinary tract infection, Oral contraceptive pill"
Denistone,Midway Family Pharmacy,"Shop G5, 117 North Road",2119,(02) 9878 3550,Council of the City of Ryde,"Urinary tract infection, Oral contraceptive pill"
Denman,Denman Pharmacy,32 Ogilvie Street,2328,(02) 6547 1105,Muswellbrook Shire Council,"Urinary tract infection, Oral contraceptive pill"
Doonside,MediAdvice Pharmacy Doonside,Shop 2A/52 Rosenthal Street,2767,(02) 9831 8933,Blacktown City Council,"Urinary tract infection, Oral contraceptive pill"
Doonside,MediAdvice Pharmacy Donsworth,7 Hill End Road,2767,(02) 9622 4411,Blacktown City Council,"Urinary tract infection, Oral contraceptive pill"
Dora Creek,Dora Creek Pharmacy,2/8 Doree Place,2264,(02) 4973 1320,Lake Macquarie City Council,"Urinary tract infection, Oral contraceptive pill"
Dorrigo,Dorrrigo Plateau Pharmacy,67 Hickory Street,2453,(02) 6657 2005,Bellingen Shire Council,"Urinary tract infection, Oral contraceptive pill"
Drummoyne,Priceline Pharmacy Birkenhead Point,"Shop 136, 19 Roseby Street",2047,(02) 9181 4090,City of Canada Bay Council,"Urinary tract infection, Oral contraceptive pill"
Drummoyne,Destro's Pharmacy,197-201 Victoria Road,2047,(02) 9181 2434,City of Canada Bay Council,"Urinary tract infection, Oral contraceptive pill"
Drummoyne,TerryWhite Chemmart Drummoyne,1/159-167 Victoria Road,2047,(02) 9181 3143,City of Canada Bay Council,"Urinary tract infection, Oral contraceptive pill"
Drummoyne,Chemist Warehouse Birkenhead Point,Shop 26 -28 19 Roseby Street,2047,(02) 9719 1989,City of Canada Bay Council,"Urinary tract infection, Oral contraceptive pill"
Dubbo,Blooms the Chemist Dubbo,"Shop 15/16A Dubbo Square, 177 Macquarie Street",2830,(02) 6882 4853,Dubbo Regional Council,"Urinary tract infection, Oral contraceptive pill"
Dubbo,Orana Mall Pharmacy,"Shop 110-111 Orana Mall, Wheelers Lane",2830,(02) 6882 7677,Dubbo Regional Council,"Urinary tract infection, Oral contraceptive pill"
Dubbo,Riverdale Chempro Chemist,"Shop16, 49-65 Macquarie Street",2830,(02) 6882 1833,Dubbo Regional Council,"Urinary tract infection, Oral contraceptive pill"
Dubbo,Tim Koerstz Pharmacy,"Shop 2, 93-95 Tamworth Street",2830,(02) 6882 3368,Dubbo Regional Council,"Urinary tract infection, Oral contraceptive pill"
Dubbo,Dubbo Chempro Chemist,65-67 Wingewarra Street,2830,(02) 6882 4544,Dubbo Regional Council,"Urinary tract infection, Oral contraceptive pill"
Dubbo,Priceline Pharmacy Dubbo,86 Macquarie Street,2830,(02) 6882 4922,Dubbo Regional Council,"Urinary tract infection, Oral contraceptive pill"
Dubbo,Dubbo Grove Pharmacy,59A Boundary Road,2830,(02) 6882 3723,Dubbo Regional Council,"Urinary tract infection, Oral contraceptive pill"
Dubbo,Chemist Warehouse Dubbo,166 Macquarie Street,2830,(02) 6882 3410,Dubbo Regional Council,"Urinary tract infection, Oral contraceptive pill"
Dulwich Hill,TerryWhite Chemmart Dulwich Hill,493 Marrickville Road,2203,(02) 9569 1215,Inner West Council,"Urinary tract infection, Oral contraceptive pill"
Dulwich Hill,Dulwich Hill Pharmacy,475-477 Marrickville Road,2203,(02) 9569 8880,Inner West Council,"Urinary tract infection, Oral contraceptive pill"
Dundeoo,Dunedoo Pharmacy,86 Bolaro Street,2844,(02) 6375 1308,Warrumbungle Shire Council,"Urinary tract infection, Oral contraceptive pill"
Dungog,Williams Valley Pharmacy,182 Dowling Street,2420,(02) 4992 3095,Dungog Shire Council,"Urinary tract infection, Oral contraceptive pill"
Dural,Friendly Pharmacy Dural,12/22 Kenthurst Road,2158,(02) 9651 1156,The Hills Shire Council,"Urinary tract infection, Oral contraceptive pill"
Earlwood,Harpers Pharmacy,"Shop 1 & 2, 6 Clarke Street",2206,(02) 9558 0668,Canterbury Bankstown Council,"Urinary tract infection, Oral contraceptive pill"
East Ballina,East Ballina Amcal Pharmacy,16/44 Links Avenue,2478,(02) 6681 4446,Ballina Shire Council,Urinary tract infection
East Gosford,East Gosford Chemist Saver,75 Victoria Street,2250,(02) 4325 2947,Central Coast Council,"Urinary tract infection, Oral contraceptive pill"
East Gosford,Chemist Outlet East Gosford,52 York Street,2250,(02) 4325 2839,Central Coast Council,"Urinary tract infection, Oral contraceptive pill"
East Gosford,East Gosford Pharmacy,69 Victoria Street,2250,(02) 4325 2429,Central Coast Council,"Urinary tract infection, Oral contraceptive pill"
East Killara,East Killara Pharmacy,9/50 Koola Avenue,2071,(02) 9498 4808,Ku-ring-gai Council,"Urinary tract infection, Oral contraceptive pill"
East Lakes,Eastlakes Wholelife Pharmacy and Health Foods,"G07, 16D Evans Avenue",2018,(02) 9667 1197,Bayside Council,"Urinary tract infection, Oral contraceptive pill"
East Lindfield,East Lindfield Pharmacy,5 Hughes Place,2070,(02) 9416 3432,Ku-ring-gai Council,"Urinary tract infection, Oral contraceptive pill"
East Lismore,Blooms the Chemist Lismore,"Shop 22-23, 62 Wyrallah Road",2480,(02) 6621 4000,Lismore City Council,"Urinary tract infection, Oral contraceptive pill"
East Maitland,Your Discount Chemist East Maitland,125 Lawes Street,2323,(02) 4933 7230,Maitland City Council,"Urinary tract infection, Oral contraceptive pill"
East Maitland,Blooms the Chemist Maitland,"Shop MM 105, Stockland Green Hills, 1 Molly Morgan Drive",2323,(02) 4934 7078,Maitland City Council,"Urinary tract infection, Oral contraceptive pill"
East Maitland,Blooms the Chemist Green Hills,"Stockland Green Hills Shop 1028, 1 Molly Morgan Drive",2323,(02) 4934 7078,Maitland City Council,"Urinary tract infection, Oral contraceptive pill"
Eastgardens,Cincotta Discount Chemist 1F East,131A/152 Bunnerong Road,2036,(02) 9349 2165,Bayside Council,"Urinary tract infection, Oral contraceptive pill"
Eastgardens,Cincotta Discount Chemist Eastgardens 3F,"Shop 301, 152 Bunnerong Road",2036,(02) 9344 5384,Bayside Council,"Urinary tract infection, Oral contraceptive pill"
Eastgardens,Priceline Pharmacy Eastgardens,Shop 157-159,2036,(02) 9344 5559,Bayside Council,"Urinary tract infection, Oral contraceptive pill"
Eastwood,Eastwood Pharmacy,179 Rowe Street,2122,(02) 9874 1689,Council of the City of Ryde,"Urinary tract infection, Oral contraceptive pill"
Eastwood,Eastwood Healthfirst Pharmacy,9 Progress Avenue,2122,(02) 9874 1769,Council of the City of Ryde,"Urinary tract infection, Oral contraceptive pill"
Eastwood,Five Ways Pharmacy,77 Balaclava Road,2122,(02) 9874 4820,Council of the City of Ryde,"Urinary tract infection, Oral contraceptive pill"
Eastwood,Eastwood Night And Day Pharmacy,86 Rowe Street,2122,(02) 9874 5187,Council of the City of Ryde,Urinary tract infection
Eastwood,Chemist Warehouse Eastwood,157 Rowe Street,2122,(02) 9858 4858,Council of the City of Ryde,"Urinary tract infection, Oral contraceptive pill"
Eden,Eden Discount Pharmacy,"Shop 2, 136-138 Imlay Street",2551,(02) 6496 3336,Bega Valley Shire Council,"Urinary tract infection, Oral contraceptive pill"
Edensor Park,Pennas Edensor Park Pharmacy,"Shop 18, 207-215 Edensor Road",2176,(02) 9823 7156,Fairfield City Council,Urinary tract infection
Edgecliff,Blooms the Chemist Edgecliff,"Shop 10, 235 New South Head Road",2027,(02) 9328 1316,Woollahra Municipal Council,Urinary tract infection
Edgeworth,TerryWhite Chemmart Edgeworth Town Square,Shops 4-6 720 Main Road,2285,(02) 4953 0779,Lake Macquarie City Council,"Urinary tract infection, Oral contraceptive pill"
Edgeworth,TerryWhite Chemmart Edgeworth Oasis,1/11 Arnott Street,2285,(02) 4958 6400,Lake Macquarie City Council,"Urinary tract infection, Oral contraceptive pill"
Edmondson Park,Chemistworks Edmondson Park,"Shop AG65, 52 Soldiers Parade",2174,(02) 8417 8085,Liverpool City Council,"Urinary tract infection, Oral contraceptive pill"
Elanora Heights,Elanora Pharmacy,67 Kalang Road,2101,(02) 9913 8696,Northern Beaches Council,"Urinary tract infection, Oral contraceptive pill"
Elemore Vale,Ramsay Pharmacy Elermore Vale,"Shop 9, 137 Croudace Road",2287,(02) 4951 4622,Newcastle City Council,"Urinary tract infection, Oral contraceptive pill"
Emerton,Emerton Amcal Pharmacy,"Shop 21 Emerton Village Shopping Centre, Bunting Street",2770,(02) 9628 6868,Blacktown City Council,"Urinary tract infection, Oral contraceptive pill"
Emu Plains,Amcal + Emu Plains,Shop 15 Lennox Village,2750,(02) 4735 1303,Penrith City Council,"Urinary tract infection, Oral contraceptive pill"
Engadine,Cincotta Discount Chemist Engadine,1097 Old Princes Highway,2233,(02) 9520 8838,Sutherland Shire Council,"Urinary tract infection, Oral contraceptive pill"
Engadine,Engadine Central Pharmacy,1033 Old Princes Highway,2233,(02) 9520 8539,Sutherland Shire Council,"Urinary tract infection, Oral contraceptive pill"
Enmore,Cincottta Discount Chemist Enmore,134-146 Enmore Road,2042,(02) 9557 4511,Inner West Council,"Urinary tract infection, Oral contraceptive pill"
Epping,Chemist Warehouse Epping Oxford Street,1/36 Oxford Street,2121,(02) 9876 1311,"Parramatta, Council of the City of","Urinary tract infection, Oral contraceptive pill"
Epping,TerryWhite Chemmart Epping,36 Lanston Place,2121,(02) 9876 3174,Council of the City of Parramatta,"Urinary tract infection, Oral contraceptive pill"
Erina,Blooms the Chemist Erina,"Shop T74 Erina Fair, 618 Terrigal Drive",2250,(02) 4365 1155,Central Coast Council,"Urinary tract infection, Oral contraceptive pill"
Erina,Chemist Outlet Erina Central,"Shop 13, 210 Central Coast Highway",2250,(02) 4365 3300,Central Coast Council,"Urinary tract infection, Oral contraceptive pill"
Erina,Erina Fair Pharmacy,344-345/620-658 Terrigal Drive,2250,(02) 4365 6677,Central Coast Council,"Urinary tract infection, Oral contraceptive pill"
Ermington,TerryWhite Chemmart Ermington,Shop 4 Betty Cuthbert Avenue,2115,(02) 9638 2202,Council of the City of Parramatta,"Urinary tract infection, Oral contraceptive pill"
Erskine Park,TerryWhite Chemmart Erskine Park,"Shop 13, Corner Swallow and Peppertree Drive",2759,(02) 9834 4151,Penrith City Council,"Urinary tract infection, Oral contraceptive pill"
Evans Head,Evans Head Chempro,11 Oak Street,2473,(02) 6682 4205,Richmond Valley Council,"Urinary tract infection, Oral contraceptive pill"
Fairfield,Chemist Warehouse Fairfield,8 Kenyon Street,2165,(02) 9724 1212,Fairfield City Council,Urinary tract infection
Fairfield,Barone Pharmacy Fairfield,2/118 Ware Street,2165,(02) 9724 2572,Fairfield City Council,Urinary tract infection
Fairfield,Fairfield Forum Pharmacy,"Shop 16-17, 8/9 Station Street",2165,(02) 9726 0046,Fairfield City Council,"Urinary tract infection, Oral contraceptive pill"
Fairfield,Neeta City Soul Pattinson,"Shop G18, 54 Smart Street",2165,(02) 9726 0077,Fairfield City Council,"Urinary tract infection, Oral contraceptive pill"
Fairfield Heights,Fairfield Heights Pharmacy,275 The Boulevarde,2165,(02) 9609 7755,Fairfield City Council,"Urinary tract infection, Oral contraceptive pill"
Fairfield Heights,Boulevarde Pharmacy,170/186 The Boulevarde,2165,(02) 9724 2211,Fairfield City Council,"Urinary tract infection, Oral contraceptive pill"
Fairlight,Fairlight Pharmacy,138 Sydney Road,2094,(02) 9949 1000,Northern Beaches Council,"Urinary tract infection, Oral contraceptive pill"
Fairy Meadow,Pharmacy Express Fairy Meadow,43 Princes Highway,2519,(02) 4284 4558,Wollongong City Council,"Urinary tract infection, Oral contraceptive pill"
Fern Bay,Fern Bay Pharmacy,1117 Nelson Bay Road,2295,(02) 4067 3998,Port Stephens Council,Oral contraceptive pill
Figtree,Figtree Plaza Chemist,5 Bellevue Road,2525,(02) 4228 5641,Wollongong City Council,"Urinary tract infection, Oral contraceptive pill"
Figtree,Blooms the Chemist Figtree,"Shop 12-15 Figtree Grove, 19 Princes Highway",2525,(02) 4229 5847,Wollongong City Council,"Urinary tract infection, Oral contraceptive pill"
Finley,Finley Pharmacy,122-124 Murray Street,2713,(03) 5883 1144,Berrigan Shire Council,"Urinary tract infection, Oral contraceptive pill"
Five Dock,Pharmacy 4 Less Parramatta Road Five Dock,Shop 3B 213-235 Parramatta Road,2046,(02) 9745 6375,Inner West Council,"Urinary tract infection, Oral contraceptive pill"
Five Dock,Pharmacy 4 Less Five Dock,1A/125 Great North Road,2046,(02) 97134729,City of Canada Bay Council,"Urinary tract infection, Oral contraceptive pill"
Five Dock,Chemist Warehouse Five Dock,89 to 91 Great North Road,2046,(02) 9713 8929,City of Canada Bay Council,"Urinary tract infection, Oral contraceptive pill"
Fletcher,Your Chemist Shop Fletcher,11/221 Minmi Road,2287,(02) 4951 2022,Newcastle City Council,"Urinary tract infection, Oral contraceptive pill"
Flinders,Flinders Save And Deliver Pharmacy,1/7 Munmorah Circuit,2529,(02) 4296 5548,City of Shellharbour,"Urinary tract infection, Oral contraceptive pill"
Forbes,Life Pharmacy Forbes,"Shop 3, 159-173 Lachlan Street",2871,(02) 6852 2001,Forbes Shire Council,"Urinary tract infection, Oral contraceptive pill"
Forbes,Flannerys Pharmacy Forbes,99-101 Rankin Street,2871,(02) 6852 1111,Forbes Shire Council,"Urinary tract infection, Oral contraceptive pill"
Forest Hill,Forest Hill Pharmacy,"Shop 6, 34 Allonby Avenue",2651,(02) 6922 8882,Wagga Wagga City Council,"Urinary tract infection, Oral contraceptive pill"
Forestville,Forestville Pharmacy,25 The Centre,2087,(02) 9451 3411,Northern Beaches Council,"Urinary tract infection, Oral contraceptive pill"
Forestville,Blooms the Chemist Forestville,"2 Starkey Street, Shop 1",2087,(02) 9451 5051,Northern Beaches Council,"Urinary tract infection, Oral contraceptive pill"
Forresters Beach,Forresters Beach Pharmacy,23 Forresters Beach Road,2260,(02) 4385 1585,Central Coast Council,"Urinary tract infection, Oral contraceptive pill"
Forster,Priceline Pharmacy Forster,"Shop B1, Breese Parade",2428,(02) 6555 5589,Mid-Coast Council,"Urinary tract infection, Oral contraceptive pill"
Forster,Watson's Friendly Pharmacy,"Shop 4, 21 Boundary Street",2428,(02) 6555 4645,Municipality of Woollahra,"Urinary tract infection, Oral contraceptive pill"
Frenchs Forest,Skyline Pharmacy,16 Frenchs Forest Road,2086,(02) 9451 4169,Northern Beaches Council,"Urinary tract infection, Oral contraceptive pill"
Galston,Galston Village Pharmacy,Shop 2A/346 Galston Road,2159,(02) 9653 1146,Blacktown City Council,"Urinary tract infection, Oral contraceptive pill"
Gerringong,Gerringong Pharmacy,113 Fern Street,2534,(02) 4234 1333,"Kiama, The Council of the Municipality of","Urinary tract infection, Oral contraceptive pill"
Gilgandra,Gilgandra Pharmacy,49 Miller Street,2827,(02) 6847 2108,Gilgandra Shire Council,"Urinary tract infection, Oral contraceptive pill"
Gillieston Heights,Gillieston Heights Discount Pharmacy,"Building 2, 3 Redwood Drive",2321,(02) 4033 0499,Maitland City Council,"Urinary tract infection, Oral contraceptive pill"
Gladesville,Blooms the Chemist Gladesville,Shop 6/7 Flagstaff Street,2111,(02) 9817 3180,The Council of the Municipality of Hunters Hill,"Urinary tract infection, Oral contraceptive pill"
Glebe,Cat & Claudia's Community Pharmacy,"M102 Broadway Sydney, 1 Bay Street",2007,(02) 9281 6816,City of Sydney,"Urinary tract infection, Oral contraceptive pill"
Glebe,Fuzes Pharmacy Outlet,"Ground Floor, 179 Glebe Point Road",2037,(02) 9660 1721,"Sydney, Council of the City of","Urinary tract infection, Oral contraceptive pill"
Gledswood Hills,Cincotta Gregory Hills,Suite 1 Unit/15A/1 Gregory Hills Drive,2557,(02) 4647 3077,Camden Council,"Urinary tract infection, Oral contraceptive pill"
Glen Innes,Timbs Pharmacy,240-242 Grey Street,2370,(02) 6732 3016,Glen Innes Severn Council,Oral contraceptive pill
Glenbrook,Glenbrook Village Pharmacy,33A Park Street,2773,(02) 4739 1345,Blue Mountains City Council,"Urinary tract infection, Oral contraceptive pill"
Glendale,Chemistworks Glendale,"Shop 22, 387 Lake Road",2285,(02) 4956 5644,Lake Macquarie City Council,"Urinary tract infection, Oral contraceptive pill"
Glendenning,Medicines R Us Chemist Richmond Road,Shop 2/670 Richmond Road,2761,(02) 9626 1111,Blacktown City Council,"Urinary tract infection, Oral contraceptive pill"
Glenhaven,Glenhaven Pharmacy,4/78 Glenhaven Road,2156,(02) 9899 8822,The Hills Shire Council,Urinary tract infection
Glenmore Park,MediAdvice Pharmacy Glenmore Park,"Shop T11 Homeco, 1 Town Terrace",2745,(02) 4733 3033,Penrith City Council,"Urinary tract infection, Oral contraceptive pill"
Gloucester,Gloucester Family Pharmacy,77/81 Denison Street,2422,(02) 6558 9274,Mid-Coast Council,"Urinary tract infection, Oral contraceptive pill"
Gloucester,Gloucester Max Value Pharmacy,43 Church Street,2422,(02) 6558 1043,Mid-Coast Council,"Urinary tract infection, Oral contraceptive pill"
Googong,Googong Pharmacy,Shopa2 189 Gorman Drive,2620,(02) 5104 4588,Queanbeyan-Palerang Regional Council,"Urinary tract infection, Oral contraceptive pill"
Goonellabah,Chemist Warehouse Lismore,Shop 1/799 Ballina Road,2480,(02) 6624 1429,Lismore City Council,"Urinary tract infection, Oral contraceptive pill"
Gordon,Blooms The Chemist Gordon,765 Pacific Highway,2072,(02) 9498 2587,Ku-ring-gai Council,"Urinary tract infection, Oral contraceptive pill"
Gordon,Priceline Pharmacy Gordon,"Shop 1, 802 - 808 Pacific Highway",2072,(02) 9498 6465,Ku-ring-gai Council,"Urinary tract infection, Oral contraceptive pill"
Gorokan,Gorokan Guardian Pharmacy,70 Wallarah Road,2263,(02) 4392 2131,Central Coast Council,"Urinary tract infection, Oral contraceptive pill"
Gosford,Priceline Pharmacy Gosford,"Shops 224-228, 171 Mann Street",2250,(02) 4324 2258,Central Coast Council,"Urinary tract infection, Oral contraceptive pill"
Goulburn,Priceline Pharmacy Goulburn,Shop 18 Auburn Street,2580,(02) 4821 7001,Goulburn Mulwaree Council,"Urinary tract infection, Oral contraceptive pill"
Goulburn,Blooms the Chemist Goulburn Marketplace,"Shop 15, The Marketplace, 12 Verner Street",2580,(02) 4821 2260,Goulburn Mulwaree Council,"Urinary tract infection, Oral contraceptive pill"
Goulburn,Blooms the Chemist Goulburn,220 Auburn Street,2580,(02 4821 2260,Goulburn Mulwaree Council,"Urinary tract infection, Oral contraceptive pill"
Goulburn,Blooms Goulburn Northside,304-308 Auburn Street,2580,(02) 4821 1980,Goulburn Mulwaree Council,"Urinary tract infection, Oral contraceptive pill"
Grafton,Chemist Warehouse Grafton,43 Prince Street,2460,(02) 6642 2038,Clarence Valley Council,"Urinary tract infection, Oral contraceptive pill"
Grafton,The Grafton Friendlies Discount Pharmacy,18 Prince Street,2460,(02) 6604 1787,Clarence Valley Council,"Urinary tract infection, Oral contraceptive pill"
Grafton,Blooms the Chemist Grafton,"Shop 24 Shoppingworld, 54-74 Fitzroy Street",2460,(02) 6643 1241,Clarence Valley Council,"Urinary tract infection, Oral contraceptive pill"
Grafton,Ramsay Pharmacy Grafton,"Shop 2, King Street",2460,(02) 6642 2548,Clarence Valley Council,"Urinary tract infection, Oral contraceptive pill"
Grafton,Grafton Superclinic Pharmacy,4 Clarence Street,2460,(02) 6643 4333,Clarence Valley Council,Urinary tract infection
Grafton,Good Price Pharmacy Warehouse Grafton,63 Prince Street,2460,(02) 6642 1167,Clarence Valley Council,"Urinary tract infection, Oral contraceptive pill"
Granville,Priceless Compounding Chemist,"Shop 5, 35 East Street",2142,(02) 7229 5880,Council of the City of Parramatta,"Urinary tract infection, Oral contraceptive pill"
Granville,Family Pharmacy Granville,Unit 1/60 South Street,2142,(02) 9637 5765,Cumberland Council,"Urinary tract infection, Oral contraceptive pill"
Granville,Chemist Warehouse Granville,58 South Street,2142,(02) 9637 1431,Cumberland Council,"Urinary tract infection, Oral contraceptive pill"
Green Valley,Priceline Pharmacy Green Valley,"Shop 2, 189 Wilson Road",2168,(02) 9825 0600,Liverpool City Council,"Urinary tract infection, Oral contraceptive pill"
Green Valley,Pennas Pharmacy Green Valley,174 Green Valley Road,2168,(02) 9607 7920,Liverpool City Council,"Urinary tract infection, Oral contraceptive pill"
Greenacre,Barone Pharmacy Chullora,Shop 29/355-357 Waterloo Road,2190,(02) 9758 8549,Canterbury Bankstown Council,"Urinary tract infection, Oral contraceptive pill"
Greenfield Park,Greenfield Park Pharmacy,"Shop 7, 3-5 Greenfield Road",2176,(02) 9610 1114,Fairfield City Council,"Urinary tract infection, Oral contraceptive pill"
Greenwich,Greenwich Pharmacy,95 Greenwich Road,2065,(02) 9436 1675,Lane Cove Municipal Council,"Urinary tract infection, Oral contraceptive pill"
Gregory Hills,Medicines R Us Gregory Hills,Shop 200 /33 Village Circuit,2557,(02) 9136 4300,Camden Council,"Urinary tract infection, Oral contraceptive pill"
Grenfell,Grenfell Pharmacy,105 Main Street,2810,(02) 6343 1056,Weddin Shire Council,"Urinary tract infection, Oral contraceptive pill"
Greta,Greta Pharmacy,104 High Street,2334,(02) 4938 7030,Cessnock City Council,"Urinary tract infection, Oral contraceptive pill"
Greystanes,Discount Drug Stores Greystanes,20A/665-669 Merrylands Road,2145,(02) 9631 4832,Cumberland Council,"Urinary tract infection, Oral contraceptive pill"
Griffith,Priceline Pharmacy Griffith,292 Banna Avenue,2680,(02) 6962 1331,Griffith City Council,"Urinary tract infection, Oral contraceptive pill"
Griffith,John Dodd Pharmacy,258 Banna Avenue,2680,(02) 6962 3010,Griffith City Council,"Urinary tract infection, Oral contraceptive pill"
Griffith,Pat Zirilli Amcal Chemist,398-400 Banna Avenue,2680,(02) 6962 3596,Griffith City Council,"Urinary tract infection, Oral contraceptive pill"
Griffith,Blooms the Chemist Griffith,222 Banna Avenue,2680,(02) 6962 2527,Griffith City Council,"Urinary tract infection, Oral contraceptive pill"
Griffith,Chemist Warehouse Griffith,"T 16-18, 10-12 Yambil Street",2680,(02) 6962 3033,Griffith City Council,"Urinary tract infection, Oral contraceptive pill"
Griffith,Drive Thru Pharmacy,18A Bonegilla Road,2680,(02) 6964 5570,Griffith City Council,"Urinary tract infection, Oral contraceptive pill"
Griffith,East Griffith Pharmacy,16 Probert Avenue,2680,(02) 6962 1876,Griffith City Council,Urinary tract infection
Guildford,Guildford Road Pharmacy,"Shop A, 268 Guildford Road",2161,(02) 9632 6571,Cumberland Council,Urinary tract infection
Gulgong,Gulgong Dispensary,119 Mayne Street,2852,(02) 6374 1107,Mid-Western Regional Council,"Urinary tract infection, Oral contraceptive pill"
Gundagai,TerryWhite Chemmart Gundagai,170 Sheridan Street,2722,(02) 6944 1148,Cootamundra-Gundagai Regional Council,"Urinary tract infection, Oral contraceptive pill"
Gungahlin​,Chemist Warehouse Gungahlin,​Shop 6 & 6A Marketplace Gungahlin 30 & 33 Hibberson Street,2912,(02) 6147 5102,Australian Capital Territory,"Urinary tract infection, Oral contraceptive pill"
Gunnedah,Gunnedah Discount Drug Store,204 Conadilly Street,2380,(02) 6742 0018,Gunnedah Shire Council,"Urinary tract infection, Oral contraceptive pill"
Gunnedah,Carters Pharmacy Gunnedah,270-274 Conadilly Street,2380,(02) 6742 0024,Gunnedah Shire Council,"Urinary tract infection, Oral contraceptive pill"
Guyra,Guyra Pharmacy,102 Bradley Street,2365,(02) 6779 1192,Armidale Regional Council,"Urinary tract infection, Oral contraceptive pill"
Gymea,Gymea Pharmacy,90 Gymea Bay Road,2227,(02) 9524 9595,Sutherland Shire Council,"Urinary tract infection, Oral contraceptive pill"
Gymea,Rodneys TerryWhite Chemmart,Shop 1-3/58 North West Arm Road,2227,(02) 9542 1122,Sutherland Shire Council,"Urinary tract infection, Oral contraceptive pill"
Gymea,Cincotta Discount Chemist Gymea,75 Gymea Bay Road,2227,(02) 9524 6027,Sutherland Shire Council,"Urinary tract infection, Oral contraceptive pill"
Gymea,Priceline Pharmacy Gymea,95 Gymea Bay Road,2227,(02) 9540 2866,Sutherland Shire Council,"Urinary tract infection, Oral contraceptive pill"
Haberfield,Your Choice Compounding Pharmacy,125 Ramsay Street,2045,(02) 9797 7445,Inner West Council,"Urinary tract infection, Oral contraceptive pill"
Haberfield,Your Choice Pharmacy Haberfield,"Shop 1, 191 Ramsay Street",2045,(02) 9798 8499,Inner West Council,"Urinary tract infection, Oral contraceptive pill"
Hallidays Point,3 Beaches Chemist,2/85 High Street,2430,(02) 6559 3593,Mid-Coast Council,Urinary tract infection
Hamilton,TerryWhite Chemmart Hamilton,119-125 Beaumont Street,2303,(02) 4961 1269,Newcastle City Council,"Urinary tract infection, Oral contraceptive pill"
Hamilton,Hamilton Pharmacy,83 Beaumont Street,2303,(02) 4961 3179,Newcastle City Council,"Urinary tract infection, Oral contraceptive pill"
Hamilton,Chemist Warehouse Hamilton,Shop 1/60 Beaumont Street,2303,(02) 4961 5987,Newcastle City Council,"Urinary tract infection, Oral contraceptive pill"
Hamilton,Priceline Pharmacy Hamilton,88 Beaumont Street,2303,(02) 4965 3508,Newastle City Council,"Urinary tract infection, Oral contraceptive pill"
Hammondville,Hammondville Discount Pharmacy,44 Walder Road,2170,(02) 9825 3638,Liverpool City Council,"Urinary tract infection, Oral contraceptive pill"
Harden,TerryWhite Chemmart Harden,66 Neill Street,2587,(02) 6386 2643,Hilltops Council,"Urinary tract infection, Oral contraceptive pill"
Harrington,Harrington Waters Village Pharmacy,"Shop 1-2, 1-7 Caledonia Street",2427,(02) 6556 1500,Mid-Coast Council,"Urinary tract infection, Oral contraceptive pill"
Harrington Beach,Harrington Beach Pharmacy,1/11 Beach Street,2427,(02) 6556 1533,Mid-Coast Council,Urinary tract infection
Harrington Park,Harrington Park Pharmacy,23 Fairwater Drive,2567,(02) 4648 1686,Camden Council,"Urinary tract infection, Oral contraceptive pill"
Hassall Grove,Medicines R Us Chemist Hassall Grove,"Shop 11-12, 211 Buckwell Drive",2761,(02) 9628 3620,Blacktown City Council,"Urinary tract infection, Oral contraceptive pill"
Hawks Nest,Myall Pharmacy Hawks Nest,47 Yamba Street,2324,(02) 4997 0267,Mid-Coast Council,Urinary tract infection
Haymarket,Chemist Warehouse Haymarket,"Ground Floor 2, 827-837 George Street",2000,(02) 9212 3513,"Sydney, Council of the City of","Urinary tract infection, Oral contraceptive pill"
Haymarket,Market City Pharmacy,R127/9-13 Hay Street,2000,(02) 9212 3722,Council of the City of Sydney,"Urinary tract infection, Oral contraceptive pill"
Heathcote,L & A Macinante Chemist,4/1337 Princess Highway,2233,(02) 9520 8696,Sutherland Shire Council,"Urinary tract infection, Oral contraceptive pill"
Helensburgh,Helensburgh Pharmacy,121 Parkes Street,2508,(02) 4294 2772,Wollongong City Council,"Urinary tract infection, Oral contraceptive pill"
Hillsdale,Chemist Warehouse Hillsdale,"Southpoint Shopping CentreShop MM1, 238-262 Bunnerong Road",2036,(02) 9311 4426,Bayside Council,"Urinary tract infection, Oral contraceptive pill"
Homebush,Homebush Pharmacy,23 Rochester Street,2140,(02) 9746 7049,Strathfield Municipal Council,"Urinary tract infection, Oral contraceptive pill"
Horningsea Park,Priceline Pharmacy Carnes Hill,"Shop B09, Corner Cowpasture & Kurrajong Roads",2171,(02) 9608 6622,Liverpool City Council,"Urinary tract infection, Oral contraceptive pill"
Hornsby,Priceline Pharmacy Hornsby,Shop 1001-1003,2077,(02) 9987 4241,The Council of the Shire of Hornsby,Oral contraceptive pill
Hornsby,Aussie Pharmacy Hornsby,21-23 Florence Sreet,2077,(02) 9987 2233,The Council of the Shire of Hornsby,"Urinary tract infection, Oral contraceptive pill"
Hornsby,TerryWhite Chemmart Hornsby,Shop 1043/236 Pacific Highway,2077,(02) 9477 5085,The Council of the Shire of Hornsby,"Urinary tract infection, Oral contraceptive pill"
Hoxton Park,Hoxton Park Pharmacy,14/600 Hoxton Park Road,2171,(02) 9825 8444,Liverpool City Council,"Urinary tract infection, Oral contraceptive pill"
Hurstville,Chemist Warehouse Hurstville Westfield,Shop 216B/218A 3 Cross Street,2220,(02) 8567 4444,Georges River Council,"Urinary tract infection, Oral contraceptive pill"
Hurstville,Chemist Warehouse Hurstville Forest Rd,"Ground Floor, 272-274 Forest Road",2220,(02) 9586 4300,Georges River Council,"Urinary tract infection, Oral contraceptive pill"
Hurstville,Hurstville Chinatown Pharmacy,172 Forest Road,2220,(02) 9580 8462,Georges River Council,"Urinary tract infection, Oral contraceptive pill"
Hurstville,Michael's Compounding Pharmacy,Lot 2/145 Forest Road,2220,(02) 9585 2033,Georges River Council,"Urinary tract infection, Oral contraceptive pill"
Hurstville,Infinity Pharmacy Hurstville,"Shop 132-136A, Corner Cross Street and Park Road",2220,(02) 9579 4633,Georges River Council,"Urinary tract infection, Oral contraceptive pill"
Hurstville,The Medical Shoppe,10 Park Road,2220,(02) 9579 1322,Georges River Council,"Urinary tract infection, Oral contraceptive pill"
Hurstville,Atallah's Pharmacy,185A Forest Road,2220,(02) 8084 2054,Georges River Council,Urinary tract infection
Huskisson,Capital Chemist Huskisson,"Shop 1 & 2A, 56 Owen Street​",2540,(02) 4441 5104,Shoalhaven City Council,"Urinary tract infection, Oral contraceptive pill"
Illawong,TerryWhite Chemmart Illawong,"Shop G12-14, 273 Fowler Road",2234,(02) 9543 1639,Sutherland Shire Council,"Urinary tract infection, Oral contraceptive pill"
Iluka,Iluka Pharmacy,4A Young Street,2466,(02) 6646 6164,Clarence Valley Council,"Urinary tract infection, Oral contraceptive pill"
Ingleburn,Priceline Pharmacy Ingleburn,"Shops 19 and 20, 100 Macquarie Road",2565,(02) 9605 8591,Campbelltown City Council,"Urinary tract infection, Oral contraceptive pill"
Inverell,Inverell Pharmacy,132-134 Byron Street,2360,(02) 6722 3146,Inverell Shire Council,"Urinary tract infection, Oral contraceptive pill"
Inverell,Campbell & Freebairn Chemist,66 Otho Street,2360,(02) 6722 3089,Inverell Shire Council,"Urinary tract infection, Oral contraceptive pill"
Inverell,Dittons Pharmacy,77 Byron Street,2360,(02) 6722 2639,Inverell Shire Council,"Urinary tract infection, Oral contraceptive pill"
Jannali,Mycare Jannali Pharmacy,562 Box Road,2226,(02) 9528 9335,Sutherland Shire Council,"Urinary tract infection, Oral contraceptive pill"
Jerrabomberra,Soul Pattinson Chemist Jerrabomberra,"Jerrabomberra Village Shopping Centre, 6 Limestone Drive",2619,(02) 6299 9785,Queanbeyan-Palerang Regional Council,"Urinary tract infection, Oral contraceptive pill"
Jesmond,Priceline Pharmacy Jesmond,0A/28 Blue Gum Road,2299,(02) 4955 8434,Newcastle City Council,"Urinary tract infection, Oral contraceptive pill"
Jewells,Jewellstown Pharmacy Priceline,"Shop 30, 75 Ntaba Road",2280,(02) 4948 5766,Lake Macquarie City Council,"Urinary tract infection, Oral contraceptive pill"
Jindera,TerryWhite Chemmart Jindera,"Shop 4 & 5, 82 Urana Street",2642,(02) 6026 3271,Lockhart Shire Council,"Urinary tract infection, Oral contraceptive pill"
Jordan Springs,TerryWhite Chemmart Jordan Spring,Corner Jordan Springs Blvd and Lakeside Parade,2747,(02) 8834 9010,Penrith City Council,"Urinary tract infection, Oral contraceptive pill"
Kanahooka,Kanahooka Pharmacy,1/56 Lakeside Drive,2530,(02) 4260 8551,Wollongong City Council,"Urinary tract infection, Oral contraceptive pill"
Kanwal,Kanwal Medical Centre Pharmacy,"Suite K2, 654 Pacific Highway",2259,(02) 4393 3221,Central Coast Council,"Urinary tract infection, Oral contraceptive pill"
Kanwal,Kanwal Village Pharmacy,Shop 1/260 Wallarah Road,2259,(02) 4392 5533,Central Coast Council,"Urinary tract infection, Oral contraceptive pill"
Karabar,Blooms the Chemist Karabar,Shop 6,2620,(02) 6297 3670,Queanbeyan-Palerang Regional Council,"Urinary tract infection, Oral contraceptive pill"
Kareela,Kareela Community Pharmacy,Shop 7/1-13 Freya Street,2232,(02) 9528 2288,Sutherland Shire Council,"Urinary tract infection, Oral contraceptive pill"
Karuah,Karuah Pharmacy,413 Tarean Road,2324,(02) 4997 5557,Port Stephens Council,"Urinary tract infection, Oral contraceptive pill"
Katoomba,Greenwell and Thomas,145 Katoomba Street,2780,(02) 4782 1066,Blue Mountains City Council,Urinary tract infection
Keiraville,Campus Pharmacy Wollongong,"University Of Wollongong Building 11, 2 Northfields Avenue",2500,(02) 4288 1888,Wollongong City Council,"Urinary tract infection, Oral contraceptive pill"
Kellyville,National Pharmacies Kellyville,Shop 35/90 Wrights Road,2155,(02) 9629 1403,The Hills Shire Council,"Urinary tract infection, Oral contraceptive pill"
Kellyville,Pharmacy Focus Kellyville,The North VillageShop 7 4 Beaton Road,2155,(02) 8883 4664,The Hills Shire Council,"Urinary tract infection, Oral contraceptive pill"
Kellyville,Priceline Pharmacy Kellyville,"Shop C5A, 2 Hector Court,",2155,(02) 9044 1528,The Hills Shire Council,"Urinary tract infection, Oral contraceptive pill"
Kelso,TerryWhite Chemmart Kelso,Shop 8 13 Marsden Lane,2795,(02) 6334 2238,Bathurst Regional Council,"Urinary tract infection, Oral contraceptive pill"
Kempsey,Kempsey West Pharmacy,32 Elbow Street,2440,(02) 6562 7777,Kempsey Shire Council,"Urinary tract infection, Oral contraceptive pill"
Kempsey,Amcal + Pharmacy Kempsey,"Shop 5-7, 2 Belgrave Street",2440,(02) 6562 4266,Kempsey Shire Council,"Urinary tract infection, Oral contraceptive pill"
Kempsey,Kempsey Pharmacy,7 Belgrave Street,2440,(02) 6563 1111,Kempsey Shire Council,"Urinary tract infection, Oral contraceptive pill"
Kenthurst,Kenthurst Pharmacy,Shop 5A/4 Nelson Street,2156,(02) 9654 1984,The Hills Shire Council,"Urinary tract infection, Oral contraceptive pill"
Kiama,Kiama Pharmacy,83 Manning Street,2533,(02) 4232 2532,"Kiama, The Council of the Municipality of","Urinary tract infection, Oral contraceptive pill"
Kiama,Kiama Health Destination Pharmacy,"Shop 5, 143 Teralong Street",2533,(02) 4232 3330,The Council of the Municipality of Kiama,"Urinary tract infection, Oral contraceptive pill"
Kiama,Blooms the Chemist Kiama,118 Terralong Street,2533,(02) 4232 1046,The Council of the Municipality of Kiama,"Urinary tract infection, Oral contraceptive pill"
Kincumber,Priceline Pharmacy Kincumber,"Shop 4, Avoca Drive",2251,(02) 4369 6900,Central Coast Council,"Urinary tract infection, Oral contraceptive pill"
Kings Langley,Kingslangely Discount Drug Store,Shop 5/125 James Cook Drive,2147,(02) 9674 3341,Blacktown City Council,"Urinary tract infection, Oral contraceptive pill"
Kingscliff,Kingscliff Beach Chempro Chemist,40 Marine Parade,2487,(02) 6674 1104,Tweed Shire Council,"Urinary tract infection, Oral contraceptive pill"
Kingscliff,Kingscliff 7-Day Chempro,84 Marine Parade,2487,(02) 6674 1140,Tweed Shire Council,"Urinary tract infection, Oral contraceptive pill"
Kingsgrove,Blue Cross Pharmacy,322 Kingsgrove Road,2208,(02) 9554 9002,Bayside Council,"Urinary tract infection, Oral contraceptive pill"
Kingsgrove,Chapel Street Pharmacy,94 Chapel Street,2208,(02) 9750 7000,Canterbury Bankstown Council,"Urinary tract infection, Oral contraceptive pill"
Kingston​,Capital Chemist Kingston,62 Jardine Street​,2604,(02) 6295 9146,​Australian Capital Territory,"Urinary tract infection, Oral contraceptive pill"
Kingswood,Specialist Clinic Pharmacy,3/64-68 Derby Street,2747,(02) 4737 3456,Penrith City Council,"Urinary tract infection, Oral contraceptive pill"
Kirrawee,David Wilson Chemist Kirrawee,498-500 Princes Highway,2232,(02) 9542 3530,Sutherland Shire Council,Urinary tract infection
Kirrawee,Kirrawee Pharmacy,156 Oak Road,2232,(02) 9521 1378,Sutherland Shire Council,"Urinary tract infection, Oral contraceptive pill"
Kogarah,Zainabs Pharmacy,1 Queen Victoria Street,2217,(02) 9587 5814,Bayside Council,"Urinary tract infection, Oral contraceptive pill"
Kogarah,TerryWhite Chemmart Kogarah,"Shop 1, 1 Railway Parade",2217,(02) 9587 1909,Bayside Council,"Urinary tract infection, Oral contraceptive pill"
Kogarah,St George Prescription Centre,1/24 Belgrave Street,2217,(02) 9588 4774,Georges River Council,"Urinary tract infection, Oral contraceptive pill"
Kooringal,Kooringal Pharmacy,25/269-293 Lake Albert Road,2650,(02) 6922 6671,Wagga Wagga City Council,"Urinary tract infection, Oral contraceptive pill"
Kootingal,The Centre Pharmacy Kootingal,"Shop 3, 12 Gate Street",2352,(02) 6760 3696,Tamworth Regional Council,"Urinary tract infection, Oral contraceptive pill"
Kotara,Pharmacy 4 Less Kotara,"Shop A1, Corner Park Avenue & Kullaiba Road",2289,(02) 4957 1594,Newcastle City Council,"Urinary tract infection, Oral contraceptive pill"
Kotara,Scott-Dibben Chemist,FH2 Park Avenue,2289,(02) 4957 5287,Newcastle City Council,"Urinary tract infection, Oral contraceptive pill"
Kotara,Priceline Pharmacy Kotara,Shop 1060,2289,(02) 4952 2641,Newcastle City Council,"Urinary tract infection, Oral contraceptive pill"
Kurrajong,Kurrajong Pharmacy,74C Old Bells Line Of Road,2758,(02) 4573 0931,Hawkesbury City Council,"Urinary tract infection, Oral contraceptive pill"
Kurri Kurri,Priceline Pharmacy Kurri Kurri,178 Lang Street,2327,(02) 4937 1162,Cessnock City Council,"Urinary tract infection, Oral contraceptive pill"
Kurri Kurri,Your Discount Chemist Kurri Kurri,169-173 Lang Street,2327,(02) 4937 1291,Cessnock City Council,"Urinary tract infection, Oral contraceptive pill"
Kyogle,Kyogle Pharmacy,111 Summerland Way,2474,(02) 6632 1016,Kyogle Council,"Urinary tract infection, Oral contraceptive pill"
Lake Albert,Lake Albert Pharmacy,Lake Village Shopping Centre7/39 Gregory Crescent,2650,(02) 6922 3788,Wagga Wagga City Council,"Urinary tract infection, Oral contraceptive pill"
Lake Cathie,Lake Cathie Medical Centre Pharmacy,1459 Ocean Drive,2445,(02) 6585 5085,Port Macquarie-Hastings Council,"Urinary tract infection, Oral contraceptive pill"
Lake Cathie,Your Discount Chemist Lake Cathie,"Shop 5, 1613 Ocean Drive",2445,(02) 6585 5737,Port Macquarie-Hastings Council,"Urinary tract infection, Oral contraceptive pill"
Lake Haven,TerryWhite Chemmart Lake Haven,"Shop 113, Lake Haven Drive",2263,(02) 4392 1055,Central Coast Council,"Urinary tract infection, Oral contraceptive pill"
Lake Haven,Priceline Pharmacy Lake Haven,Shop 35 Lake Haven Shopping Centre Lake Haven Dr & Goobarabah Ave,2263,(02) 4392 7873,Central Coast Council,"Urinary tract infection, Oral contraceptive pill"
Lake Munmorah,Friendly Pharmacy Lake Munmorah,"Shop M02, 275 Pacific Highway",2259,(02) 4358 3519,Central Coast Council,"Urinary tract infection, Oral contraceptive pill"
Lake Munmorah,TerryWhite Chemmart Lake Munmorah,2/95 Anita Avenue,2259,(02) 4358 1262,Central Coast Council,"Urinary tract infection, Oral contraceptive pill"
Lakemba,Michael Vasili Chemist,114 Haldon Street,2195,(02) 9759 1125,Canterbury Bankstown Council,"Urinary tract infection, Oral contraceptive pill"
Lakemba,Pharmacy 4 Less Haldon Street,100 Haldon Street,2195,(02) 9750 4431,Canterbury Bankstown Council,Urinary tract infection
Lambton,Piggotts Pharmacy Lambton,117 Elder Street,2299,(02) 4957 3630,City of Newcastle,"Urinary tract infection, Oral contraceptive pill"
Lane Cove,P and J Wade Chemists,"152, Burns Bay Road",2066,(02) 9427 1196,Lane Cove Municipal Council,"Urinary tract infection, Oral contraceptive pill"
Lane Cove,Lane Cove Advantage Pharmacy,121 Longueville Road,2066,(02) 9427 2241,Lane Cove Municipal Council,"Urinary tract infection, Oral contraceptive pill"
Lane Cove,Lane Cove Village Pharmacy,Shop 3/50-54 Burns Bay Road,2066,(02) 9427 0864,Lane Cove Municipal Council,"Urinary tract infection, Oral contraceptive pill"
Lane Cove,Priceline Lane Cove,Shop MM1 24-28 The Plaza,2066,(02) 94186426,Lane Cove Municipal Council,"Urinary tract infection, Oral contraceptive pill"
Lane Cove,Gavin Starr's Pharmacist Advice,36 Burns Bay Road,2066,(02) 9427 1755,Lane Cove Municipal Council,"Urinary tract infection, Oral contraceptive pill"
Lansvale,Lansvale Village Pharmacy,Shop 8/216 Hume Highway,2166,(02) 9728 6125,Fairfield City Council,"Urinary tract infection, Oral contraceptive pill"
Laurieton,Your Discount Chemist Laurieton,85 Bold Street,2443,(02) 6559 9700,Port Macquarie-Hastings Council,"Urinary tract infection, Oral contraceptive pill"
Lavington,TerryWhite Chemmart Northend,"Shop 3, 3/330 Urana Road",2641,(02) 6040 2204,Albury City Council,"Urinary tract infection, Oral contraceptive pill"
Lavington,TerryWhite Chemmart Lavington,"Shops 4-6, 351 Griffith Road",2641,(02) 6025 4733,Albury City Council,"Urinary tract infection, Oral contraceptive pill"
Leeton,The Bush Chemist Leeton,Shop 2/2637 Irrigation Way,2705,(02) 6953 6222,Leeton Shire Council,"Urinary tract infection, Oral contraceptive pill"
Leeton,Leeton Discount Chemist,"Padsite 1, 2-8 Acacia Avenue",2705,(02) 6953 2453,Leeton Shire Council,"Urinary tract infection, Oral contraceptive pill"
Leeton,Leeton Amcal Pharmacy,113 Pine Avenue,2705,(02) 6953 3602,Leeton Shire,"Urinary tract infection, Oral contraceptive pill"
Leichardt,The Pharmacy,118 Elswick Street,2040,(02) 9569 4056,Inner West Council,"Urinary tract infection, Oral contraceptive pill"
Leichhardt,Blooms the Chemist Leichhardt,"Shop 46 Leichhardt Market Place, 122 Flood Street",2040,(02) 9560 9808,Inner West Council,"Urinary tract infection, Oral contraceptive pill"
Leichhardt,Chemist Warehouse Leichhardt,111 Norton Street,2040,(02) 9569 2645,Inner West Council,Urinary tract infection
Leichhardt,Priceline Pharmacy Leichhardt,51-57 Norton Street,2040,(02) 9572 6344,Inner West Council,"Urinary tract infection, Oral contraceptive pill"
Leichhardt,Leichhardt Chemist,30-38 Short Street,2040,(02) 9560 3636,Inner West Council,"Urinary tract infection, Oral contraceptive pill"
Lemon Tree Passage,Lemon Tree Passage Pharmacy,21 Cook Pde Lemon Tree Passage,2319,(02) 4982 3636,Port Stephens Council,Urinary tract infection
Len Waters Estate,TerryWhite Chemmart Landmark,"Shop 4, 515 Cowpasture Road",2171,(02) 8866 3352,Liverpool City Council,"Urinary tract infection, Oral contraceptive pill"
Lennox Head,Lennox Head Chempro Chemist,Shop 14/5 Snapper Drive,2478,(02) 5622 6050,Ballina Shire Council,"Urinary tract infection, Oral contraceptive pill"
Lennox Head,Lennox Head Pharmacy,2-3/64 Ballina Street,2478,(02) 6687 7451,Ballina Shire Council,"Urinary tract infection, Oral contraceptive pill"
Leppington,Chemist Warehouse Emerald Hills,"SubTenancy 5.01, Tenancy No 5 Emerald Hills Shopping Village",2179,(02) 8381 4578,Camden Council,"Urinary tract infection, Oral contraceptive pill"
Leppington,Leppington Village Pharmacy,"Shop T5, Leppington Village, 108-116 Ingleburn Road",2179,(02) 8105 0605,Camden Council,"Urinary tract infection, Oral contraceptive pill"
Lidcombe,Priceline Pharmacy Lidcombe,Shop 37/92 Parramatta Road,2141,(02) 9648 1204,Cumberland Council,"Urinary tract infection, Oral contraceptive pill"
Lindfield,West Lindfield Pharmacy,"Shop 1, 808 Pacific Highway",2070,(02) 9416 2642,Ku-ring-gai Council,"Urinary tract infection, Oral contraceptive pill"
Lindfield,Lindfield Chempro Chemist,316 Pacific Highway,2070,(02) 9416 1305,Ku-ring-gai Council,"Urinary tract infection, Oral contraceptive pill"
Lindfield,Paul Mathieson Chemist,8/12-18 Tryon Road,2070,(02) 9416 2324,Ku-ring-gai Council,"Urinary tract infection, Oral contraceptive pill"
Lisarow,Chemist Outlet Lisarow,Shop 22/1 Parsons Road,2250,(02) 4328 1470,Central Coast Council,"Urinary tract infection, Oral contraceptive pill"
Lismore,Brands Pharmacy,136 Molesworth Street,2480,(02) 6621 3921,Lismore City Council,"Urinary tract infection, Oral contraceptive pill"
Lismore,Lismore Central Chempro,10/44 Carrington Street,2480,(02) 6621 9159,Lismore City Council,"Urinary tract infection, Oral contraceptive pill"
Lismore,Epic Pharmacy Lismore,20 Dalley Street,2480,(02) 6240 0600,Lismore City Council,"Urinary tract infection, Oral contraceptive pill"
Lismore,Lismore Woodlark Chempro Chemist,45 Woodlark Street,2480,(02) 6621 5212,Lismore City Council,"Urinary tract infection, Oral contraceptive pill"
Lithgow,Blooms the Chemist Lithgow,Lithgow Valley PlazaCorner Lithgow Street & Bent Street,2790,(02) 6352 2141,City of Lithgow Council,"Urinary tract infection, Oral contraceptive pill"
Liverpool,Pennas Discount Pharmacy Liverpool,"Shop 4, 72-78 Hoxton Park Road",2170,(02) 9602 7790,Liverpool City Council,"Urinary tract infection, Oral contraceptive pill"
Liverpool,Discount Chemist Outlet Liverpool,235-243 Macquarie Street,2170,(02) 8711 0901,Liverpool City Council,"Urinary tract infection, Oral contraceptive pill"
Liverpool,Chemist Warehouse Liverpool,129 Terminus Street,2170,(02) 9734 9122,Liverpool City Council,"Urinary tract infection, Oral contraceptive pill"
Liverpool,Save And Deliver Liverpool Pharmacy,1/279 Macquarie Street,2170,(02) 9821 1942,Liverpool City Council,"Urinary tract infection, Oral contraceptive pill"
Liverpool,Chemist Warehouse Liverpool Westfield,"Shop 149/51, Macquarie Street",2170,(02) 9601 4061,Liverpool City Council,"Urinary tract infection, Oral contraceptive pill"
Liverpool,Priceline Pharmacy Liverpool Westfield,Shop 1014 Westfield Liverpool Shopping Centre Macquarie Street,2170,(02) 9822 8885,Liverpool City Council,Urinary tract infection
Liverpool,Chemist Warehouse The Grove Liverpool,Units 3-6 18 Orange Grove Road,2170,(02) 9601 3388,Liverpool City Council,"Urinary tract infection, Oral contraceptive pill"
Long Jetty,John's Pharmacy,338 The Entrance Road,2261,(02) 4332 7500,Central Coast Council,"Urinary tract infection, Oral contraceptive pill"
Luddenham,Luddenham Pharmacy,IGA Luddeham Plus Liquor2130 The Northern Road,2745,(02) 4773 3188,Liverpool City Council,"Urinary tract infection, Oral contraceptive pill"
Lugarno,Lugarno Pharmacy,1020 Forest Road,2210,(02) 9153 7343,Georges River Council,"Urinary tract infection, Oral contraceptive pill"
Lurnea,Lurnea Discount Drug Store,1/54 Hill Road,2170,(02) 9607 6004,Liverpool City Council,"Urinary tract infection, Oral contraceptive pill"
MaNonela,Manilla Caremore Pharmacy,"Suite 3, 161 Manilla Street",2346,(02) 6785 1651,Tamworth Regional Council,"Urinary tract infection, Oral contraceptive pill"
Macksville,Wallace Street Pharmacy,7 Wallace Street,2447,(02) 6568 1010,Nambucca Valley Council,"Urinary tract infection, Oral contraceptive pill"
Maclean,Advantage Pharmacy Maclean,60 River Street,2463,(02) 6645 4425,Clarence Valley Council,"Urinary tract infection, Oral contraceptive pill"
Macquarie Park,TerryWhite Chemmart Lachlan's Square Village,"Shop 3, 17 Halifax Street",2113,(02) 9189 9500,Council of the City of Ryde,"Urinary tract infection, Oral contraceptive pill"
Maitland,Priceline Pharmacy Maitland,44 Elgin Street,2320,(02) 4933 9190,Maitland City Council,"Urinary tract infection, Oral contraceptive pill"
Maitland,TerryWhite Chemmart Maitland,425 High Street,2320,(02) 4934 1025,Maitland City Council,"Urinary tract infection, Oral contraceptive pill"
Malabar,Malabar Community Pharmacy,1218 Anzac Parade,2036,(02) 9311 3677,Randwick City Council,"Urinary tract infection, Oral contraceptive pill"
Mangrove Mountain,Mangrove Mountain Pharmacy,4/1 Waratah Road,2250,(02) 4374 1457,Central Coast Council,"Urinary tract infection, Oral contraceptive pill"
Manly,Manly Corso Pharmacy,72 The Corso,2095,(02) 9977 6397,Northern Beaches Council,"Urinary tract infection, Oral contraceptive pill"
Manly,Malouf Manly Pharmacy,15 The Corso,2095,(02) 9977 1029,Northern Beaches Council,"Urinary tract infection, Oral contraceptive pill"
Manly,Manly Community Pharmacy,10/15-25 Wentworth Street,2095,(02) 8068 3399,Northern Beaches Council,"Urinary tract infection, Oral contraceptive pill"
Manly,Chemist Warehouse Manly,52-58 The Corso,2095,(02) 9977 3043,Northern Beaches Council,"Urinary tract infection, Oral contraceptive pill"
Manly Vale,Manly Vale Pharmacy,339 Condamine Street,2093,(02) 9948 5184,Northern Beaches Council,"Urinary tract infection, Oral contraceptive pill"
Mannering Park,Mannering Park Pharmacy,3/72 Vales Road,2259,(02) 4359 1662,Central Coast Council,"Urinary tract infection, Oral contraceptive pill"
Manuka,The Pharmacy On Franklin,"18-20 Franklin St, Manuka",2603,(02) 6162 0007,Australian Capital Territory,"Urinary tract infection, Oral contraceptive pill"
Marayong,Marayong Pharmacy,56 Railway Road,2148,(02) 9622 1232,Blacktown City Council,"Urinary tract infection, Oral contraceptive pill"
Maroubra,Priceline Pharmacy Maroubra,13-15/737 Anzac Parade,2035,(02) 9349 4168,City of Randwick,"Urinary tract infection, Oral contraceptive pill"
Maroubra,Pagewood Pharmacy,Shop 2/16 Maroubra Road,2035,(02) 9349 7053,Randwick City Council,Oral contraceptive pill
Marrickville,Savemore Discount Chemist,311 Illawarra Road,2204,(02) 9559 3117,Inner West Council,"Urinary tract infection, Oral contraceptive pill"
Marrickville,TerryWhite Chemmart Marrickville,280 Marrickville Road,2204,(02) 9560 2488,Inner West Council,"Urinary tract infection, Oral contraceptive pill"
Marrickville,Priceline Pharmacy Marrickville,Shop 11/20 Smidmore Street,2204,(02) 9519 1155,Inner West Council,"Urinary tract infection, Oral contraceptive pill"
Marrickville,Blooms the Chemist Marrickville,251 Marrickville Road,2204,(02) 9560 2350,Inner West Council,"Urinary tract infection, Oral contraceptive pill"
Marrickville,Pharmacy 4 Less Marrickville Road,199 Marrickville Road,2204,(02) 7227 5313,Inner West Council,"Urinary tract infection, Oral contraceptive pill"
Marrickville,Pharmacy 4 Less Marrickville Metro,"Shop 1001 Level 1, 20 Smidmore Street",2204,(02) 9188 4016,Inner West Council,"Urinary tract infection, Oral contraceptive pill"
Marsden Park,Medicines R Us Chemist Marsden Park,1/9 Hollinsworth Road,2765,(02) 9626 9111,Blacktown City Council,"Urinary tract infection, Oral contraceptive pill"
Marsden Park,Priceline Pharmacy Marsden Park,"Shop 1, 101 Elara Boulevard",2765,(02) 9068 1930,Blacktown City Council,"Urinary tract infection, Oral contraceptive pill"
Marulan,Marulan Pharmacy,Shop 2/50-52 George Street,2579,(02) 4841 1622,Goulburn Mulwaree Council,"Urinary tract infection, Oral contraceptive pill"
Maryland,TerryWhite Chemmart Maryland,"Shop 2, 144 Maryland Drive",2287,(02) 4955 0909,Newcastle City Council,"Urinary tract infection, Oral contraceptive pill"
Mascot,Airport Pharmacy Landslide,"Shop 2, 1684, Sydney International Terminal 1",2020,(02) 9669 1580,Bayside Council,"Urinary tract infection, Oral contraceptive pill"
Mascot,Airport Domestic Pier B Pharmacy,Shop 2T/459 Sydney Domestic Airport Terminal 2M,2020,(02) 9700 9666,Bayside Council,"Urinary tract infection, Oral contraceptive pill"
Mascot,Airport Express Pharmacy,Shop 2A/194 Sydney Airport Domestic Terminal 2,2020,(02) 9693 2131,Bayside Council,"Urinary tract infection, Oral contraceptive pill"
Mascot,Priceline Pharmacy Mascot,7/33 Kent Road,2020,(02) 9693 1830,Bayside Council,"Urinary tract infection, Oral contraceptive pill"
Mascot,Cincotta Discount Chemist Mascot,944-946 Botany Road,2020,(02) 9667 4183,Bayside Council,"Urinary tract infection, Oral contraceptive pill"
Mascot,Sydney International Pier C Pharmacy,Sydney International Terminal 1Shop C2-144 (Airside),2020,(02) 8338 8871,Bayside Council,"Urinary tract infection, Oral contraceptive pill"
Matraville,HealthSave Pharmacy Matraville,496 Bunnerong Road,2036,(02) 9311 1600,Randwick City Council,Urinary tract infection
Matraville,TerryWhite Chemmart Matraville,Shop 6/495-503 Bunnerong Road,2036,(02) 9311 1686,City of Randwick,"Urinary tract infection, Oral contraceptive pill"
Mayfield,Priceline Mayfield Pharmacy,Shop 1a/230 Maitland Road,2304,(02) 4968 2305,Council of the City of Sydney,"Urinary tract infection, Oral contraceptive pill"
Mayfield,Blooms the Chemist Mayfield,179A Maitland Road,2304,(02) 4967 2211,Newcastle City Council,"Urinary tract infection, Oral contraceptive pill"
Mayfield,Chemist Warehouse Mayfield,95-97 Maitland Road,2304,(02) 4968 2983,Newcastle City Council,"Urinary tract infection, Oral contraceptive pill"
McMahons Point,Blues Point Road Pharmacy,1/1376 Blues Point Road,2060,(02) 8920 1120,North Sydney Council,"Urinary tract infection, Oral contraceptive pill"
Meadowbank,Cincotta Discount Chemist Meadowbank,"Shop 6, 2/11A Bay Drive",2114,(02) 9809 4350,Council of the City of Ryde,"Urinary tract infection, Oral contraceptive pill"
Medowie,Chemist Outlet Medowie,"Shop 7, 8 Peppertree Road",2318,(02) 4982 9516,Port Stephens Council,"Urinary tract infection, Oral contraceptive pill"
Medowie,Medowie Pharmacy,"Shop 17, 37C Ferodale Road",2318,(02) 4982 8564,Port Stephens Council,"Urinary tract infection, Oral contraceptive pill"
Menai,Menai Discount Drug Store,Shop C1.04 5-21 Carter Road,2234,(02) 9543 9983,Sutherland Shire Council,"Urinary tract infection, Oral contraceptive pill"
Menai,Priceline Pharmacy Menai,"Shop T04, 152-194 Allison Crescent",2234,(02) 9543 7033,Sutherland Shire Council,"Urinary tract infection, Oral contraceptive pill"
Merewether,Merewether Pharmacy,"Shop 1, 25-29 Llewellyn Street",2291,(02) 4963 1285,Newcastle City Council,"Urinary tract infection, Oral contraceptive pill"
Merimbula,Dodd & Dwyer Merimbula Pharmacy,32 Market Street,2548,(02) 6495 1244,Bega Valley Shire Council,"Urinary tract infection, Oral contraceptive pill"
Merrewether,Piggotts Pharmacy Merewether,400 Glebe Road,2303,(02) 4969 1978,Newcastle City Council,"Urinary tract infection, Oral contraceptive pill"
Merrylands,TerryWhite Chemmart Merrylands,184-186 Pitt Street,2160,(02) 9637 4673,Cumberland Council,"Urinary tract infection, Oral contraceptive pill"
Merrylands,Priceline Pharmacy Merrylands,"Shop 1090, Mcfarlane Street",2160,(02) 9637 8999,Cumberland Council,"Urinary tract infection, Oral contraceptive pill"
Merrylands,Cincotta Discount Chemist Stockland Merrylands,"Shop 1050, Mcfarlane Street",2160,(02) 9682 5558,Cumberland Council,"Urinary tract infection, Oral contraceptive pill"
Miller,Blooms the Chemist Miller,"Shop 46-48, Miller Central, 90 Cartwright Avenue",2168,(02) 9607 7204,Liverpool City Council,"Urinary tract infection, Oral contraceptive pill"
Milperra,Amcal Milperra Pharmacy,"Shop 7, 8/6 Bullecourt Avenue",2214,(02) 9771 4568,Canterbury Bankstown Council,"Urinary tract infection, Oral contraceptive pill"
Milton,TerryWhite Chemmart Milton,75 Prince Highway,2538,(02) 4455 1435,Shoalhaven City Council,"Urinary tract infection, Oral contraceptive pill"
Minchinbury,Minchinbury Pharmacy,"Shop 5, 36-38 Minchin Drive",2770,(02) 9832 1679,Blacktown City Council,"Urinary tract infection, Oral contraceptive pill"
Minto,Priceline Pharmacy Minto,21/10 Brookfield Road,2566,(02) 8798 9148,Campbelltown City Council,"Urinary tract infection, Oral contraceptive pill"
Miranda,Chemist Warehouse Miranda,Shop 1/589 Kingsway,2228,(02) 9540 1070,Sutherland Shire Council,"Urinary tract infection, Oral contraceptive pill"
Miranda,Priceline Pharmacy Miranda,Shop 1002/600 Kingsway,2228,(02) 9540 5482,Sutherland Shire Council,"Urinary tract infection, Oral contraceptive pill"
Miranda,Blooms the Chemist Miranda,"Shop 2089, Westfield Miranda 600, Kingsway",2228,(02) 9524 7691,Sutherland Shire Council,"Urinary tract infection, Oral contraceptive pill"
Miranda,Bob Harrison TerryWhite Chemmart Pharmacy Miranda,Shop 1078-1080/600 Kingsway,2228,(02) 9524 7200,Sutherland Shire Council,"Urinary tract infection, Oral contraceptive pill"
Miranda,Clinic Pharmacy,"Shop 1, 88-90 Kiora Road",2228,(02) 9524 4394,Sutherland Shire Council,"Urinary tract infection, Oral contraceptive pill"
Mittagong,Priceline Pharmacy Mittagong,"Shop 4, Highlands Market Place Old Hume HWY &, Roscoe St, Mittagong NSW 2575",2575,(02) 4872 3455,Wingecarribee Shire Council,"Urinary tract infection, Oral contraceptive pill"
Mittagong,Capital Chemist Mittagong,2 Bowral Road,2575,(02) 4871 1480,Wingecarribee Shire Council,"Urinary tract infection, Oral contraceptive pill"
Mittagong,Mittagong Day And Night Pharmacy,9/130 Main Street,2575,(02) 4871 1818,Wingecarribee Shire Council,"Urinary tract infection, Oral contraceptive pill"
Mollymook,Mollymook Pharmacy And Newsagency,5/85 Tallwood Avenue,2539,(02) 4455 3425,Shoalhaven City Council,"Urinary tract infection, Oral contraceptive pill"
Molong,Molong Pharmacy,43-45 Bank Street,2866,(02) 6366 8669,Cabonne Council,"Urinary tract infection, Oral contraceptive pill"
Mona Vale,Priceline Pharmacy Mona Vale,"Shop 8 & 9, 10 Park Street",2103,(02) 9979 4766,Northern Beaches Council,"Urinary tract infection, Oral contraceptive pill"
Mona Vale,Plunketts Pharmacy,9/17 Bungan Street,2103,(02) 9997 4488,Northern Beaches Council,Oral contraceptive pill
Mona Vale,Healthylife Pharmacy Mona Vale,1/1785 Pittwater Road,2103,(02) 9999 3598,Northern Beaches Council,"Urinary tract infection, Oral contraceptive pill"
Mona Vale,Pittwater Pharmacy,1771 Pittwater Road,2103,(02) 9999 3398,Northern Beaches Council,"Urinary tract infection, Oral contraceptive pill"
Mona Vale,TerryWhite Chemmart Mona Vale,Shop 1/11 Waratah Street,2103,(02) 9997 5337,Northern Beaches Council,"Urinary tract infection, Oral contraceptive pill"
Moonee Beach,Moonee Beach Pharmacy,Shop 10 2B Moonee Beach Road,2450,(02) 6656 4044,Coffs Harbour City Council,"Urinary tract infection, Oral contraceptive pill"
Moorebank,Moorebank Amcal Pharmacy,1/42 Stockton Avenue,2170,(02) 9602 3255,Liverpool City Council,"Urinary tract infection, Oral contraceptive pill"
Moorebank,Moorebank Day and Night Pharmacy,Shop 21/42 Stockton Avenue,2170,(02) 9602 4476,Liverpool City Council,"Urinary tract infection, Oral contraceptive pill"
Moree,Priceline Pharmacy Moree,Shop 2/215 Balo Street,2400,(02) 6751 1425,Moree Plains Shire Council,"Urinary tract infection, Oral contraceptive pill"
Moree,Moree Amcal Pharmacy,1/97 Balo Street,2400,(02) 6752 2577,Moree Plains Shire Council,"Urinary tract infection, Oral contraceptive pill"
Morisset,Priceline Pharmacy Morriset,"Shop 9-11, 35 Yambo Street",2264,(02) 4973 1539,Lake Macquarie City Council,"Urinary tract infection, Oral contraceptive pill"
Morisset,Morriset Main Street Pharmacy,91/93 Dora Street,2264,(02) 4973 4811,Lake Macquarie City Council,"Urinary tract infection, Oral contraceptive pill"
Morpeth,Morpeth Pharmacy,141 Swan Street,2321,(02) 4933 6229,Maitland City Council,"Urinary tract infection, Oral contraceptive pill"
Mortdale,Diana's Pharmacy Mortdale,2/84D Roberts Avenue,2223,(02) 9586 0100,Georges River Council,"Urinary tract infection, Oral contraceptive pill"
Mortdale,The Heritage Pharmacy,4/23A Morts Road,2223,(02) 9580 2771,Georges River Council,"Urinary tract infection, Oral contraceptive pill"
Mortdale,Mortdale Pharmacy,4A Morts Road,2223,(02) 9580 1631,Georges River Council,"Urinary tract infection, Oral contraceptive pill"
Moruya,Moruya Pharmacy,48 Vulcan Street,2537,(02) 4474 2018,Eurobodalla Shire Council,"Urinary tract infection, Oral contraceptive pill"
Moruya,Ballards Pharmacy,"Shop 4, 4 Ford Street",2537,(02) 4474 2064,Eurobodalla Shire Council,"Urinary tract infection, Oral contraceptive pill"
Mosman,Priceline Pharmacy Mosman,22 Spit Road,2088,(02) 9969 6194,Mosman Municipal Council,"Urinary tract infection, Oral contraceptive pill"
Mosman,Brunskills Pharmacy,886 Military Road,2088,(02) 9969 4155,Mosman Municipal Council,"Urinary tract infection, Oral contraceptive pill"
Mosman,Bridgepoint Pharmacy,"Shop 28, 1-3 Brady Street",2088,(02) 9968 2231,Mosman Municipal Council,"Urinary tract infection, Oral contraceptive pill"
Mosman,393 Pharmacy,393 Military Road,2088,(02) 9969 1345,Mosman Municipal Council,"Urinary tract infection, Oral contraceptive pill"
Mosman,Shane Henry Amcal Pharmacy,783 Military Road,2088,(02) 99692149,Mosman Municipal Council,"Urinary tract infection, Oral contraceptive pill"
Mosman,Cranes Pharmacy Mosman,62 Avenue Road,2088,(02) 9969 4700,Mosman Municipal Council,"Urinary tract infection, Oral contraceptive pill"
Mosman,Cremorne Pharmacy,"49c Spofforth Street, Mosman",2088,(02) 9953 1503,Mosman Municipal Council,"Urinary tract infection, Oral contraceptive pill"
Mosman,Mosman Prescription Centre,"Shop 2, 685 Military Road",2088,(02) 9960 1990,Mosman Municipal Council,"Urinary tract infection, Oral contraceptive pill"
Mosman,TerryWhite Chemmart Mosman,2/2-6 Spit Road,2088,(02) 99694995,Mosman Municipal Council,"Urinary tract infection, Oral contraceptive pill"
Moss Vale,Moss Vale Community Pharmacy,412 Argyle Street,2577,(02) 4868 1293,Wingecarribee Shire Council,"Urinary tract infection, Oral contraceptive pill"
Moss Vale,Moss Vale Village Pharmacy,12 Clarence Street,2577,(02) 4869 4800,Wingecarribee Shire Council,"Urinary tract infection, Oral contraceptive pill"
Moss Vale,Nick Knowles Pharmacist Advice,"Shop 3, 17-19 Clarence Street",2577,(02) 4868 1005,Wingecarribee Shire Council,"Urinary tract infection, Oral contraceptive pill"
Mount Annan,Pharmacy Focus Mount Annan,25/11-13 Main Street,2567,(02) 4647 4820,Camden Council,"Urinary tract infection, Oral contraceptive pill"
Mount Hutton,Chemist Warehouse Lake Macquarie,"Shop T44, Wilson Road",2290,(02) 4948 4411,Lake Macquarie City Council,"Urinary tract infection, Oral contraceptive pill"
Mount Hutton,Pharmacy 4 Less Mount Hutton,"Shop 69, Lake Macquarie Fair, Wilsons Road",2290,(02) 4017 2605,Lake Macquarie City Council,"Urinary tract infection, Oral contraceptive pill"
Mount Pritchard,Mount Pritchard Pharmacy,48 Meadows Road,2170,(02) 9610 4417,Fairfield City Council,"Urinary tract infection, Oral contraceptive pill"
Mt Druitt,Priceline Pharmacy Mount Druitt,"Shop 19-20, Corner Carlisle Avenue and Luxford Road",2770,(02) 9832 0700,Blacktown City Council,"Urinary tract infection, Oral contraceptive pill"
Mt Druitt,Mt Druitt Pharmacy,7 Mt Druitt Road,2770,(02) 9625 8282,Blacktown City Council,Urinary tract infection
Mudgee,TerryWhite Chemmart Mudgee,16 Church Street,2850,(02) 6372 1569,Mid-Western Regional Council,"Urinary tract infection, Oral contraceptive pill"
Mudgee,Mudgee Pharmacy,96 Church Street,2850,(02) 6372 2224,Mid-Western Regional Council,Urinary tract infection
Mudgee,Blooms the Chemist Mudgee,46-50 Church Street,2850,(02) 6372 4227,Mid-Western Regional Council,"Urinary tract infection, Oral contraceptive pill"
Mulgoa,Mulgoa Pharmacy,"Shop 8, 1216 Mulgoa Road",2745,(02) 4773 8685,Penrith City Council,Urinary tract infection
Mullumbimby,Mullum Chemsave,18 Burringbar Street,2482,(02) 6684 6226,Byron Shire Council,Urinary tract infection
Mulwala,Mulwala Pharmacy,Shop 2/47 Melbourne Street,2647,(03) 5743 1777,Federation Council,"Urinary tract infection, Oral contraceptive pill"
Murrumbateman,Murrumbateman Pharmacy & Medical,5 Hercules Street,2582,(02) 6227 5559,Yass Valley Council,"Urinary tract infection, Oral contraceptive pill"
Murrurundi,Murrurundi Pharmacy,73 Mayne Street,2338,(02) 6546 6502,Upper Hunter Shire Council,Oral contraceptive pill
Murwillumbah,Varela & Swift Pharmacy,80 Main Street,2484,(02) 6672 2388,Tweed Shire Council,"Urinary tract infection, Oral contraceptive pill"
Murwillumbah,Sunnyside Soul Pattinson Chemist Murwillumbah,"Shop 14, 27 Wollumbin Street",2484,(02) 6672 3323,Tweed Shire Council,Urinary tract infection
Murwillumbah,Mapp & Hession Pharmacy,14 King Street,2484,(02) 6672 1394,Tweed Shire,"Urinary tract infection, Oral contraceptive pill"
Murwillumbah,Priceline Pharmacy Murwillumbah,72 Murwillumbah Street,2484,(02) 6672 1038,Tweed Shire,"Urinary tract infection, Oral contraceptive pill"
Muswellbrook,HealthSave Muswellbrook Pharmacy,47 Bridge Street,2333,(02) 6543 3230,Muswellbrook Shire Council,"Urinary tract infection, Oral contraceptive pill"
Muswellbrook,Muswellbrook Chemist,"Shop 1-4, 22 Sowerby St",2333,(02) 6541 0999,Muswellbrook Shire Council,"Urinary tract infection, Oral contraceptive pill"
Nambucca Heads,Nambucca Heads Pharmacy,28 Bowra Street,2448,(02) 6568 6065,Nambucca Valley Council,"Urinary tract infection, Oral contraceptive pill"
Nambucca Heads,Nambucca Plaza Pharmacy,"Shop 15, 2191 Giinagay Way",2448,(02) 6568 6822,Nambucca Valley Council,"Urinary tract infection, Oral contraceptive pill"
Nambucca Heads,TerryWhite Chemmart Nambucca Heads,24 Ridge Street,2448,(02) 6568 6018,Nambucca Valley Council,"Urinary tract infection, Oral contraceptive pill"
Narellan,TerryWhite Chemmart Narellan Town,"Shop 12, 326 Camden Valley Way and Somerset Avenue",2567,(02) 4646 1677,Camden Council,"Urinary tract infection, Oral contraceptive pill"
Narellan,Narellan Chemist,44-48/326 Camden Valley Way,2567,(02) 4647 1430,Camden Council,"Urinary tract infection, Oral contraceptive pill"
Narellan,Amcal + Narellan Medical Centre Pharmacy,1/19 Queen Street,2567,(02) 4607 7037,Camden Council,"Urinary tract infection, Oral contraceptive pill"
Narooma,Narooma Pharmacy,"Shop 3, 30-32 Princes Highway",2546,(02) 4476 2380,Eurobodalla Shire Council,"Urinary tract infection, Oral contraceptive pill"
Narooma,Capital Chemist Narooma,"Shop 4, 185 Princes Highway",2546,(02) 4476 2056,Eurobodalla Shire Council,"Urinary tract infection, Oral contraceptive pill"
Narrabeen,Narrabeen Pharmacy,67-69 Waterloo Street,2101,(02) 9913 7171,Northern Beaches Council,"Urinary tract infection, Oral contraceptive pill"
Narrabi,Narrabri Pharmacy,127 Maitland Street,2390,(02) 6792 2105,Narrabri Shire Council,"Urinary tract infection, Oral contraceptive pill"
Narrabri,Camstart Pharmacy,118-120 Maitland Street,2390,(02) 6792 2178,Narrabri Shire Council,"Urinary tract infection, Oral contraceptive pill"
Narrandera,TerryWhite Chemmart Narrandera,58 East Street,2700,(02) 6959 1099,Narrandera Shire Council,"Urinary tract infection, Oral contraceptive pill"
Narrandera,Capital Chemist Narrandera,125 East Street,2700,(02) 6959 2091,Narrandera Shire Council,"Urinary tract infection, Oral contraceptive pill"
Narromine,Narromine Pharmacy,53 Dandaloo Street,2821,(02) 6889 1039,Narromine Shire Council,"Urinary tract infection, Oral contraceptive pill"
Narwee,Narwee Pharmacy,"Shop 1, 141 Penshurst Road",2209,(02) 9153 7564,Canterbury Bankstown Council,"Urinary tract infection, Oral contraceptive pill"
Narwee,Family Care Pharmacy Narwee,62-64 Broad Arrow Road,2209,(02) 9153 9772,Georges River Council,"Urinary tract infection, Oral contraceptive pill"
Nelson Bay,Nelson Bay Discount Drug Store,"Woolworths Shopping Centre, Shop 1, Donald Street",2315,(02) 4981 1237,Port Stephens Council,"Urinary tract infection, Oral contraceptive pill"
Nelson Bay,TerryWhite Chemmart Nelson Bay,Shop 5 / 16 Stockton Street,2315,(02) 4984 2445,Port Stephens Council,"Urinary tract infection, Oral contraceptive pill"
Neutral Bay,Neutral Bay Pharmacy,177 Military Road,2089,(02) 9953 2695,Mosman Municipal Council,"Urinary tract infection, Oral contraceptive pill"
Neutral Bay,Cincotta Chemist Neutral Bay,116 Military Road,2089,(02) 9953 0609,North Sydney Council,"Urinary tract infection, Oral contraceptive pill"
New Lambton,Strachans Pharmacy,257 Lambton Road,2305,(02) 4957 1405,Newcastle City Council,"Urinary tract infection, Oral contraceptive pill"
New Lambton,Piggotts Blackbutt Pharmacy,58 Orchardtown Road,2305,(02) 4957 2474,Newcastle City Council,"Urinary tract infection, Oral contraceptive pill"
Newcastle,Bagga's Pharmacy Newcastle,178 Hunter Street Mall,2300,(02) 4929 1758,City of Newcastle,Urinary tract infection
Newcastle,Docs Megasave Chemist,23 Steel Street,2302,(02) 4926 3300,Newcastle City Council,"Urinary tract infection, Oral contraceptive pill"
Newcastle,City Pharmacy,53 Hunter Street,2300,(02) 4929 2866,Newcastle City Council,"Urinary tract infection, Oral contraceptive pill"
Newcastle,Chemist Warehouse Newcastle,136-140 Hunter Street,2300,(02) 4927 8966,Newcastle City Council,"Urinary tract infection, Oral contraceptive pill"
Newport,Your Community Pharmacy Newport,Shop3/1 Kalinya Street,2106,(02) 9999 1186,Northern Beaches Council,"Urinary tract infection, Oral contraceptive pill"
Newport,Newport Pharmacy,347 Barrenjoey Road,2106,(02) 9999 1553,Northern Beaches Council,"Urinary tract infection, Oral contraceptive pill"
Newtown,Carillon Compounding Pharmacy,100 Carillon Avenue,2042,(02) 9519 4247,Council of the City of Sydney,"Urinary tract infection, Oral contraceptive pill"
Newtown,Chemist on King,205 King Street,2042,(02) 9557 2646,Council of the City of Sydney,"Urinary tract infection, Oral contraceptive pill"
Nicholls,Gold Creek Discount Drug Store,3/46 O'Hanlon Place,2913,(02) 6253 9702,Australian Capital Territory,"Urinary tract infection, Oral contraceptive pill"
Nimbin,Nimbin Village Pharmacy,56 Cullen Street,2480,(02) 6689 1448,Lismore City Council,"Urinary tract infection, Oral contraceptive pill"
North Balgowlah,North Balgowlah Pharmacy,10/44 Woodbine Street,2093,(02) 9948 6178,Northern Beaches Council,"Urinary tract infection, Oral contraceptive pill"
North Bondi,Roper's Seaside Pharmacy,31 Campbell Parade,2026,(02) 9130 1557,Waverley Council,"Urinary tract infection, Oral contraceptive pill"
North Nowra,North Nowra Amcal Pharmacy,Shop 9-10 McMahons Road,2541,(02) 4421 5100,Shoalhaven City Council,"Urinary tract infection, Oral contraceptive pill"
North Parramatta,Priceline Pharmacy North Parramatta,"Shop 1, 460 Church Street",2151,(02) 9630 3691,"Parramatta, Council of the City of","Urinary tract infection, Oral contraceptive pill"
North Richmond NSW,TerryWhite Chemmart North Richmond,"Shop 8, Bells Line of Rd",2754,(02) 4571 1617,Hawkesbury City Council,"Urinary tract infection, Oral contraceptive pill"
North Rocks,Priceline Pharmacy North Rocks,"Shop 22-25, 328 North Rocks Road",2151,(02) 9872 1979,"Parramatta, Council of the City of","Urinary tract infection, Oral contraceptive pill"
North Ryde,Amcal Pharmacy Macquarie Centre,Shop 3343 Herring Road,2113,(02) 9887 1215,Council of the City of Ryde,"Urinary tract infection, Oral contraceptive pill"
North Ryde,Health Advice Pharmacy,136 Coxs Road,2113,(02) 9888 7086,Council of the City of Ryde,"Urinary tract infection, Oral contraceptive pill"
North Ryde,North Ryde Pharmacy,Shop 18/203 Cox's Road,2113,(02) 9878 1117,Council of the City of Ryde,"Urinary tract infection, Oral contraceptive pill"
North Ryde,Blenheim Road Pharmacy,8 Blenheim Road,2113,(02) 9888 1888,Council of the City of Ryde,"Urinary tract infection, Oral contraceptive pill"
North Ryde,Priceline Pharmacy Macquarie Centre,Shop U11 Macquarie Centre,2113,(02) 9887 1115,Council of the City of Ryde,"Urinary tract infection, Oral contraceptive pill"
North Strathfield,Concord Road Pharmacy,197 Concord Road,2137,(02) 9743 2222,City of Canada Bay Council,"Urinary tract infection, Oral contraceptive pill"
North Sydney,Priceline Pharmacy North Sydney,"Shop 1-2, 111 Pacific Highway",2060,(02) 9955 1454,North Sydney Council,"Urinary tract infection, Oral contraceptive pill"
North Sydney,Chemist Warehouse North Sydney,Shops 2 3 & 6 Floor Level 2 68 Walker Street,2060,(02) 8381 4553,North Sydney Council,"Urinary tract infection, Oral contraceptive pill"
North Sydney,Drews Pharmacy,"Shop 3A, 2 Elizabeth Plaza",2060,(02) 9922 6869,North Sydney Council,"Urinary tract infection, Oral contraceptive pill"
North Wyong,Chemist Outlet North Wyong,"Unit 9 D&E, Amy Close",2259,(02) 4351 3688,Central Coast Council,"Urinary tract infection, Oral contraceptive pill"
Northbridge,Northbridge Pharmacy,"Shop 2, 115 Sailors Bay Road",2063,(02) 9958 7229,City of Willoughby,"Urinary tract infection, Oral contraceptive pill"
Northbridge,Blooms the Chemist Northbridge,"Shop 13, Northbridge Plaza, 133 Sailors Bay Road",2063,(02) 9958 8646,City of Willoughby,"Urinary tract infection, Oral contraceptive pill"
Nowra,Chemist Warehouse Nowra Junction,"Shops 1-6, 83-87 Junction Street",2541,(02) 8381 4526,Shoalhaven City Council,"Urinary tract infection, Oral contraceptive pill"
Nowra,Blooms the Chemist Nowra Mall,"Shop 25, 20 Kinghorne Street",2541,(02) 4421 3946,Shoalhaven City Council,"Urinary tract infection, Oral contraceptive pill"
Nowra,Priceline Pharmacy Nowra,102 Junction Street,2541,(02) 4423 2393,Shoalhaven City Council,"Urinary tract infection, Oral contraceptive pill"
Nowra,Blooms the Chemist Nowra Junction Street,130 Junction Street,2541,(02) 4421 3175,Shoalhaven City Council,"Urinary tract infection, Oral contraceptive pill"
Nyngan,Nyngan Pharmacy,115 Pangee Street,2825,(02) 6832 1054,Bogan Shire,"Urinary tract infection, Oral contraceptive pill"
Oak Flats,Oak Flats Pharmacy,64 Central Avenue,2529,(02) 4256 1206,Shellharbour City Council,"Urinary tract infection, Oral contraceptive pill"
Oatlands,Oatlands Pharmacy,42 Belmore Street East,2117,(02) 9630 2858,Council of the City of Parramatta,"Urinary tract infection, Oral contraceptive pill"
Oatley,Mullanes Pharmacy,121A Mulga Road,2223,(02) 9580 2365,Georges River Council,"Urinary tract infection, Oral contraceptive pill"
Oberon,Oberon Pharmacy,135 Oberon Street,2787,(02) 6336 1466,Oberon Council,"Urinary tract infection, Oral contraceptive pill"
Old Bar,Old Bar Pharmacy,1/48 Old Bar Road,2430,(02) 6553 7660,Mid-Coast Council,"Urinary tract infection, Oral contraceptive pill"
Old Toongabbie,Old Toongabbie Pharmacy,"Shop 2, 58-62 Fitzwilliam Road",2146,(02) 9631 3177,Council of the City of Parramatta,"Urinary tract infection, Oral contraceptive pill"
Oran Park,Priceline Pharmacy Oran Park,"Shop 7E Oran Park Podium, 351 Oran Park Drive",2570,(02) 4623 1224,Camden Council,"Urinary tract infection, Oral contraceptive pill"
Orange,Hogans Pharmacy,123 Sale Street,2800,(02) 6362 3680,Orange City Council,"Urinary tract infection, Oral contraceptive pill"
Orange,Chemist Warehouse Orange,158-160 Summer Street,2800,(02) 6360 2960,Orange City Council,"Urinary tract infection, Oral contraceptive pill"
Orange,Orange Compounding Pharmacy,184-186 Summer Street,2800,(02) 6362 1564,Orange City Council,"Urinary tract infection, Oral contraceptive pill"
Orange,Blooms the Chemist Orange,"Shop 19, Orange Central Square, 227 - 237 Summer Street",2800,(02) 6362 1267,Orange City Council,"Urinary tract infection, Oral contraceptive pill"
Orange,Life Pharmacy Orange,"Shops T4/5, 82/88 Summer Street",2800,(02) 6362 1009,Orange City Council,"Urinary tract infection, Oral contraceptive pill"
Orange,Priceline Pharmacy Orange City Centre,"Shop 2-4, 190 Anson Street",2800,(02) 6362 8444,Orange City Council,"Urinary tract infection, Oral contraceptive pill"
Orange,North Orange Discount Drug Store,"Shop T12, 9 Telopea Way",2800,(02) 6369 0004,Orange City Council,"Urinary tract infection, Oral contraceptive pill"
Orange,Peter Smith TerryWhite Chemmart,180 Summer Street,2800,(02) 6362 4029,Orange City Council,"Urinary tract infection, Oral contraceptive pill"
Orange​,Starchem Pharmacy Orange,171 Lords Place,2800,(02) 6363 1633,Orange City Council,"Urinary tract infection, Oral contraceptive pill"
Oxley Park,Morris Care & Advice Pharmacy,Shop 2/46 Sydney Street,2760,(02) 9623 2129,Penrith City Council,"Urinary tract infection, Oral contraceptive pill"
Oyster Bay,Oyster Bay Pharmacy,129 Como Road,2225,(02) 9528 9323,Sutherland Shire,"Urinary tract infection, Oral contraceptive pill"
Paddington,Paddington Compounding Pharmacy,322-324 Oxford Street,2021,(02) 9360 4566,Municipality of Woollahra,"Urinary tract infection, Oral contraceptive pill"
Padstow,Smiths MediAdvice Pharmacy,23 Padstow Parade,2211,(02) 9773 7627,Canterbury Bankstown Council,"Urinary tract infection, Oral contraceptive pill"
Padstow,Blooms the Chemist Padstow,57-59 Padstow Parade,2211,(02) 9773 9427,Canterbury Bankstown Council,"Urinary tract infection, Oral contraceptive pill"
Padstow,Faraday Road Pharmacy,11 Faraday Road,2211,(02) 9773 6426,Canterbury Bankstown Council,"Urinary tract infection, Oral contraceptive pill"
Panania,Chemist Hub Panania,54-56 Anderson Avenue,2213,(02) 9773 7880,Canterbury Bankstown Council,"Urinary tract infection, Oral contraceptive pill"
Panania,Thurn's Pharmacy,161 Tower Street,2231,(02) 8764 0155,Canterbury Bankstown Council,"Urinary tract infection, Oral contraceptive pill"
Panania,Panania Pharmacy,72 Anderson Avenue,2213,(02) 9773 9801,Canterbury Bankstown Council,"Urinary tract infection, Oral contraceptive pill"
Parkes,Ron Dunford Chemist,280 Clarinda Street,2870,(02) 6862 1099,Parkes Shire Council,"Urinary tract infection, Oral contraceptive pill"
Parkes,Parkes Pharmacy,"Shop 6, 279-283 Clarinda Street",2870,(02) 6862 2411,Parkes Shire Council,"Urinary tract infection, Oral contraceptive pill"
Parramatta,Zenith Pharmacy,Shop 13,2150,(02) 9687 7401,Council of the City of Parramatta,"Urinary tract infection, Oral contraceptive pill"
Parramatta,Chemist Warehouse Parramatta,202-214 Church St,2150,(02) 9635 0488,"Parramatta, Council of the City of","Urinary tract infection, Oral contraceptive pill"
Parramatta,Chemist Warehouse North Parramatta,458 Church Street,2150,(02) 8381 4566,Council of the City of Parramatta,"Urinary tract infection, Oral contraceptive pill"
Parramatta,Pharmacy Junction Parrramatta,"Shop 5020-5021, Level 5",2150,(02) 9633 2238,Council of the City of Parramatta,"Urinary tract infection, Oral contraceptive pill"
Parramatta,Chemist Warehouse Westfield Parramatta,Shop M11B Westfield,2150,(02) 9673 8056,Council of the City of Parramatta,"Urinary tract infection, Oral contraceptive pill"
Parramatta,Darin's Pharmacy,140 Victoria Road,2151,(02) 9630 2056,"Parramatta, Council of the City of","Urinary tract infection, Oral contraceptive pill"
Parramatta,Priceline Pharmacy Parramatta,"Westfield Parramatta Shop M10, Level 2, 159-175 Church Street",2150,(02) 9633 1770,"Parramatta, Council of the City of","Urinary tract infection, Oral contraceptive pill"
Parramatta,Pharmacy 4 Less Parramatta,240 Church Street,2150,(02) 9687 4600,Council of the City of Parramatta,"Urinary tract infection, Oral contraceptive pill"
Paterson,Paterson Chemist,16 King Street,2421,(02) 4938 5335,Dungog Shire Council,"Urinary tract infection, Oral contraceptive pill"
Peakhurst,Rakoty Pharmacy,9C Park Street,2222,(02) 9534 7045,Georges River Council,Urinary tract infection
Pennant Hills,Chemist Warehouse Pennant Hills,3 Hillcrest Road,2120,(02) 9484 1055,The Council of the Shire of Hornsby,"Urinary tract infection, Oral contraceptive pill"
Penrith,Blooms the Chemist Nepean,"Shop 39, 148 Station Street",2750,(02) 4732 1328,Penrith City Council,"Urinary tract infection, Oral contraceptive pill"
Penrith,Steve's Pharmacy,383 High Street,2750,(02) 4721 2074,Penrith City Council,"Urinary tract infection, Oral contraceptive pill​"
Penrith,Chemist Warehouse Penrith Plaza,139/585 High Street,2750,(02) 4721 2200,Penrith City Council,"Urinary tract infection, Oral contraceptive pill"
Penrith,Penrith 24 Hour Pharmacy,438 High Street,2750,(02) 4721 5527,Penrith City Council,"Urinary tract infection, Oral contraceptive pill"
Penrith,TerryWhite Chemmart Compounding Penrith,447 High Street,2750,(02) 4721 8117,Penrith City Council,"Urinary tract infection, Oral contraceptive pill"
Penrith,Blooms the Chemist Penrith High Street,3/535-537 High Street,2750,(02) 4724 2050,Penrith City Council,"Urinary tract infection, Oral contraceptive pill"
Phillip,Pharmasave Woden Pharmacy,Shop 67/2 Keltie Street,2606,(02) 6282 3960,Australian Capital Territory,"Urinary tract infection, Oral contraceptive pill"
Picnic Point,Calmans Pharmacy,127N Kennedy Street,2213,(02) 9773 9464,Canterbury Bankstown Council,"Urinary tract infection, Oral contraceptive pill"
Picton,Picton Discount Drug Store,"Shop T25-27 Picton Mall, 9 Margaret Steet",2571,(02) 4677 1294,Wollondilly Shire Council,"Urinary tract infection, Oral contraceptive pill"
Plumpton,TerryWhite Chemmart Plumpton,MarketplaceShop 20/260 Jersey Road,2761,(02) 9832 1308,Blacktown City Council,"Urinary tract infection, Oral contraceptive pill"
Pokolbin,Pokolbin Village Pharmacy,"Shop 13, 2090 Broke Road",2320,(02) 4998 6677,Cessnock City Council,Urinary tract infection
Port Kembla,Bowdens Discount Chemist,71 Wentworth Street,2505,(02) 4274 2044,Wollongong City Council,"Urinary tract infection, Oral contraceptive pill"
Port Macquarie,Clifton Pharmacy Outlet,3 Clifton Dr,2444,(02) 6583 5653,Port Macquarie-Hastings Council,"Urinary tract infection, Oral contraceptive pill"
Port Macquarie,Settlement City Pharmacy,"Shop 10 & 11, Bay Street",2444,(02) 6583 4888,Port Macquarie-Hastings Council,"Urinary tract infection, Oral contraceptive pill"
Port Macquarie,Lord Street Pharmacy,Suite 1/85 Lord Street,2444,(02) 6583 4711,Port Macquarie-Hastings Council,"Urinary tract infection, Oral contraceptive pill"
Port Macquarie,Flynn's Beach Pharmacy,Shop 4/53 Pacific Drive,2444,(02) 6583 7466,Port Macquarie-Hastings Council,"Urinary tract infection, Oral contraceptive pill"
Port Macquarie,Lake Road Pharmacy,72/80 Lake Road,2444,(02) 6584 1366,Port Macquarie-Hastings Council,"Urinary tract infection, Oral contraceptive pill"
Port Macquarie,Chemist Warehouse Bay Park Plaza,5/4 Bay Street,2444,(02) 6583 2697,Port Macquarie-Hastings Council,"Urinary tract infection, Oral contraceptive pill"
Port Macquarie,Port Macquarie Priceline Pharmacy,36 Horton Street,2444,(02) 6583 1900,Port Macquarie-Hastings Council,Urinary tract infection
Port Macquarie,Plunkett's TerryWhite Chemmart Port Macquarie,158 Gordon Street,2444,(02) 6584 0044,Port Macquarie-Hastings Council,"Urinary tract infection, Oral contraceptive pill"
Port Macquarie,Chemist Warehouse Port Central Shopping Centre,"Shop 47/48, 40-42 Horton Street",2444,(02) 6583 4933,Port Macquarie-Hastings Council,"Urinary tract infection, Oral contraceptive pill"
Port Macquarie,Shelly Beach Pharmacy,"Shop 1, 1A Waniora Parkway",2444,(02) 5590 0166,Port Macquarie-Hastings Council,"Urinary tract infection, Oral contraceptive pill"
Port Macquarie,The Good Shepherd Pharmacy,1/10 Jindalee Road,2444,(02) 6581 3564,Northern Beaches Council,"Urinary tract infection, Oral contraceptive pill"
Portland,Portland Pharmacy,59 Williwa Street,2847,(02) 6355 5100,City of Lithgow Council,"Urinary tract infection, Oral contraceptive pill"
Potts Point,Potts Point Pharmacy,7/1-21 Darlinghurst Road,2011,(02) 8354 1851,"Sydney, Council of the City of","Urinary tract infection, Oral contraceptive pill"
Potts Point,Blakes Pharmacy,18 Darlinghurst Road,2011,(02) 9358 6712,"Sydney, Council of the City of","Urinary tract infection, Oral contraceptive pill"
Potts Point,Amcal Pharmacy Potts Point,Shop 4/81 Macleay Street,2011,(02) 9368 0310,Council of the City of Sydney,"Urinary tract infection, Oral contraceptive pill"
Potts Point,TerryWhite Chemmart Kings Cross,"Shop 5, 111 Darlinghurst Road",2011,(02) 9358 1822,Council of the City of Sydney,"Urinary tract infection, Oral contraceptive pill"
Potts Point,Priceline Pharmacy Potts Point,"Shop 2, 50 Macleay Street",2011,(02) 9358 6463,Council of the City of Sydney,"Urinary tract infection, Oral contraceptive pill"
Potts Point,Kings Cross Centre Pharmacy,TG 13 82-94 Darlinghurst Road,2011,(02) 8084 7504,"Sydney, Council of the City of","Urinary tract infection, Oral contraceptive pill"
Pottsville Beach,Ramsay Pharmacy Pottsville Beach,"Shop 3, 15 Coronation Avenue",2489,(02) 6676 3044,Tweed Shire Council,"Urinary tract infection, Oral contraceptive pill"
Prestons,Pennas Prestons Pharmacy,57 Minnamurra Cct,2171,(02) 9607 0999,Liverpool City Council,"Urinary tract infection, Oral contraceptive pill"
Prestons,MediPharm Discount Chemist,7/2 Lyn Parade,2170,(02) 8784 3838,Liverpool City Council,Urinary tract infection
Prospect,Chemist Connect Prospect,2/3 Aldgate Street,2148,(02) 9631 0941,Blacktown City Council,Urinary tract infection
Punchbowl,Punchbowl Pharmacy,252-254 The Boulevarde,2196,(02) 9759 2259,Canterbury Bankstown Council,"Urinary tract infection, Oral contraceptive pill"
Punchbowl,Chemist Warehouse Punchbowl,Shop 18/1 Broadway,2196,(02) 8381 4500,Canterbury Bankstown Council,"Urinary tract infection, Oral contraceptive pill"
Pymble,Pymble Pharmacy,99-101 Grandview Street,2073,(02) 8294 8948,Ku-ring-gai Council,"Urinary tract infection, Oral contraceptive pill"
Pyrmont,TerryWhite Chemmart Miller St,2/110 Miller Street,2009,(02) 9188 1481,Council of the City of Sydney,"Urinary tract infection, Oral contraceptive pill"
Quakers Hill,Good Price Discount Pharmacy,"Shop 12, Quakers Road & Falmouth Road",2148,(02) 9626 0243,Blacktown City Council,"Urinary tract infection, Oral contraceptive pill"
Queanbeyan,Blooms the Chemist Queanbeyan,"Shop 2-3, 183 Crawford Street",2620,(02) 6297 1872,Queanbeyan-Palerang Regional Council,"Urinary tract infection, Oral contraceptive pill"
Queanbeyan,Queanbeyan Pharmacy,23 Antill Street,2620,(02) 6297 6570,Queanbeyan-Palerang Regional Council,"Urinary tract infection, Oral contraceptive pill"
Quirindi,Quirindi Pharmacy,8/22 Station Street,2343,(02) 6746 1255,Liverpool Plains Shire Council,"Urinary tract infection, Oral contraceptive pill"
Ramsgate,Tuckers Pharmacy,282 Rocky Point Road,2217,(02) 9529 7472,Bayside Council,"Urinary tract infection, Oral contraceptive pill"
Ramsgate,The Centre Pharmacy Sans Souci,183A Ramsgate Road,2217,(02) 9529 8728,Bayside Council,"Urinary tract infection, Oral contraceptive pill"
Ramsgate Beach,Eddie's Pharmacy,211B Ramsgate Road,2217,(02) 9529 3367,Bayside Council,"Urinary tract infection, Oral contraceptive pill"
Randwick,Simons Pharmacy,1 Belmore Road,2031,(02) 9399 3040,Randwick City Council,"Urinary tract infection, Oral contraceptive pill"
Randwick,Hospital Foyer Pharmacy,S6 Randwick Hospitals Campus CentreBarker Street,2031,(02) 9382 8800,Randwick City Council,"Urinary tract infection, Oral contraceptive pill"
Randwick,Blooms the Chemist Royal Randwick,"Shop 26, Royal Randwick Shopping Centre, 73 Belmore Road",2031,(02) 9398 1999,City of Randwick,"Urinary tract infection, Oral contraceptive pill"
Randwick,Chemist Warehouse Randwick,"Shop 1-3, 166-168 Belmore Road",2031,(02) 9398 4849,Randwick City Council,"Urinary tract infection, Oral contraceptive pill"
Randwick,Frenchmans Road Pharmacy,59 Frenchmans Road,2031,(02) 9399 3921,City of Randwick,"Urinary tract infection, Oral contraceptive pill"
Raymond Terrace,Capital Chemist Raymond Terrace​,18 William Street,2324,(02) 4987 3466,Port Stephens Council,"Urinary tract infection, Oral contraceptive pill"
Raymond Terrace,TerryWhite Chemmart Raymond Terrace,"Shop 4, Terrace Central 34 Sturgeon Street",2324,(02) 4987 2492,Port Stephens Council,"Urinary tract infection, Oral contraceptive pill"
Raymond Terrace,Blooms the Chemist Raymond Terrace,"Shop 17, The Marketplace, 35 William Street",2324,(02) 4987 5975,Port Stephens Council,"Urinary tract infection, Oral contraceptive pill"
Redfern,Redfern Discount Drug Store,"Ground Floor, 147-151 Redfern Street",2016,(02) 8313 2929,Council of the City of Sydney,"Urinary tract infection, Oral contraceptive pill"
Redhead,My Village Pharmacy Redhead,1/103 Cowlishaw Street,2290,(02) 4944 7165,Lake Macquarie City Council,"Urinary tract infection, Oral contraceptive pill"
Regents Park,Regents Park Pharmacy,34 Amy Street,2143,(02) 9644 2605,Cumberland Council,"Urinary tract infection, Oral contraceptive pill"
Revesby,Cincotta Discount Chemist Revesby,28 Marco Avenue,2212,(02) 9773 8510,Canterbury Bankstown Council,"Urinary tract infection, Oral contraceptive pill"
Revesby,Pharmacy 4 Less Revesby,21 Revesby Place,2212,(02) 9773 9186,Canterbury Bankstown Council,"Urinary tract infection, Oral contraceptive pill"
Revesby,TerryWhite Chemmart Revesby,"Shop 16, 19-29 Marco Avenue",2212,(02) 9773 8153,Canterbury Bankstown Council,"Urinary tract infection, Oral contraceptive pill"
Rhodes,Priceline Pharmacy Rhodes,"Shop 1, 1 Rider Boulevard",2138,(02) 9743 3965,City of Canada Bay Council,"Urinary tract infection, Oral contraceptive pill"
Rhodes,Cincotta Discount Chemist Rhodes,"Shop G30, 6-14 Walker Street",2138,(02) 9189 9788,City of Canada Bay Council,"Urinary tract infection, Oral contraceptive pill"
Richmond,Blooms the Chemist Richmond,"Shop 45, Richmond Market Place, 46 March Street",2753,(02) 4578 1557,Hawkesbury City Council,"Urinary tract infection, Oral contraceptive pill"
Riverwood,Belm​ore Road Pharmacy,323 Belmore Road,2210,(02) 9153 8710,Georges River Council,"Urinary tract infection, Oral contraceptive pill"
Riverwood,Galluzzo's Pharmacy Riverwood Plaza,Shop 11-14/247 Belmore Road,2210,(02) 9534 2000,Georges River Council,"Urinary tract infection, Oral contraceptive pill"
Riverwood,Burkes Riverwood Pharmacy,272 Belmore Road,2210,(02) 9153 8762,Georges River Council,"Urinary tract infection, Oral contraceptive pill"
Riverwood,Pharmasave Riverwood Discount Chemist,278-280 Belmore Road,2210,(02) 9153 7347,Georges River Council,"Urinary tract infection, Oral contraceptive pill"
Robertson,Robertson Village Pharmacy,Shop 2 101-103 Hoddle Street,2577,(02) 4885 2936,Wingecarribee Shire Council,"Urinary tract infection, Oral contraceptive pill"
Rockdale,Rockdale Compounding Pharmacy,487 Princes Highway,2216,(02) 9567 3404,Bayside Council,"Urinary tract infection, Oral contraceptive pill"
Rockdale,Chemist Outlet Rockdale,19 Bay Street,2216,(02) 9597 3431,Bayside Council,"Urinary tract infection, Oral contraceptive pill"
Rockdale,Chemist Hub Rockdale,496 Princes Highway,2216,(02) 9567 2632,Bayside Council,"Urinary tract infection, Oral contraceptive pill"
Rooty Hill,Pharmasave Master Pharmacy Outlet,"Shop 1-3, 52 Road Hill Road North",2766,(02) 9625 8677,Blacktown City Council,Urinary tract infection
Ropes Crossing,Ropes Central Pharmacy,8 Central Place,2760,(02) 9623 3888,Blacktown City Council,"Urinary tract infection, Oral contraceptive pill"
Rosebay,TerryWhite Chemmart Gaslight Pharmacy,484 Old South Head Road,2029,(02) 9371 9414,Woollahra Municipal Council,"Urinary tract infection, Oral contraceptive pill"
Rosebery,Roseberry Pharmacy,387 Gardeners Rd,2018,(02) 9667 1102,Bayside Council,"Urinary tract infection, Oral contraceptive pill"
Rosebery,Rothschild Avenue Pharmacy,206/28 Rothschild Avenue,2018,(02) 7251 0930,"Sydney, Council of the City of","Urinary tract infection, Oral contraceptive pill"
Roselands,Priceline Pharmacy Roselands,"Shop L25, Roselands Drive",2196,(02) 9759 1444,Canterbury Bankstown Council,"Urinary tract infection, Oral contraceptive pill"
Roselands,Pharmacy 4 Less Roselands,Shop 2-012,2193,(02) 8488 1806,Canterbury Bankstown Council,"Urinary tract infection, Oral contraceptive pill"
Roseville,North Shore Pharmacy Roseville,86 Pacific Highway,2069,(02) 9412 1036,Ku-ring-gai Council,"Urinary tract infection, Oral contraceptive pill"
Rouse Hill,TerryWhite Chemmart Rouse Hill,G002/10-14 Market Lane,2155,(02) 8883 0988,The Hills Shire Council,"Urinary tract infection, Oral contraceptive pill"
Rouse Hill,Rouse Hill Soul Pattinson Chemist,"Shop 8, Rouse Hill Village Centre, 18-24 Adelphi Street",2155,(02) 9629 4079,The Hills Shire Council,"Urinary tract infection, Oral contraceptive pill"
Rouse Hill,Cincotta Discount Chemist Rouse Hill,Rouse Hill Town CentreShop GR085 10/14 Market Lane,2155,(02) 8882 9033,The Hills Shire Council,"Urinary tract infection, Oral contraceptive pill"
Rozelle,Adore Pharmacy,671 Darling Street,2039,(02) 9810 7349,Inner West Council,"Urinary tract infection, Oral contraceptive pill"
Ruse,Ruse Village Pharmacy,"Shop 4, 225 Junction Road",2560,(02) 4626 3259,Campbelltown City Council,"Urinary tract infection, Oral contraceptive pill"
Rutherford,TerryWhite Chemmart Rutherford,Shop 6/1 East Mall,2320,(02) 4932 5155,Maitland City Council,"Urinary tract infection, Oral contraceptive pill"
Rutherford,Priceline Pharmacy Rutherford,Shop 10 East Mall,2320,(02) 4932 9493,Maitland City Council,"Urinary tract infection, Oral contraceptive pill"
Ryde,TerryWhite Chemmart Putney,2/227 Morrison Road,2112,(02) 9809 3408,Council of the City of Ryde,"Urinary tract infection, Oral contraceptive pill"
Ryde,Ryde Pharmacy,107 Blaxland Road,2112,(02) 9809 3294,Council of the City of Ryde,"Urinary tract infection, Oral contraceptive pill"
Salamander Bay,Wanda Beach Pharmacy,"Shop 5-6, 251 Soldiers Point Road",2317,(02) 4984 7936,Port Stephens Council,"Urinary tract infection, Oral contraceptive pill"
Salamander Bay,Amcal + Salamander Bay,Shop 12/2 Town Centre Circuit,2317,(02) 4982 7644,Port Stephens Council,"Urinary tract infection, Oral contraceptive pill"
Salamander Bay,Salamander Medical Centre Pharmacy,"Suite 4, 6 Central Avenue",2317,(02) 4911 2331,Port Stephens Council,"Urinary tract infection, Oral contraceptive pill"
San Remo,Priceline Pharmacy Northlakes,Shop 18-21 Pacific Highway,2262,(02) 4390 7188,Central Coast Council,"Urinary tract infection, Oral contraceptive pill"
Sanctuary Point,Chemist Hub Sanctuary Point,195 Kerry Street,2540,(02) 4443 0110,Shoalhaven City Council,"Urinary tract infection, Oral contraceptive pill"
Sans Souci,Star Discount Chemist Dolls Point,"Shop 6, 524-544 Rocky Point Road",2219,(02) 9529 8696,Bayside Council,"Urinary tract infection, Oral contraceptive pill"
Saratoga,Blooms the Chemist Saratoga,"Shop 11, 10 Village Road",2251,(02) 4369 1494,Central Coast Council,"Urinary tract infection, Oral contraceptive pill"
Sawtell,Blooms the Chemist Sawtell,35-37 First Avenue,2452,(02) 6653 1227,Coffs Harbour City Council,"Urinary tract infection, Oral contraceptive pill"
Schofields,TerryWhite Chemmart Schofields,"Shop 1, 217 Railway Terrace",2762,(02) 9626 0366,Blacktown City Council,Urinary tract infection
Schofields South,TerryWhite Chemmart Schofields Village,Shop 13/227 Railway Terrace,2765,(02) 9836 8181,Blacktown City Council,Urinary tract infection
Scone,Scone Discount Pharmacy,"Shop 13-14, 209 Kelly Street, Scone Village Food Emporium",2337,(02) 6545 3604,Upper Hunter Shire Council,"Urinary tract infection, Oral contraceptive pill"
Scone,Chemist Discount Centre Scone,153 Kelly Street,2337,(02) 6545 1007,Upper Hunter Shire Council,"Urinary tract infection, Oral contraceptive pill"
Scotts Head,Scotts Head Pharmacy,"Shop 3, 5 Adin Street",2447,(02) 6569 7788,Nambucca Valley Council,"Urinary tract infection, Oral contraceptive pill"
Seaforth,Seaforth Pharmacy,"Shop 2, 553 Sydney Road",2092,(02) 9948 1476,Northern Beaches Council,"Urinary tract infection, Oral contraceptive pill"
Sefton,Vital Healthcare Pharmacy,141 Wellington Road,2162,(02) 9738 5050,Canterbury Bankstown Council,"Urinary tract infection, Oral contraceptive pill"
Seven Hills,Priceline Pharmacy Seven Hills,"Shop 48, 224 Prospect Highway",2147,(02) 9622 2626,Blacktown City Council,"Urinary tract infection, Oral contraceptive pill"
Seven Hills,TerryWhite Chemmart Seven Hills,65 Boomerang Place,2147,(02) 9622 3131,Blacktown City Council,"Urinary tract infection, Oral contraceptive pill"
Shalvey,Shalvey Pharmacy,483 Luxford Road,2770,(02) 9628 5628,Blacktown City Council,"Urinary tract infection, Oral contraceptive pill"
Shell Cove,Choice Pharmacy Shell Cove,"Shop T9, 101 Cove Boulevard",2529,(02) 4297 4672,Albury City Council,"Urinary tract infection, Oral contraceptive pill"
Shellhabour,Good Price Pharmacy Warehouse Shellharbour,"Shop 002, 211 Lake Entrance Road",2529,(02) 4295 6066,Shellharbour City Council,"Urinary tract infection, Oral contraceptive pill"
Shellharbour,Priceline Pharmacy Shellharbour,"Shop 1023, 211 Lake Entrance Road",2529,(02) 4296 1045,Shellharbour City Council,"Urinary tract infection, Oral contraceptive pill"
Shellharbour,Shellharbour City Pharmacy,14-15/75 Cygnet Avenue,2529,(02) 4296 2896,Shellharbour City Council,"Urinary tract infection, Oral contraceptive pill"
Shellharbour,Shellharbour Village Pharmacy,1/9 Addison Street,2529,(02) 4296 5292,Shellharbour City Council,"Urinary tract infection, Oral contraceptive pill"
Shellharbour City Centre,Chemist Warehouse Shellharbour,Shop 9A Lake Entrance Road,2529,(02) 4297 6333,Shellharbour City Council,"Urinary tract infection, Oral contraceptive pill"
Shoal Bay,Shoal Bay Pharmacy,59 Shoal Bay Road,2315,(02) 4981 1247,Port Stephens Council,"Urinary tract infection, Oral contraceptive pill"
Shoalhaven Heads,Shoalhaven Heads Pharmacy,3/121 Shoalhaven Heads Road,2535,(02) 4448 7727,Shoalhaven City Council,"Urinary tract infection, Oral contraceptive pill"
Shortland,My Community Pharmacy Shortland,310 Sandgate Road,2307,(02) 4955 8180,Newcastle City Council,"Urinary tract infection, Oral contraceptive pill"
Silverwater,Chemist Outlet Silverwater,3 Coal Street,2128,(02) 9735 0100,Council of the City of Parramatta,"Urinary tract infection, Oral contraceptive pill"
Singleton,Priceline Pharmacy Singleton,"Shop 23A, 1 Gowrie Street",2330,(02) 6572 2566,Singleton Council,"Urinary tract infection, Oral contraceptive pill"
Singleton,Singleton Discount Drug Store,122-124 John Street,2330,(02) 6572 2663,Singleton Council,"Urinary tract infection, Oral contraceptive pill"
Singleton Heights,Blooms the Chemist Singleton Heights,"Shop 3 And 4, 108 Blaxland Avenue",2330,(02) 6573 1410,Singleton Council,"Urinary tract infection, Oral contraceptive pill"
South Grafton,Southside Pharmacy,4/94 Bent Street,2460,(02) 6642 3788,Clarence Valley Council,"Urinary tract infection, Oral contraceptive pill"
South Lismore,Lismore Southside Chempro Chemist,13 Casino Street,2480,(02) 6621 4500,Lismore City Council,"Urinary tract infection, Oral contraceptive pill"
South Maroubra,Walsh's Village Pharmacy,3 Meagher Avenue,2035,(02) 9311 0088,City of Randwick,"Urinary tract infection, Oral contraceptive pill"
South Nowra,Goodprice Pharmacy,8/28 Central Avenue,2541,(02) 4421 6333,Shoalhaven City Council,"Urinary tract infection, Oral contraceptive pill"
South Penrith,Priceline Pharmacy Southlands,Corner Maxwell and Evan Street,2750,(02) 4731 6833,Penrith City Council,"Urinary tract infection, Oral contraceptive pill"
South Tamworth,TerryWhite Chemmart Southgate,Shop 5/4 Kathleen Street,2340,(02) 6765 9700,Tamworth Regional Council,Urinary tract infection
South West Rocks,TerryWhite Chemmart South West Rocks,11 Memorial Avenue,2431,(02) 6566 6700,Kempsey Shire Council,"Urinary tract infection, Oral contraceptive pill"
South West Rocks,Blooms the Chemist South West Rocks,"Shop 9, 10, 11 & 12 The Rocks Central, 255-279 Gregory Street",2431,(02) 6566 6155,Kempsey Shire Council,"Urinary tract infection, Oral contraceptive pill"
South West Rocks,South West Rocks Pharmacist Advice,4 Princes Of Wales Avenue,2431,(02) 6566 6280,Kempsey Shire,"Urinary tract infection, Oral contraceptive pill"
South Windsor,Good Life Pharmacy South Windsor,491 George Street,2756,(02) 4577 3057,Hawkesbury City Council,"Urinary tract infection, Oral contraceptive pill"
Speers Point,Speers Point Pharmacy,1/175 Main Road,2284,(02) 4958 1080,Lake Macquarie City Council,"Urinary tract infection, Oral contraceptive pill"
Spring Farm,Choice Pharmacy Spring Farm,Shop1A/254 Richardson Road,2570,(02) 4658 2409,Camden Council,"Urinary tract infection, Oral contraceptive pill"
Spring Ridge,Spring Ridge Pharmacy,76 Darby Road,2343,(02) 6747 3833,Liverpool Plains Shire Council,"Urinary tract infection, Oral contraceptive pill"
Springwood,Blooms the Chemist Springwood,161 Macquarie Road,2777,(02) 4751 2963,Blue Mountains City Council,"Urinary tract infection, Oral contraceptive pill"
St Andrews,St Andrew’s Pharmacy,Shop 4-5/91 Ballantrae Drive,2566,(02) 9603 6484,Campbelltown City Council,"Urinary tract infection, Oral contraceptive pill"
St Clair,MediAdvice Pharmacy St Clair,44 Melville Road,2759,(02) 9670 3904,Penrith City Council,"Urinary tract infection, Oral contraceptive pill"
St Ives,McDonalds Pharmacy St Ives,225 Mona Vale Road,2075,(02) 9144 5905,Ku-ring-gai Council,"Urinary tract infection, Oral contraceptive pill"
St Ives,Priceline Pharmacy St Ives,"Shop 43-44, 166 Mona Vale Road",2075,(02) 9144 7011,Ku-ring-gai Council,"Urinary tract infection, Oral contraceptive pill"
St Ives,Blooms the Chemist St Ives,Shop 3/4 St Ives Shopping Village Corner Memorial Avenue & Mona Vale Road,2075,(02) 9144 6914,Ku-ring-gai Council,"Urinary tract infection, Oral contraceptive pill"
St Ives,Carters Pharmacy,8/351 Mona Vale Road,2075,(02) 9144 1561,Ku-ring-gai Council,"Urinary tract infection, Oral contraceptive pill"
St Ives,O'Loughlin's Medical Pharmacy,166 Mona Vale Road,2075,(02) 9440 0030,Ku-ring-gai Council,"Urinary tract infection, Oral contraceptive pill"
St Johns Park,Discount Drug Store St Johns Park,Shop 12A/56-70 Canberra Street,2176,(02) 9610 5010,Fairfield City Council,Urinary tract infection
St Marys,Easy Script Pharmacy,38 Queen Street,2760,(02) 9623 5023,Penrith City Council,"Urinary tract infection, Oral contraceptive pill"
St Marys,Priceline Pharmacy St Marys,Shop 9&13 St Marys Village,2760,(02) 9673 1010,Penrith City Council,"Urinary tract infection, Oral contraceptive pill"
St Marys,Chemist Warehouse St Mary's,92 Queen Street,2760,(02) 9623 1263,Penrith City Council,Urinary tract infection
St Marys,Colyton Pharmacy,"Shop 3, 30 Day Street",2760,(02) 9623 1260,Penrith City Council,"Urinary tract infection, Oral contraceptive pill"
St Marys,Healthy Living Discount Pharmacy,Shop 1/51 Phillip Street,2760,(02) 9673 2404,Penrith City Council,"Urinary tract infection, Oral contraceptive pill"
Stanhope Gardens,TerryWhite Chemmart Stanhope Gardens,9/2 Sentry Drive,2768,(02) 8883 1988,Blacktown City Council,"Urinary tract infection, Oral contraceptive pill"
Stanmore,Stanmore Pharmacy,Shop 12/140 Percival Road,2048,(02) 9550 0906,Inner West Council,"Urinary tract infection, Oral contraceptive pill"
Stanmore,Stanmore Station Pharmacy,104A Cambridge Street,2048,(02) 9569 4396,Inner West Council,"Urinary tract infection, Oral contraceptive pill"
Stockton,Simply Pharmacy Stockton,59 Mitchell Street,2295,(02) 4928 1328,Newcastle City Council,"Urinary tract infection, Oral contraceptive pill"
Strathfield,The Centre Pharmacy,Shop 2/258-260 Homebush Road,2135,(02) 9642 4480,Strathfield Municipal Council,"Urinary tract infection, Oral contraceptive pill"
Stuarts Point,Stuarts Point Pharmacy,22 Marine Parade,2441,(02) 6569 1074,Kempsey Shire Council,"Urinary tract infection, Oral contraceptive pill"
Suffolk Park,Suffolk Park Pharmacy,Shop 8/1 Clifford Street,2481,(02) 6685 9990,Byron Shire Council,"Urinary tract infection, Oral contraceptive pill"
Summer Hill,Santos Centre Pharmacy,42-44 Lackey Street,2130,(02) 9797 9711,Inner West Council,"Urinary tract infection, Oral contraceptive pill"
Surf Beach,Surf Beach Pharmacy,Shop 1/640 Beach Road,2536,(02) 4471 1596,Eurobodalla Shire Council,"Urinary tract infection, Oral contraceptive pill"
Surry Hills,Blooms the Chemist Surry Hills Crown Street,559 Crown Street,2010,(02) 93102631,City of Sydney,Oral contraceptive pill
Surry Hills,Surry Hills MediAdvice Pharmacy,608 Crown Street,2010,(02) 9319 7547,"Sydney, Council of the City of","Urinary tract infection, Oral contraceptive pill"
Sussex Inlet,Sussex Inlet Pharmacy,192 Jacobs Drive,2540,(02) 4441 2444,Shoalhaven City Council,"Urinary tract infection, Oral contraceptive pill"
Sutherland,Priceline Pharmacy Sutherland,764 Old Princess Highway,2232,(02) 9521 2220,Sutherland Shire Council,"Urinary tract infection, Oral contraceptive pill"
Sutton,Sutton Pharmacy Plus,Shop 1/ 51 Camp Street,2620,(02) 6230 3552,Yass Valley Council,"Urinary tract infection, Oral contraceptive pill"
Swansea,Swansea Discount Drug Store,148 Pacific Highway,2281,(02) 4970 7000,Lake Macquarie City Council,"Urinary tract infection, Oral contraceptive pill"
Swansea,Swansea Wholelife Pharmacy and Health,208 Pacific Highway,2281,(02) 4970 8800,Lake Macquarie City Council,"Urinary tract infection, Oral contraceptive pill"
Sydney,TerryWhite Chemmart Clarence Street,"Shop 1, 100 Clarence Street",2000,(02) 9299 2858,"Sydney, Council of the City of","Urinary tract infection, Oral contraceptive pill"
Sydney,Glover Chemist,500 George Street,2000,(02) 9267 0233,City of Sydney,"Urinary tract infection, Oral contraceptive pill"
Sydney,Priceline Pharmacy Hyde Park,"Shop 1, 227 Elizabeth St",2000,(02) 9262 7700,Council of the City of Sydney,"Urinary tract infection, Oral contraceptive pill"
Sydney,Priceline Pharmacy Wynyard,Shop 36/301 George Street,2000,(02) 9262 6305,Council of the City of Sydney,"Urinary tract infection, Oral contraceptive pill"
Sydney,Priceline Pharmacy Town Hall Square,Shop 21A-22/464-484 Kent Street,2000,(02) 9264 8928,Council of the City of Sydney,"Urinary tract infection, Oral contraceptive pill"
Sydney,Chemist Warehouse Sydney George Street,379-385 George Street,2000,(02) 8381 4514,Council of the City of Sydney,"Urinary tract infection, Oral contraceptive pill"
Sydney,Your Chemist Shop Martin Place,Shop 6/19-25 Martin Place,2000,(02) 8520 6014,Council of the City of Sydney,"Urinary tract infection, Oral contraceptive pill"
Sydney,Martin Place Pharmacy,"Shop 12, 52 Martin Place",2000,(02) 9232 7912,Council of the City of Sydney,"Urinary tract infection, Oral contraceptive pill"
Sydney,Priceline Pharmacy Metcentre Sydney,"Shop G20 Metcentre, 273 George Street",2000,(02) 9247 2045,Council of the City of Sydney,"Urinary tract infection, Oral contraceptive pill"
Sydney,Chemist Warehouse Sydney Pitt Street North,80 Pitt Street,2000,(02) 9247 5566,Council of the City of Sydney,"Urinary tract infection, Oral contraceptive pill"
Sydney,Quay Quarter Pharmacy,50 Bridge Street,2000,(02) 9251 0836,Council of the City of Sydney,"Urinary tract infection, Oral contraceptive pill"
Sydney,Terrywhite Chemmart Macquarie Street,Shop 1/185 Macquarie Street,2000,(02) 9221 1622,"Sydney, Council of the City of","Urinary tract infection, Oral contraceptive pill"
Sydney,Priceline Pharmacy Margaret Street,"Shop 1, 1 Margaret Street",2000,(02) 9290 3355,Council of the City of Sydney,Urinary tract infection
Sydney,Chemist Warehouse Sydney Hyde Park,3/299 Elizabeth Street,2000,(02) 9261 4447,Council of the City of Sydney,"Urinary tract infection, Oral contraceptive pill"
Sydney,Sydney Medical Centre Pharmacy,"Level 11, 501 George St",2000,(02)9264 0484,Council of the City of Sydney,"Urinary tract infection, Oral contraceptive pill"
Sydney Olympic Park,Chemist Warehouse Sydney Olympic Park,Shops 3 to 5/11 Murray Rose Avenue,2127,(02) 9746 9706,Council of the City of Parramatta,"Urinary tract infection, Oral contraceptive pill"
Sylvania,Southgate Pharmacy,"Shop 16, Princes Highway and Port Hacking Road",2224,(02) 9522 9343,Sutherland Shire Council,"Urinary tract infection, Oral contraceptive pill"
Sylvania,Box Village Healthsave Pharmacy,3A/262 Corner Box Road And Corea Street,2224,(02) 9522 9119,Sutherland Shire Council,"Urinary tract infection, Oral contraceptive pill"
Sylvania Waters,Sylvania Waters Pharmacy,"Shop 9, 12-14 Murrumbidgee Avenue",2224,(02) 9522 6215,Sutherland Shire Council,"Urinary tract infection, Oral contraceptive pill"
TaNoneba Bay,TerryWhite Chemmart TaNoneba Bay,"Shop 5, TaNoneba Bay S/C, Lemon Tree Passage Road",2319,(02) 4982 3130,Port Stephens Council,"Urinary tract infection, Oral contraceptive pill"
Tahmoor,Priceline Pharmacy Tahmoor,Shop 12/117 Remembrance Drive,2573,(02) 4681 8713,Wollondilly Shire Council,"Urinary tract infection, Oral contraceptive pill"
Tahmoor,Pharmacy 4 Less Tahmoor,"Shop 5&6, 161-173 Remembrance Drive",2573,(02) 4681 0224,Wollondilly Shire Council,"Urinary tract infection, Oral contraceptive pill"
Tamworth,Priceline Pharmacy Tamworth Square,"Shop 21, 436 Peel Street",2340,(02) 6766 3997,Tamworth Regional Council,"Urinary tract infection, Oral contraceptive pill"
Tamworth,Good Price Pharmacy Warehouse Tamworth,"Shop 6, Tamworth Homespace, 425-437 Goonoo Road",2340,(02) 6762 3211,Tamworth Regional Council,"Urinary tract infection, Oral contraceptive pill"
Tamworth,The Centre Pharmacy Tamworth,"Northgate Shopping CentreShop 7 & 8, 1 Piper Street",2340,(02) 6766 1818,Tamworth Regional Council,"Urinary tract infection, Oral contraceptive pill"
Tamworth,Blooms the Chemist Tamworth,348 Peel Street,2340,(02) 6766 2895,Tamworth Regional Council,"Urinary tract infection, Oral contraceptive pill"
Tamworth,Howles Pharmacy,"Shop 35 Tamworth Shoppingworld, Cnr Bridge and Denne Street",2340,(02)6765 8243,Tamworth Regional Council,"Urinary tract infection, Oral contraceptive pill"
Tamworth,Chemist Warehouse Tamworth,2/130 Peel Street,2340,(02) 6766 2360,Tamworth Regional Council,"Urinary tract infection, Oral contraceptive pill"
Taree,Priceline Pharmacy Taree,171 Victoria Street,2430,(02) 6552 2000,Mid-Coast Council,"Urinary tract infection, Oral contraceptive pill"
Taree,TerryWhite Chemmart Taree,9/60 Manning Street,2430,(02) 6551 7766,Mid-Coast Council,"Urinary tract infection, Oral contraceptive pill"
Taree,Chemist Warehouse Taree,40-42 Manning Street,2430,(02) 8381 4536,Mid-Coast Council,"Urinary tract infection, Oral contraceptive pill"
Taree,Coopers Pharmacy Taree,Shop 7-9 Manning Mall,2430,(02) 6552 1743,Mid-Coast Council,"Urinary tract infection, Oral contraceptive pill"
Taree,Coopers Pharmacy Chatham,11 Oxley Street,2430,(02) 6552 2955,Mid-Coast Council,"Urinary tract infection, Oral contraceptive pill"
Taree,Blooms the Chemist Taree,2-4 Manning Street,2430,(02) 6552 1662,Mid-Coast Council,"Urinary tract infection, Oral contraceptive pill"
Tea Gardens,Myall Pharmacy Tea Gardens,2/8-12 Myall Quays Boulevard,2324,(02) 4997 2445,Mid-Coast Council,Urinary tract infection
Telarah,Telarah Pharmacy,6/34 South Street,2320,(02) 4931 9606,Maitland City Council,"Urinary tract infection, Oral contraceptive pill"
Temora,Capital Chemist Temora,204 Hoskins Street,2666,(02) 6977 2026,Temora Shire Council,"Urinary tract infection, Oral contraceptive pill"
Temora,Harvest Pharmacy,112 Hoskins Street,2666,(02) 6977 4826,Temora Shire Council,"Urinary tract infection, Oral contraceptive pill"
Tenambit,Tenambit Pharmacy,47 Maize Street,2323,(02) 4933 6501,Maitland City Council,"Urinary tract infection, Oral contraceptive pill"
Terrigal,Terrigal Pharmacy,9 Church Street,2260,(02) 4385 1427,Central Coast Council,"Urinary tract infection, Oral contraceptive pill"
Terrigal,Kuoch Chemist Terrigal,Shop 1&2 80 Terrigal Esplanade,2260,(02) 4384 1173,Central Coast Council,"Urinary tract infection, Oral contraceptive pill"
The Entrance,Kuoch Chemist the Entrance,3/40-48 The Entrance Road,2261,(02) 4332 2662,Central Coast Council,"Urinary tract infection, Oral contraceptive pill"
The Junction,TerryWhite Chemmart Junction Fair,"Shop 18, Glebe Road and Union Street",2291,(02) 4962 1599,Newcastle City Council,"Urinary tract infection, Oral contraceptive pill"
The Junction,Priceline Pharmacy The Junction,196 Union Street,2291,(02) 4961 1313,Newcastle City Council,"Urinary tract infection, Oral contraceptive pill"
The Ponds,Priceline Pharmacy The Ponds,"Tenancy 24, Corner The Ponds Boulevard and Riverbank Drive",2769,(02) 9629 7422,Blacktown City Council,"Urinary tract infection, Oral contraceptive pill"
The Rocks,The Rocks Chemist,97 George Street,2000,(02) 9247 2625,"Sydney, Council of the City of","Urinary tract infection, Oral contraceptive pill"
Thirroul,Smith's Chemist,"Shop 11, 1A King Street",2515,(02) 4268 4711,Wollongong City Council,"Urinary tract infection, Oral contraceptive pill"
Thirroul,Thirroul Pharmacy,"Shop 4, 277A Lawrence Hargrave Drive",2515,(02) 4268 1067,Wollongong City Council,"Urinary tract infection, Oral contraceptive pill"
Thornleigh,Inform Pharmacy Thornleigh,Shop 8 /2-12 The Comenarra Parkway,2120,(02) 9484 1664,The Council of the Shire of Hornsby,"Urinary tract infection, Oral contraceptive pill"
Thornton,Chemist Outlet Thornton,Suite 5 2 Poynton Place,2322,(02) 4188 8111,Maitland City Council,"Urinary tract infection, Oral contraceptive pill"
Thornton,Thornton Discount Drug Store,"Shop 20-21 Thornton Shopping Centre, Taylor Avenue",2322,(02) 4966 5359,Maitland City Council,"Urinary tract infection, Oral contraceptive pill"
Thurgoona,Thurgoona Family Pharmacy,12/10 Shuter Avenue,2640,(02) 6043 1444,Albury City Council,Urinary tract infection
Tocumwal,The Tocumwal Pharmacy,34-36 DeNoneiquin Street,2714,(03) 5874 2082,Berrigan Shire Council,"Urinary tract infection, Oral contraceptive pill"
Toongabbie,Toongabbie Discount Drug Store,13 Auerlia Street,2146,(02) 9631 3268,Cumberland Council,"Urinary tract infection, Oral contraceptive pill"
Toormina,Blooms the Chemist Toormina,"Shop Sp047, Toormina Gardens Shopping Centre, 5 Toormina Road",2452,(02) 6653 1444,City of Coffs Harbour,"Urinary tract infection, Oral contraceptive pill"
Toronto,Priceline Pharmacy Toronto,Shop 14/63 The Boulevarde,2283,(02) 4950 3000,Lake Macquarie City Council,"Urinary tract infection, Oral contraceptive pill"
Toronto,Simply Pharmacy Toronto,42-44 The Boulevarde,2283,(02) 4959 2152,Lake Macquarie City Council,"Urinary tract infection, Oral contraceptive pill"
Toukley,Noraville Pharmacy,368 Main Road,2263,(02) 4396 4785,Central Coast Council,"Urinary tract infection, Oral contraceptive pill"
Toukley,Beachcomber Pharmacy,Shop 3-4/45 Canton Beach Road,2263,(02) 4396 4118,Central Coast Council,"Urinary tract infection, Oral contraceptive pill"
Toukley,Kuoch Chemist Toukley,4/219 Main Road,2263,(02) 4396 4017,Central Coast Council,"Urinary tract infection, Oral contraceptive pill"
Toukley,Cincotta Discount Chemist Toukley,1/213-217 Main Road,2263,(02) 4396 4137,Central Coast Council,"Urinary tract infection, Oral contraceptive pill"
Tregear,Tregear Discount Drug Store,"Shop 6, 159 Aurora Drive",2770,(02) 9628 6612,Blacktown City Council,"Urinary tract infection, Oral contraceptive pill"
Tuggerah,Priceline Pharmacy Tuggerah,50 Wyong Rd,2259,(02) 4353 5211,Central Coast Council,"Urinary tract infection, Oral contraceptive pill"
Tuggerah,TerryWhite Chemmart Tuggerah,Shop 1070,2259,(02) 4353 5550,Central Coast Council,"Urinary tract infection, Oral contraceptive pill"
Tuggerawong,Chemcare Compounding Chemist,"Shop 5, 2 Cadonia Road",2259,(02) 4392 3547,Central Coast Council,"Urinary tract infection, Oral contraceptive pill"
Tumbi Umbi,Chemist Outlet Tumbi Umbi,1/7 Mingara Drive,2261,(02) 4388 1922,Central Coast Council,"Urinary tract infection, Oral contraceptive pill"
Tumut,The Bush Chemist Tumut,69 Wynyard Street,2720,(02) 6947 1179,Snowy Valleys Council,"Urinary tract infection, Oral contraceptive pill"
Tuncurry,Great Lakes Pharmacy,4/11 Manning Street,2428,(02) 6555 4000,Mid-Coast Council,"Urinary tract infection, Oral contraceptive pill"
Tura Beach,Direct Chemist Outlet Tura Beach,"Shop 9 & 10, 1 Tura Beach Drive",2548,(02) 6495 0510,Bega Valley Shire Council,"Urinary tract infection, Oral contraceptive pill"
Turramurra,Taylor's Pharmacy Turramurra,27 Rohini Street,2074,(02) 9144 1363,Ku-ring-gai Council,"Urinary tract infection, Oral contraceptive pill"
Turramurra,Eastern Road Pharmacy,101A Eastern Road,2074,(02) 9489 4808,Ku-ring-gai Council,"Urinary tract infection, Oral contraceptive pill"
Turvey Park,Soul Pattinson Turvey Park Pharmacy,"Shop 3, 44-66 Fernleigh Road",2650,(02) 6925 2648,Wagga Wagga City Council,Urinary tract infection
Tweed Heads,West Tweed Chempro Chemist,4/212 Kennedy Drive,2485,(07) 5536 4399,Tweed Shire Council,"Urinary tract infection, Oral contraceptive pill"
Tweed Heads,Priceline Pharmacy Tweed Heads,38 Wharf Street,2485,(07) 5536 2642,Tweed Shire Council,"Urinary tract infection, Oral contraceptive pill"
Tweed Heads,Tweed Day And Night Chempro Chemist,1/97 Kennedy Drive,2485,(07) 5536 5638,Tweed Shire Council,Urinary tract infection
Tweed Heads,Tweed Mall Chempro,Shop MM 02,2485,(07) 5536 4455,Tweed Shire Council,"Urinary tract infection, Oral contraceptive pill"
Tweed Heads,Blooms the Chemist Tweed City Central,"Shop 115, 54 Minjungbal Drive",2486,(07) 5523 3325,Tweed Shire Council,Urinary tract infection
Tweed Heads South,Blooms the Chemist Tweed City,"Shop 204, 54 Minjungbal Drive",2486,(07) 5524 4974,Tweed Shire Council,Urinary tract infection
Ulladulla,Priceline Pharmacy Ulladulla,"Shop 1, Phillip Centre, Princes Highway",2539,(02) 4455 1150,Shoalhaven City Council,"Urinary tract infection, Oral contraceptive pill"
Ulladulla,Capital Chemist Ulladulla,Shop T4 119-121 Princes Highway,2539,(02) 4455 3335,Shoalhaven City Council,"Urinary tract infection, Oral contraceptive pill"
Umina Beach,Blooms The Chemist Umina,Shop 6/286 West Street,2257,(02) 4341 6906,Central Coast Council,"Urinary tract infection, Oral contraceptive pill"
Umina Beach,Yousave Chemist Umina Beach,315 West Street,2257,(02) 4341 1488,Central Coast Council,"Urinary tract infection, Oral contraceptive pill"
Unanderra,Unanderra Pharmacy,33 Central Road,2526,(02) 4271 1204,Wollongong City Council,"Urinary tract infection, Oral contraceptive pill"
Unanderra,Centre Pharmacy Unaderra,120 Princes Highway,2526,(02) 4271 1020,Wollongong City Council,"Urinary tract infection, Oral contraceptive pill"
Uralla,Uralla Pharmacy,70-74 Bridge Street,2358,(02) 6778 5011,Uralla Shire Council,"Urinary tract infection, Oral contraceptive pill"
Urana,Urana Pharmacy,6-8 Osborne Street,2645,(02) 6920 8822,Federation Council,"Urinary tract infection, Oral contraceptive pill"
Urunga,The Urunga Pharmacy,10 Bowra Street,2455,(02) 6655 6104,Bellingen Shire Council,"Urinary tract infection, Oral contraceptive pill"
Valentine,Chemist Hub Valentine,70A Dilkera Avenue,2280,(02) 4946 8464,Lake Macquarie City Council,"Urinary tract infection, Oral contraceptive pill"
Valla Beach,Valla Pharmacy,"Shop 3, 35-39 Valla Beach Road",2448,(02) 6569 6976,Nambucca Valley Council,"Urinary tract infection, Oral contraceptive pill"
Vaucluse,Rose Bay North Pharmacy,8 Old South Head Road,2023,(02) 9337 4749,Woollahra Municipal Council,"Urinary tract infection, Oral contraceptive pill"
Villawood,Rochester's Pharmacy,8 Villawood Place,2163,(02) 9724 4383,Fairfield City Council,"Urinary tract infection, Oral contraceptive pill"
Vincentia,Choice Pharmacy Vincentia,"Shop 21, 8 Moona Creek Road",2540,(02) 4443 7461,Shoalhaven City Council,"Urinary tract infection, Oral contraceptive pill"
Vineyard,Good Price Pharmacy Warehouse McGraths Hill,"Shop 4A, 10 Industry Road",2765,(02) 4577 7200,Hawkesbury City Council,"Urinary tract infection, Oral contraceptive pill"
Wadalba,Wadalba Pharmacy,Shop 1 2 Edward Stinson Avenue,2259,(02) 4393 2211,Central Coast Council,"Urinary tract infection, Oral contraceptive pill"
Wagga Wagga,The Bush Chemist Wagga,82 Murray Street,2650,(02) 6921 4652,Wagga Wagga City Council,"Urinary tract infection, Oral contraceptive pill"
Wagga Wagga,South City Pharmacy Wagga Wagga,5A Tanda Place,2650,(02) 6971 3550,Wagga Wagga City Council,"Urinary tract infection, Oral contraceptive pill"
Wagga Wagga,Michael O'Reilly Pharmacy,67 Baylis Street,2650,(02) 6921 3315,Wagga Wagga City Council,"Urinary tract infection, Oral contraceptive pill"
Wagga Wagga,Blooms the Chemist Sturt Mall,"Shop 13, Tompson Street",2650,(02) 6921 2101,Wagga Wagga City Council,"Urinary tract infection, Oral contraceptive pill"
Wagga Wagga,Northside Pharmacy,12 Gurwood Street,2650,(02) 6921 3364,Wagga Wagga City Council,"Urinary tract infection, Oral contraceptive pill"
Wagga Wagga,TerryWhite Chemmart Tolland,"Shop 5, 231 Bourke St",2650,(02) 4332 5166,Wagga Wagga City Council,"Urinary tract infection, Oral contraceptive pill"
Wagga Wagga,Cincottta Discount Chemist Wagga Wagga,157-159 Baylis Street,2650,(02) 6921 7029,Wagga Wagga City Council,"Urinary tract infection, Oral contraceptive pill"
Wahroonga,Wahroonga Pharmacy,4 Railway Avenue,2076,(02) 9489 3180,Ku-ring-gai Council,"Urinary tract infection, Oral contraceptive pill"
Wahroonga,Chemist on Redleaf,"Shop 6, 2 Redleaf Avenue",2076,(02) 9489 0329,Ku-ring-gai Council,"Urinary tract infection, Oral contraceptive pill"
Wahroonga,East Wahroonga Community Pharmacy,"Shop 6, 46 Hampden Avenue",2076,(02) 9489 5632,Ku-ring-gai Council,"Urinary tract infection, Oral contraceptive pill"
Wakeley,Wakeley Pharmacy,8/30 Bulls Road,2176,(02) 9609 5396,Fairfield City Council,"Urinary tract infection, Oral contraceptive pill"
Walcha,Kings Pharmacy Walcha,10N Derby Street,2354,(02) 6777 2744,Walcha Council,"Urinary tract infection, Oral contraceptive pill"
Walla Walla,TerryWhite Chemmart Walla Walla,84 Commercial Street,2659,(02) 6029 2496,Greater Hume Shire Council,"Urinary tract infection, Oral contraceptive pill"
Wallerawang,Wallerawang Pharmacy,60A Main Street,2845,(02) 6355 1888,"Lithgow Council, City of","Urinary tract infection, Oral contraceptive pill"
Wallsend,Wilson's Pharmacy Wallsend,136 Nelson Street,2287,(02) 4955 9874,Newcastle City Council,"Urinary tract infection, Oral contraceptive pill"
Wallsend,Simply Pharmacy Wallsend,Shop 1/24 Kokera Street,2287,(02) 4955 6855,Newcastle City Council,"Urinary tract infection, Oral contraceptive pill"
Wamberal,Wamberal Pharmacist Advice,658 The Entrance Road,2260,(02) 4384 1994,Central Coast Council,"Urinary tract infection, Oral contraceptive pill"
Wanniassa,Life Pharmacy Group Erindale,"Shop 11, 2 Denigan St​",2903,(02) 6231 6550,Australian Capital Territory,"Urinary tract infection, Oral contraceptive pill"
Waratah,Waratah Village Amcal Pharmacy,"Waratah Village Shopping Centre 15, 91-111 Turton Road",2298,(02) 4968 3130,Newcastle City Council,"Urinary tract infection, Oral contraceptive pill"
Warialda,Warialda Pharmacy,40-42 Hope Street,2402,(02) 6729 1511,Gwydir Shire Council,"Urinary tract infection, Oral contraceptive pill"
Warilla,Blooms the Chemist Warilla,"Shop MM 1, 43 - 57 Shellharbour Road",2528,(02) 4295 1233,Shellharbour City Council,"Urinary tract infection, Oral contraceptive pill"
Warilla,Wal's Pharmacy,3-5 George Street,2528,(02) 4295 1429,Shellharbour City Council,"Urinary tract infection, Oral contraceptive pill"
Warners Bay,TerryWhite Chemmart Warners Bay,"Suite 4A, 472 The Esplanade",2282,(02) 4948 8166,Lake Macquarie City Council,"Urinary tract infection, Oral contraceptive pill"
Warragamba,Warragamba Pharmacy,25 Fourteenth Street,2752,(02) 4774 1013,Wollondilly Shire Council,"Urinary tract infection, Oral contraceptive pill"
Warrawong,Warrawong Health Pharmacy,"Shop 56/57 Warrawong Plaza, Corner of King Street and Cowper Street",2502,(02) 4274 1119,Wollongong City Council,"Urinary tract infection, Oral contraceptive pill"
Warrawong,Good Price Discount Pharmacy Warrawong,226-230 Cowper Street,2502,(02) 4274 4849,Wollongong City Council,"Urinary tract infection, Oral contraceptive pill"
Warrawong,Priceline Pharmacy Warrawong,Shop 33/34 Warrawong Plaza,2502,(02) 4274 1517,Wollongong City Council,"Urinary tract infection, Oral contraceptive pill"
Warrawong,Cincottta Discount Chemist Warrawong,Shop 2/45 King Street,2502,(02) 4274 2969,Wollongong City Council,"Urinary tract infection, Oral contraceptive pill"
Warren,Warren Pharmacy,118 Dubbo Street,2824,(02) 6847 4154,Warren Shire Council,"Urinary tract infection, Oral contraceptive pill"
Warriewood,Priceline Pharmacy Warriewood,"Sh37/38, 12 Jackson’s Road",2102,(02) 9913 1383,Northern Beaches Council,"Urinary tract infection, Oral contraceptive pill"
Warriewood,Pharmacy 4 Less Warriewood,094/12 Jacksons Road,2102,(02) 9913 2378,Northern Beaches Council,"Urinary tract infection, Oral contraceptive pill"
Wauchope,Plunkett's TerryWhite Chemmart Wauchope,Shop 3/243 High Street,2446,(02) 6585 1188,Port Macquarie-Hastings Council,"Urinary tract infection, Oral contraceptive pill"
Wauchope,Wauchope Pharmacy,26 High Street,2446,(02) 6585 2055,Port Macquarie-Hastings Council,"Urinary tract infection, Oral contraceptive pill"
Wauchope,Timbertown Pharmacy,18 High Street,2446,(02) 6585 2025,Port Macquarie-Hastings Council,"Urinary tract infection, Oral contraceptive pill"
Wentworth Falls,Wentworth Falls Pharmacy,1/38 Station Street,2782,(02) 4757 1410,Blue Mountains City Council,"Urinary tract infection, Oral contraceptive pill"
Wentworth Point,Waterfront Pharmacy,34/4 The Piazza,2127,(02) 9739 9675,Council of the City of Parramatta,"Urinary tract infection, Oral contraceptive pill"
Wentworthville,Wentworthville Medical Centre Pharmacy,122-128 Station Street,2145,(02) 9896 7240,Cumberland Council,Urinary tract infection
Werrington County,TerryWhite Chemmart Werrington,"Shop 5, Dunheved Road",2747,(02) 9623 8858,Penrith City Council,"Urinary tract infection, Oral contraceptive pill"
Werris Creek,Werris Creek Pharmacy,53 Single Street,2341,(02) 6768 7038,Liverpool Plains Shire Council,"Urinary tract infection, Oral contraceptive pill"
West Gosford,West Gosford Pharmacy,Shop 17/299 Brisbane Water Drive,2250,(02) 4325 2866,Central Coast Council,"Urinary tract infection, Oral contraceptive pill"
West Gosford,West Gosford Late Night Chemist,69A Central Coast Highway,2250,(02) 4339 3089,Central Coast Council,"Urinary tract infection, Oral contraceptive pill"
West Pymble,West Pymble Pharmacy,Shop 2/ Philip Mall (Kendall Street),2073,(02) 9498 5552,Ku-ring-gai Council,"Urinary tract infection, Oral contraceptive pill"
West Ryde,Amal's Discount Chemist,1009 Victoria Road,2113,(02) 9809 3596,Council of the City of Ryde,"Urinary tract infection, Oral contraceptive pill"
West Ryde,Star Discount Chemist West Ryde,Shop 11 14 Anthony Road,2114,(02) 9807 8808,Council of the City of Ryde,Urinary tract infection
West Wallsend,Simply Pharmacy West Wallsend,Cnr Of Carrington And Withers Streets,2286,(02) 4953 2907,Lake Macquarie City Council,"Urinary tract infection, Oral contraceptive pill"
West Wyalong,West Wyalong Pharmacy,115 Main Street,2671,(02) 6972 2378,Bland Shire Council,"Urinary tract infection, Oral contraceptive pill"
Westleigh,Westleigh Pharmacy,"Westleigh VillageShop 17, Eucalyptus Drive",2120,(02) 9481 9354,The Council of the Shire of Hornsby,"Urinary tract infection, Oral contraceptive pill"
Westmead,McBeath Pharmacy,"Shop T207, Corner Hawkesbury and Darcy Rd",2145,(02) 8865 7797,Council of the City of Parramatta,"Urinary tract infection, Oral contraceptive pill"
Westmead,Priceline Pharmacy Westmead,"Shop 10-11, 163-171 Hawkesbury Road",2145,(02) 9635 6410,"Parramatta, Council of the City of",Oral contraceptive pill
Weston,Weston Discount Pharmacy,25-29 Station Street,2325,(02) 4937 1173,Cessnock City Council,"Urinary tract infection, Oral contraceptive pill"
Weston​,​Cooleman Court Pharmacy,"Cooleman Court Shopping Centre, Shop 5015 Cooleman Court Brierly Street",2611,​(02) 6288 1867,Australian Capital Territory,"Urinary tract infection, Oral contraceptive pill"
Wetherill Park,Chemistworks Wetherill Park,"Shop MM05, 561 Polding Street",2164,(02) 9609 7239,Fairfield City Council,"Urinary tract infection, Oral contraceptive pill"
Wheeler Heights,Complete Care Pharmacy,"Shop 1, 178 South Creek Road",2097,(02) 9971 5475,Northern Beaches Council,"Urinary tract infection, Oral contraceptive pill"
Whitebridge,My Village Pharmacy Whitebridge,1/136 Dudley Road,2290,(02) 4943 3798,Lake Macquarie City Council,"Urinary tract infection, Oral contraceptive pill"
Willoughby,Andersons Pharmacy,69 Penshurst Street,2068,(02) 9958 8352,Willoughby City Council,"Urinary tract infection, Oral contraceptive pill"
Willoughby North,High Street Day and Night Pharmacy,4/201 High Street,2068,(02) 9958 8153,Willoughby City Council,"Urinary tract infection, Oral contraceptive pill"
Wilton,Wilton Pharmacy,"Shop T3, 1 Greenbridge Drive",2571,(02) 4630 9333,Wollondilly Shire Council,"Urinary tract infection, Oral contraceptive pill"
Windale,Windale Pharmacy,7/8A Lake Street,2306,(02) 4948 8448,Lake Macquarie City Council,"Urinary tract infection, Oral contraceptive pill"
Windang,Windang Pharmacy And Compounding Centre,Shop 1/19 Acacia Street,2528,(02) 4295 1901,Wollongong City Council,"Urinary tract infection, Oral contraceptive pill"
Windradyne,Westpoint Centre Pharmacy,16/1 Wark Parade,2795,(02) 6331 3190,Bathurst Regional Council,"Urinary tract infection, Oral contraceptive pill"
Windsor,Blooms the Chemist Windsor Kable,"Shop 7, 6-16 Kable Street",2756,(02) 4577 3010,Hawkesbury City Council,"Urinary tract infection, Oral contraceptive pill"
Windsor,Blooms the Chemist Windsor Riverview,"Shop 16-17, 227 George Street",2756,(02) 4577 3265,Hawkesbury City Council,"Urinary tract infection, Oral contraceptive pill"
Wingham,Coopers Pharmacy Wingham,"Shop 8 Wingham Plaza, 113-123 Isabella St,",2429,(02) 6553 5336,Mid-Coast Council,"Urinary tract infection, Oral contraceptive pill"
Wingham,Chapman and Wood Pharmacy,103 Isabella St,2429,(02) 6553 4001,Mid-Coast Council,Urinary tract infection
Winmalee,TerryWhite Chemmart Winmalee,Shop 8,2777,(02) 4754 2718,Blue Mountains City Council,Urinary tract infection
Winston Hills,TerryWhite Chemmart Winston Hills,"Shop 20, Caroline Chisholm Drive",2153,(02) 9624 7816,The Hills Shire Council,"Urinary tract infection, Oral contraceptive pill"
Wollongong,Hospital Hill Pharmacy,338-340 Crown Street,2500,(02) 4229 5868,Wollongong City Council,"Urinary tract infection, Oral contraceptive pill"
Wollongong,Convenient Chemist Wollongong,330 Crown Street,2500,(02) 4229 1528,Wollongong City Council,"Urinary tract infection, Oral contraceptive pill"
Wollongong,Priceline Pharmacy Wollongong,"Shop 105, Level 1, 200 Crown Street",2500,(02) 4225 3455,Wollongong City Council,"Urinary tract infection, Oral contraceptive pill"
Wollongong,Discount Drug Stores Wollongong,1 / 128-132 Crown Street,2500,(02) 4229 1622,Wollongong City Council,"Urinary tract infection, Oral contraceptive pill"
Wollongong,Downtown Pharmacy,G01/51 Crown Street,2500,(02) 4229 1025,Wollongong City Council,"Urinary tract infection, Oral contraceptive pill"
Woodcroft,Barone Pharmacy Woodcroft,13/3 Woodcroft Drive,2767,(02) 9621 3079,Blacktown City Council,"Urinary tract infection, Oral contraceptive pill"
Woodrising,Woodrising Compounding Pharmacy,"Shop 1, 84 Hayden Brook Road",2284,(02) 4950 4777,Lake Macquarie City Council,"Urinary tract infection, Oral contraceptive pill"
Woolgoolga,Woolgoolga Coastal Chemist,"Shop 5+6, 46 Beach Street",2456,(02) 6654 1893,Coffs Harbour City Council,"Urinary tract infection, Oral contraceptive pill"
Woolgoolga,Woolgoolga Discount Pharmacy,"Shop 6, 82 Beach Street",2456,(02) 6654 7300,Coffs Harbour City Council,"Urinary tract infection, Oral contraceptive pill"
Woollahra,John Bell Pharmacy,4-6 Oxford Street,2025,(02) 9331 2844,Municipality of Woollahra,"Urinary tract infection, Oral contraceptive pill"
Woolloomooloo,Woolloomooloo Compounding Pharmacy,9/162 Cathedral Street,2011,(02) 9357 2710,Council of the City of Sydney,"Urinary tract infection, Oral contraceptive pill"
Woolooware,Kingsway Night & Day Pharmacy,4-5/206 Kingsway,2230,(02) 9544 1536,Sutherland Shire Council,"Urinary tract infection, Oral contraceptive pill"
Woongarrah,Warnervale Chemist Care,3 Mary Mackillop Drive,2259,(02) 4392 4400,Central Coast Council,"Urinary tract infection, Oral contraceptive pill"
Woonona,Priceline Pharmacy Woonona,398 Princes Highway,2517,(02) 4284 7919,Wollongong City Council,"Urinary tract infection, Oral contraceptive pill"
Woy Woy,Woy Woy Pharmacy,43-45 Blackwall Road,2256,(02) 4341 1101,Central Coast Council,"Urinary tract infection, Oral contraceptive pill"
Woy Woy,Priceline Pharmacy Woy Woy,"Shop 5, 6 George Street",2256,(02) 4341 1306,Central Coast Council,"Urinary tract infection, Oral contraceptive pill"
Woy Woy,Clarkes Amcal Pharmacy,4/62 Blackwall Road,225,(02) 4342 2256,Central Coast Council,"Urinary tract infection, Oral contraceptive pill"
Wyee,Wyee Centre Pharmacy,"Shop 4, 131 Wyee Road",2259,(02) 4357 1166,Lake Macquarie City Council,"Urinary tract infection, Oral contraceptive pill"
Wyoming,Wyoming Chempro Chemist,"Shop 2, 2 Kinnara Avenue",2250,(02) 4328 4081,Central Coast Council,"Urinary tract infection, Oral contraceptive pill"
Wyoming,Chemist Outlet Wyoming,"U1, 470 Pacific Highway",2250,(02) 4321 1312,Central Coast Council,"Urinary tract infection, Oral contraceptive pill"
Wyoming,Maidens Brush Pharmacy,1/129 Maidens Brush Road,2250,(02) 4324 4788,Central Coast Council,"Urinary tract infection, Oral contraceptive pill"
Wyong,Blooms the Chemist Wyong,74 Pacific Highway,2259,(02) 4352 1025,Central Coast Council,"Urinary tract infection, Oral contraceptive pill"
Yagoona,Yagoona Medical Pharmacy,8 Rookwood Road,2199,(02) 8764 6456,Canterbury Bankstown Council,"Urinary tract infection, Oral contraceptive pill"
Yamba,Priceline Pharmacy Yamba,"Shop 15, 1-3 Treelands Drive",2464,(02) 6646 1131,Clarence Valley Council,"Urinary tract infection, Oral contraceptive pill"
Yass,Priceline Pharmacy Yass,108 Comur Street,2582,(02) 6226 1003,Yass Valley Council,"Urinary tract infection, Oral contraceptive pill"
Yass,Capital Chemist Yass,112-114 Comur Street,2582,(02) 6226 1264,Yass Valley Council,"Urinary tract infection, Oral contraceptive pill"
Yass,My Pharmacy Yass,1a/63 Laidlaw Street,2582,(02) 6226 6262,Yass Valley Council,"Urinary tract infection, Oral contraceptive pill"
Young,Hamblins Amcal Pharmacy,96 Boorowa Street,2594,(02) 6382 2455,Hilltops Council,"Urinary tract infection, Oral contraceptive pill"
Young,The Bush Chemist Young,147 Boorowa Street,2594,(02) 6382 1042,Hilltops Council,"Urinary tract infection, Oral contraceptive pill"
Young,Blooms the Chemist Young,46 Boorowa Street,2594,(02) 6382 2009,Hilltops Council,"Urinary tract infection, Oral contraceptive pill"
Zetland,TerryWhite Chemmart East Village,"Shop 50 East Village Shopping Centre 2, 4 Defries Ave",2017,(02) 9538 0044,"Sydney, Council of the City of","Urinary tract infection, Oral contraceptive pill"
​Action​,University Pharmacy ANU,156-B2 Health & Well-Being Centre ANU,2601,(02) 6248 6887,Australian Capital Territory,"Urinary tract infection, Oral contraceptive pill"
​Baradine,​Pharmasave Baradine Pharmacy,​24 Wellington Street,​2396,​(02) 6843 1016,​Warrumbungle Shire Council,"​Urinary tract infection, ​​Oral contraceptive pill"
​Canberra,The Pharmacy On Petrie,"Shop EG01 - A/148 Bunda Street, Ground Floor Petrie St",2601,(02) 6249 8074,Australian Capital Territory,"Urinary tract infection, Oral contraceptive pill"
​Cessnock,​The Chemist Cessnock,​52A Vincent Street,​2325,​(02) 4990 1403,​Cessnock City Council,​​Urinary tract infection
​Coffs Harbour,TerryWhite Chemmart CHC Pharmacy,Suite G05 343-345 Pacific Highway,2450,(02) 6652 2336,Coffs Harbour City Council,"Urinary tract infection, Oral contraceptive pill"
​Conder,Life Pharmacy Group Lanyon,Shop 17 Lanyon Marketplace,2906,(02) 6284 8555,Australian Capital Territory,"Urinary tract infection, Oral contraceptive pill"
​Gledswood Hills,TerryWhite Chemmart Gregory Hills Medical Centre,Soma WellnessShop 2/7 Gregory Hills Drive,2557,(02) 4631 0167,Camden Council,"Urinary tract infection, Oral contraceptive pill"
​Mawson​​,Capital Chemist Southlands​,"Shops 5-7, Southlands Shopping Centre",2607,(02) 6286 3644,Australian Capital Territory,"Urinary tract infection, Oral contraceptive pill"
​Toukley,Toukley Chempro Chemist,237 Main Road,2263,(02) 4396 4228,Central Coast Council,"Urinary tract infection, Oral contraceptive pill"
​Wareemba,​Middletons Pharmacy,​288 Great North Road,​2046,​(02) 9713 7800,​City of Canada Bay Council,​Urinary tract infection
